{"type": "FeatureCollection", "features": [{"type": "Feature", "geometry": {"type": "LineString", "coordinates": [[693812.7689943284, 4375861.436857068], [693812.9004850374, 4375846.912586739]]}, "properties": {"highway": "residential"}}, {"type": "Feature", "geometry": {"type": "LineString", "coordinates": [[693812.7689943284, 4375861.436857068], [693812.4540720535, 4375872.979937714]]}, "properties": {"highway": "trunk"}}, {"type": "Feature", "geometry": {"type": "LineString", "coordinates": [[693812.7689943284, 4375861.436857068], [693802.5186697216, 4375860.90246305]]}, "properties": {"highway": "tertiary"}}, {"type": "Feature", "geometry": {"type": "LineString", "coordinates": [[693812.7689943284, 4375861.436857068], [693822.9283767598, 4375861.480291983]]}, "properties": {"highway": "trunk"}}, {"type": "Feature", "geometry": {"type": "LineString", "coordinates": [[693947.766528982, 4375861.987021126], [693947.8973855947, 4375848.184657828]]}, "properties": {"highway": "residential"}}, {"type": "Feature", "geometry": {"type": "LineString", "coordinates": [[693947.766528982, 4375861.987021126], [693948.1016514611, 4375875.390115635]]}, "properties": {"highway": "residential"}}, {"type": "Feature", "geometry": {"type": "LineString", "coordinates": [[693947.766528982, 4375861.987021126], [693957.7195715925, 4375862.02546106]]}, "properties": {"highway": "trunk"}}, {"type": "Feature", "geometry": {"type": "LineString", "coordinates": [[693947.766528982, 4375861.987021126], [693939.1383963331, 4375861.948479528]]}, "properties": {"highway": "trunk"}}, {"type": "Feature", "geometry": {"type": "LineString", "coordinates": [[693813.8608192293, 4375745.021569345], [693813.7720957285, 4375754.060199479]]}, "properties": {"highway": "residential"}}, {"type": "Feature", "geometry": {"type": "LineString", "coordinates": [[693813.8608192293, 4375745.021569345], [693813.9431480509, 4375736.2382332375]]}, "properties": {"highway": "residential"}}, {"type": "Feature", "geometry": {"type": "LineString", "coordinates": [[693813.8608192293, 4375745.021569345], [693821.8933090463, 4375745.145004909]]}, "properties": {"highway": "residential"}}, {"type": "Feature", "geometry": {"type": "LineString", "coordinates": [[693813.8608192293, 4375745.021569345], [693803.958947198, 4375744.995711605]]}, "properties": {"highway": "residential"}}, {"type": "Feature", "geometry": {"type": "LineString", "coordinates": [[693949.6428284101, 4375745.2469803775], [693958.5808985217, 4375745.282187267]]}, "properties": {"highway": "residential"}}, {"type": "Feature", "geometry": {"type": "LineString", "coordinates": [[693949.6428284101, 4375745.2469803775], [693940.9369053295, 4375745.217601856]]}, "properties": {"highway": "residential"}}, {"type": "Feature", "geometry": {"type": "LineString", "coordinates": [[693949.6428284101, 4375745.2469803775], [693949.1758863361, 4375754.609340701]]}, "properties": {"highway": "residential"}}, {"type": "Feature", "geometry": {"type": "LineString", "coordinates": [[693949.6428284101, 4375745.2469803775], [693949.77464782, 4375736.898038276]]}, "properties": {"highway": "residential"}}, {"type": "Feature", "geometry": {"type": "LineString", "coordinates": [[693950.5730390549, 4375686.849002077], [693950.144179425, 4375713.5721027795]]}, "properties": {"highway": "residential"}}, {"type": "Feature", "geometry": {"type": "LineString", "coordinates": [[693950.5730390549, 4375686.849002077], [693950.8296271084, 4375638.163622613]]}, "properties": {"highway": "residential"}}, {"type": "Feature", "geometry": {"type": "LineString", "coordinates": [[693950.5730390549, 4375686.849002077], [693959.6398696202, 4375686.898539826]]}, "properties": {"highway": "service"}}, {"type": "Feature", "geometry": {"type": "LineString", "coordinates": [[693950.5730390549, 4375686.849002077], [693941.4776330142, 4375686.90982587]]}, "properties": {"highway": "service"}}, {"type": "Feature", "geometry": {"type": "LineString", "coordinates": [[693812.2142638648, 4375917.933856278], [693810.1313815844, 4375968.805913805]]}, "properties": {"highway": "trunk"}}, {"type": "Feature", "geometry": {"type": "LineString", "coordinates": [[693812.2142638648, 4375917.933856278], [693812.3534086365, 4375891.4256461]]}, "properties": {"highway": "trunk"}}, {"type": "Feature", "geometry": {"type": "LineString", "coordinates": [[693812.2142638648, 4375917.933856278], [693822.2426586925, 4375918.051760974]]}, "properties": {"highway": "service"}}, {"type": "Feature", "geometry": {"type": "LineString", "coordinates": [[693812.2142638648, 4375917.933856278], [693802.09544337, 4375917.991407025]]}, "properties": {"highway": "service"}}, {"type": "Feature", "geometry": {"type": "LineString", "coordinates": [[693948.1410862154, 4375802.075699824], [693947.8973855947, 4375848.184657828]]}, "properties": {"highway": "residential"}}, {"type": "Feature", "geometry": {"type": "LineString", "coordinates": [[693948.1410862154, 4375802.075699824], [693949.1758863361, 4375754.609340701]]}, "properties": {"highway": "residential"}}, {"type": "Feature", "geometry": {"type": "LineString", "coordinates": [[693948.1410862154, 4375802.075699824], [693958.1027239745, 4375803.147275123]]}, "properties": {"highway": "service"}}, {"type": "Feature", "geometry": {"type": "LineString", "coordinates": [[693948.1410862154, 4375802.075699824], [693940.4908281447, 4375802.150523419]]}, "properties": {"highway": "service"}}, {"type": "Feature", "geometry": {"type": "LineString", "coordinates": [[693948.5262157546, 4375915.773658231], [693948.2396850691, 4375934.070340266]]}, "properties": {"highway": "residential"}}, {"type": "Feature", "geometry": {"type": "LineString", "coordinates": [[693948.5262157546, 4375915.773658231], [693948.1016514611, 4375875.390115635]]}, "properties": {"highway": "residential"}}, {"type": "Feature", "geometry": {"type": "LineString", "coordinates": [[693948.5262157546, 4375915.773658231], [693957.0459368913, 4375914.643291629]]}, "properties": {"highway": "service"}}, {"type": "Feature", "geometry": {"type": "LineString", "coordinates": [[693948.5262157546, 4375915.773658231], [693938.7762688008, 4375919.305570724]]}, "properties": {"highway": "service"}}, {"type": "Feature", "geometry": {"type": "LineString", "coordinates": [[693814.3952888934, 4375687.269021679], [693813.9431480509, 4375736.2382332375]]}, "properties": {"highway": "residential"}}, {"type": "Feature", "geometry": {"type": "LineString", "coordinates": [[693814.3952888934, 4375687.269021679], [693814.5719299678, 4375668.536448207]]}, "properties": {"highway": "residential"}}, {"type": "Feature", "geometry": {"type": "LineString", "coordinates": [[693814.3952888934, 4375687.269021679], [693822.7490255703, 4375687.278326439]]}, "properties": {"highway": "service"}}, {"type": "Feature", "geometry": {"type": "LineString", "coordinates": [[693814.3952888934, 4375687.269021679], [693805.0039653247, 4375687.1226736]]}, "properties": {"highway": "service"}}, {"type": "Feature", "geometry": {"type": "LineString", "coordinates": [[693813.3297164516, 4375801.608003325], [693812.9004850374, 4375846.912586739]]}, "properties": {"highway": "residential"}}, {"type": "Feature", "geometry": {"type": "LineString", "coordinates": [[693813.3297164516, 4375801.608003325], [693813.5507595581, 4375778.011804453]]}, "properties": {"highway": "residential"}}, {"type": "Feature", "geometry": {"type": "LineString", "coordinates": [[693813.3297164516, 4375801.608003325], [693821.1660217626, 4375802.34850333]]}, "properties": {"highway": "service"}}, {"type": "Feature", "geometry": {"type": "LineString", "coordinates": [[693813.3297164516, 4375801.608003325], [693803.3652292008, 4375801.680533902]]}, "properties": {"highway": "footway"}}, {"type": "Feature", "geometry": {"type": "LineString", "coordinates": [[693957.0459368913, 4375914.643291629], [694015.7339800872, 4375915.114950177]]}, "properties": {"highway": "service"}}, {"type": "Feature", "geometry": {"type": "LineString", "coordinates": [[693957.0459368913, 4375914.643291629], [693948.5262157546, 4375915.773658231]]}, "properties": {"highway": "service"}}, {"type": "Feature", "geometry": {"type": "LineString", "coordinates": [[693957.0459368913, 4375914.643291629], [693956.3846100466, 4375969.171790032]]}, "properties": {"highway": "footway"}}, {"type": "Feature", "geometry": {"type": "LineString", "coordinates": [[693957.0459368913, 4375914.643291629], [693957.4747243263, 4375875.5695139915]]}, "properties": {"highway": "footway"}}, {"type": "Feature", "geometry": {"type": "LineString", "coordinates": [[694018.9781991553, 4375745.574498145], [693996.9478172688, 4375745.455344245]]}, "properties": {"highway": "residential"}}, {"type": "Feature", "geometry": {"type": "LineString", "coordinates": [[694019.4776370394, 4375687.22122922], [694002.1006007212, 4375687.140992426]]}, "properties": {"highway": "service"}}, {"type": "Feature", "geometry": {"type": "LineString", "coordinates": [[694017.4974794881, 4375803.60328815], [693958.1027239745, 4375803.147275123]]}, "properties": {"highway": "service"}}, {"type": "Feature", "geometry": {"type": "LineString", "coordinates": [[693745.0462292038, 4375686.098914534], [693805.0039653247, 4375687.1226736]]}, "properties": {"highway": "service"}}, {"type": "Feature", "geometry": {"type": "LineString", "coordinates": [[694015.7339800872, 4375915.114950177], [693957.0459368913, 4375914.643291629]]}, "properties": {"highway": "service"}}, {"type": "Feature", "geometry": {"type": "LineString", "coordinates": [[693878.6567549707, 4375801.878332646], [693890.2914527918, 4375802.103201459]]}, "properties": {"highway": "service"}}, {"type": "Feature", "geometry": {"type": "LineString", "coordinates": [[693878.6567549707, 4375801.878332646], [693821.1660217626, 4375802.34850333]]}, "properties": {"highway": "service"}}, {"type": "Feature", "geometry": {"type": "LineString", "coordinates": [[693878.6567549707, 4375801.878332646], [693878.8216941938, 4375848.519520826]]}, "properties": {"highway": "service"}}, {"type": "Feature", "geometry": {"type": "LineString", "coordinates": [[693878.6567549707, 4375801.878332646], [693878.9614552057, 4375786.969662246]]}, "properties": {"highway": "service"}}, {"type": "Feature", "geometry": {"type": "LineString", "coordinates": [[693879.0665385635, 4375918.753360555], [693938.7762688008, 4375919.305570724]]}, "properties": {"highway": "service"}}, {"type": "Feature", "geometry": {"type": "LineString", "coordinates": [[693879.0665385635, 4375918.753360555], [693852.4132682508, 4375918.429906461]]}, "properties": {"highway": "service"}}, {"type": "Feature", "geometry": {"type": "LineString", "coordinates": [[693879.0665385635, 4375918.753360555], [693879.3436527187, 4375873.356086499]]}, "properties": {"highway": "service"}}, {"type": "Feature", "geometry": {"type": "LineString", "coordinates": [[693879.0665385635, 4375918.753360555], [693879.4417082558, 4375924.038446536], [693879.7149451682, 4375967.72797428]]}, "properties": {"highway": "service"}}, {"type": "Feature", "geometry": {"type": "LineString", "coordinates": [[693742.6386557829, 4375918.33511921], [693802.09544337, 4375917.991407025]]}, "properties": {"highway": "service"}}, {"type": "Feature", "geometry": {"type": "LineString", "coordinates": [[693743.4547581052, 4375860.656274101], [693784.5998282464, 4375860.831333564]]}, "properties": {"highway": "tertiary"}}, {"type": "Feature", "geometry": {"type": "LineString", "coordinates": [[693879.9355509002, 4375744.999618698], [693940.9369053295, 4375745.217601856]]}, "properties": {"highway": "residential"}}, {"type": "Feature", "geometry": {"type": "LineString", "coordinates": [[693879.9355509002, 4375744.999618698], [693821.8933090463, 4375745.145004909]]}, "properties": {"highway": "residential"}}, {"type": "Feature", "geometry": {"type": "LineString", "coordinates": [[693879.9355509002, 4375744.999618698], [693879.7632501961, 4375754.280506366]]}, "properties": {"highway": "service"}}, {"type": "Feature", "geometry": {"type": "LineString", "coordinates": [[693879.9355509002, 4375744.999618698], [693880.1582810807, 4375736.45303707]]}, "properties": {"highway": "service"}}, {"type": "Feature", "geometry": {"type": "LineString", "coordinates": [[693880.5007340004, 4375687.4144152105], [693941.4776330142, 4375686.90982587]]}, "properties": {"highway": "service"}}, {"type": "Feature", "geometry": {"type": "LineString", "coordinates": [[693880.5007340004, 4375687.4144152105], [693822.7490255703, 4375687.278326439]]}, "properties": {"highway": "service"}}, {"type": "Feature", "geometry": {"type": "LineString", "coordinates": [[693880.5007340004, 4375687.4144152105], [693880.1582810807, 4375736.45303707]]}, "properties": {"highway": "service"}}, {"type": "Feature", "geometry": {"type": "LineString", "coordinates": [[693880.5007340004, 4375687.4144152105], [693880.3727695395, 4375638.264051474]]}, "properties": {"highway": "service"}}, {"type": "Feature", "geometry": {"type": "LineString", "coordinates": [[693938.7762688008, 4375919.305570724], [693948.5262157546, 4375915.773658231]]}, "properties": {"highway": "service"}}, {"type": "Feature", "geometry": {"type": "LineString", "coordinates": [[693938.7762688008, 4375919.305570724], [693879.0665385635, 4375918.753360555]]}, "properties": {"highway": "service"}}, {"type": "Feature", "geometry": {"type": "LineString", "coordinates": [[693938.7762688008, 4375919.305570724], [693939.4361862929, 4375874.095578663]]}, "properties": {"highway": "footway"}}, {"type": "Feature", "geometry": {"type": "LineString", "coordinates": [[693938.7762688008, 4375919.305570724], [693938.8805408026, 4375934.024578344]]}, "properties": {"highway": "footway"}}, {"type": "Feature", "geometry": {"type": "LineString", "coordinates": [[693744.8162137044, 4375744.769806207], [693803.958947198, 4375744.995711605]]}, "properties": {"highway": "residential"}}, {"type": "Feature", "geometry": {"type": "LineString", "coordinates": [[693879.3946432739, 4375861.70642925], [693879.3436527187, 4375873.356086499]]}, "properties": {"highway": "service"}}, {"type": "Feature", "geometry": {"type": "LineString", "coordinates": [[693879.3946432739, 4375861.70642925], [693878.8216941938, 4375848.519520826]]}, "properties": {"highway": "service"}}, {"type": "Feature", "geometry": {"type": "LineString", "coordinates": [[693879.3946432739, 4375861.70642925], [693845.5527669998, 4375861.569425194]]}, "properties": {"highway": "trunk"}}, {"type": "Feature", "geometry": {"type": "LineString", "coordinates": [[693879.3946432739, 4375861.70642925], [693883.0077019644, 4375861.719208218]]}, "properties": {"highway": "trunk"}}, {"type": "Feature", "geometry": {"type": "LineString", "coordinates": [[693745.4138667095, 4375818.488782142], [693755.5802307385, 4375818.598940291], [693767.1651131007, 4375826.652598672]]}, "properties": {"highway": "footway"}}, {"type": "Feature", "geometry": {"type": "LineString", "coordinates": [[693802.8090530923, 4375851.369081091], [693802.9706262155, 4375848.696413204]]}, "properties": {"highway": "footway"}}, {"type": "Feature", "geometry": {"type": "LineString", "coordinates": [[693802.8090530923, 4375851.369081091], [693684.6653017867, 4375850.821225708]]}, "properties": {"highway": "footway"}}, {"type": "Feature", "geometry": {"type": "LineString", "coordinates": [[693802.8090530923, 4375851.369081091], [693799.79154933, 4375849.905170959], [693767.1651131007, 4375826.652598672]]}, "properties": {"highway": "footway"}}, {"type": "Feature", "geometry": {"type": "LineString", "coordinates": [[693802.8090530923, 4375851.369081091], [693802.6280006089, 4375855.163037741], [693802.5186697216, 4375860.90246305]]}, "properties": {"highway": "footway"}}, {"type": "Feature", "geometry": {"type": "LineString", "coordinates": [[693822.9283767598, 4375861.480291983], [693823.2083867815, 4375849.614242208]]}, "properties": {"highway": "footway"}}, {"type": "Feature", "geometry": {"type": "LineString", "coordinates": [[693822.9283767598, 4375861.480291983], [693822.6908201639, 4375873.025310985]]}, "properties": {"highway": "footway"}}, {"type": "Feature", "geometry": {"type": "LineString", "coordinates": [[693822.9283767598, 4375861.480291983], [693812.7689943284, 4375861.436857068]]}, "properties": {"highway": "trunk"}}, {"type": "Feature", "geometry": {"type": "LineString", "coordinates": [[693822.9283767598, 4375861.480291983], [693845.5527669998, 4375861.569425194]]}, "properties": {"highway": "trunk"}}, {"type": "Feature", "geometry": {"type": "LineString", "coordinates": [[693812.4540720535, 4375872.979937714], [693812.3761319963, 4375887.083495267]]}, "properties": {"highway": "trunk"}}, {"type": "Feature", "geometry": {"type": "LineString", "coordinates": [[693812.4540720535, 4375872.979937714], [693822.6908201639, 4375873.025310985]]}, "properties": {"highway": "footway"}}, {"type": "Feature", "geometry": {"type": "LineString", "coordinates": [[693812.4540720535, 4375872.979937714], [693812.7689943284, 4375861.436857068]]}, "properties": {"highway": "trunk"}}, {"type": "Feature", "geometry": {"type": "LineString", "coordinates": [[693812.4540720535, 4375872.979937714], [693805.9679419326, 4375872.950766539], [693802.7293248938, 4375872.758587198]]}, "properties": {"highway": "footway"}}, {"type": "Feature", "geometry": {"type": "LineString", "coordinates": [[693802.5186697216, 4375860.90246305], [693784.5998282464, 4375860.831333564]]}, "properties": {"highway": "tertiary"}}, {"type": "Feature", "geometry": {"type": "LineString", "coordinates": [[693802.5186697216, 4375860.90246305], [693812.7689943284, 4375861.436857068]]}, "properties": {"highway": "tertiary"}}, {"type": "Feature", "geometry": {"type": "LineString", "coordinates": [[693802.5186697216, 4375860.90246305], [693802.3171842264, 4375867.91685082], [693802.4956740211, 4375870.064914103]]}, "properties": {"highway": "footway"}}, {"type": "Feature", "geometry": {"type": "LineString", "coordinates": [[693802.5186697216, 4375860.90246305], [693802.6280006089, 4375855.163037741], [693802.8090530923, 4375851.369081091]]}, "properties": {"highway": "footway"}}, {"type": "Feature", "geometry": {"type": "LineString", "coordinates": [[693812.9004850374, 4375846.912586739], [693812.7689943284, 4375861.436857068]]}, "properties": {"highway": "residential"}}, {"type": "Feature", "geometry": {"type": "LineString", "coordinates": [[693812.9004850374, 4375846.912586739], [693813.3297164516, 4375801.608003325]]}, "properties": {"highway": "residential"}}, {"type": "Feature", "geometry": {"type": "LineString", "coordinates": [[693812.9004850374, 4375846.912586739], [693816.8419165699, 4375847.2112264745], [693820.4563497468, 4375847.51278452]]}, "properties": {"highway": "footway"}}, {"type": "Feature", "geometry": {"type": "LineString", "coordinates": [[693812.9004850374, 4375846.912586739], [693806.9612626319, 4375847.030394488], [693802.9706262155, 4375848.696413204]]}, "properties": {"highway": "footway"}}, {"type": "Feature", "geometry": {"type": "LineString", "coordinates": [[693802.9706262155, 4375848.696413204], [693802.8090530923, 4375851.369081091]]}, "properties": {"highway": "footway"}}, {"type": "Feature", "geometry": {"type": "LineString", "coordinates": [[693802.9706262155, 4375848.696413204], [693803.3652292008, 4375801.680533902]]}, "properties": {"highway": "footway"}}, {"type": "Feature", "geometry": {"type": "LineString", "coordinates": [[693802.9706262155, 4375848.696413204], [693806.9612626319, 4375847.030394488], [693812.9004850374, 4375846.912586739]]}, "properties": {"highway": "footway"}}, {"type": "Feature", "geometry": {"type": "LineString", "coordinates": [[693803.958947198, 4375744.995711605], [693813.8608192293, 4375745.021569345]]}, "properties": {"highway": "residential"}}, {"type": "Feature", "geometry": {"type": "LineString", "coordinates": [[693803.958947198, 4375744.995711605], [693744.8162137044, 4375744.769806207]]}, "properties": {"highway": "residential"}}, {"type": "Feature", "geometry": {"type": "LineString", "coordinates": [[693803.958947198, 4375744.995711605], [693803.6491890638, 4375753.928845196]]}, "properties": {"highway": "footway"}}, {"type": "Feature", "geometry": {"type": "LineString", "coordinates": [[693803.958947198, 4375744.995711605], [693804.2750987937, 4375735.80728421]]}, "properties": {"highway": "footway"}}, {"type": "Feature", "geometry": {"type": "LineString", "coordinates": [[693821.8933090463, 4375745.145004909], [693879.9355509002, 4375744.999618698]]}, "properties": {"highway": "residential"}}, {"type": "Feature", "geometry": {"type": "LineString", "coordinates": [[693821.8933090463, 4375745.145004909], [693813.8608192293, 4375745.021569345]]}, "properties": {"highway": "residential"}}, {"type": "Feature", "geometry": {"type": "LineString", "coordinates": [[693821.8933090463, 4375745.145004909], [693822.0427833935, 4375736.085682622]]}, "properties": {"highway": "footway"}}, {"type": "Feature", "geometry": {"type": "LineString", "coordinates": [[693821.8933090463, 4375745.145004909], [693822.0885882633, 4375754.179642158]]}, "properties": {"highway": "footway"}}, {"type": "Feature", "geometry": {"type": "LineString", "coordinates": [[693810.1313815844, 4375968.805913805], [693812.2142638648, 4375917.933856278]]}, "properties": {"highway": "trunk"}}, {"type": "Feature", "geometry": {"type": "LineString", "coordinates": [[693949.1758863361, 4375754.609340701], [693948.1410862154, 4375802.075699824]]}, "properties": {"highway": "residential"}}, {"type": "Feature", "geometry": {"type": "LineString", "coordinates": [[693949.1758863361, 4375754.609340701], [693949.6428284101, 4375745.2469803775]]}, "properties": {"highway": "residential"}}, {"type": "Feature", "geometry": {"type": "LineString", "coordinates": [[693949.1758863361, 4375754.609340701], [693958.7343932169, 4375754.604564988]]}, "properties": {"highway": "footway"}}, {"type": "Feature", "geometry": {"type": "LineString", "coordinates": [[693949.1758863361, 4375754.609340701], [693940.8907197854, 4375754.612720481]]}, "properties": {"highway": "footway"}}, {"type": "Feature", "geometry": {"type": "LineString", "coordinates": [[693947.8973855947, 4375848.184657828], [693947.766528982, 4375861.987021126]]}, "properties": {"highway": "residential"}}, {"type": "Feature", "geometry": {"type": "LineString", "coordinates": [[693947.8973855947, 4375848.184657828], [693948.1410862154, 4375802.075699824]]}, "properties": {"highway": "residential"}}, {"type": "Feature", "geometry": {"type": "LineString", "coordinates": [[693947.8973855947, 4375848.184657828], [693954.1721858196, 4375848.408570401], [693957.043527163, 4375849.524570721]]}, "properties": {"highway": "footway"}}, {"type": "Feature", "geometry": {"type": "LineString", "coordinates": [[693947.8973855947, 4375848.184657828], [693942.7658282749, 4375848.000510125], [693940.7349499472, 4375849.3934828695]]}, "properties": {"highway": "footway"}}, {"type": "Feature", "geometry": {"type": "LineString", "coordinates": [[693939.1383963331, 4375861.948479528], [693883.0077019644, 4375861.719208218]]}, "properties": {"highway": "trunk"}}, {"type": "Feature", "geometry": {"type": "LineString", "coordinates": [[693939.1383963331, 4375861.948479528], [693947.766528982, 4375861.987021126]]}, "properties": {"highway": "trunk"}}, {"type": "Feature", "geometry": {"type": "LineString", "coordinates": [[693939.1383963331, 4375861.948479528], [693939.3463852236, 4375851.246822587], [693940.7349499472, 4375849.3934828695]]}, "properties": {"highway": "footway"}}, {"type": "Feature", "geometry": {"type": "LineString", "coordinates": [[693939.1383963331, 4375861.948479528], [693938.961590001, 4375871.062658404], [693939.4361862929, 4375874.095578663]]}, "properties": {"highway": "footway"}}, {"type": "Feature", "geometry": {"type": "LineString", "coordinates": [[693957.7195715925, 4375862.02546106], [693947.766528982, 4375861.987021126]]}, "properties": {"highway": "trunk"}}, {"type": "Feature", "geometry": {"type": "LineString", "coordinates": [[693957.7195715925, 4375862.02546106], [694015.7859336634, 4375862.259378495]]}, "properties": {"highway": "trunk"}}, {"type": "Feature", "geometry": {"type": "LineString", "coordinates": [[693957.7195715925, 4375862.02546106], [693957.7260541545, 4375871.377476004], [693957.6976491945, 4375872.853956889]]}, "properties": {"highway": "footway"}}, {"type": "Feature", "geometry": {"type": "LineString", "coordinates": [[693957.7195715925, 4375862.02546106], [693957.7214880149, 4375851.651839207], [693957.043527163, 4375849.524570721]]}, "properties": {"highway": "footway"}}, {"type": "Feature", "geometry": {"type": "LineString", "coordinates": [[693948.1016514611, 4375875.390115635], [693948.5262157546, 4375915.773658231]]}, "properties": {"highway": "residential"}}, {"type": "Feature", "geometry": {"type": "LineString", "coordinates": [[693948.1016514611, 4375875.390115635], [693947.766528982, 4375861.987021126]]}, "properties": {"highway": "residential"}}, {"type": "Feature", "geometry": {"type": "LineString", "coordinates": [[693948.1016514611, 4375875.390115635], [693942.126129663, 4375875.240347757], [693939.4361862929, 4375874.095578663]]}, "properties": {"highway": "footway"}}, {"type": "Feature", "geometry": {"type": "LineString", "coordinates": [[693948.1016514611, 4375875.390115635], [693954.7220138056, 4375875.556050907], [693957.4747243263, 4375875.5695139915]]}, "properties": {"highway": "footway"}}, {"type": "Feature", "geometry": {"type": "LineString", "coordinates": [[694015.7859336634, 4375862.259378495], [693957.7195715925, 4375862.02546106]]}, "properties": {"highway": "trunk"}}, {"type": "Feature", "geometry": {"type": "LineString", "coordinates": [[693813.7720957285, 4375754.060199479], [693813.6559872305, 4375766.596753861]]}, "properties": {"highway": "residential"}}, {"type": "Feature", "geometry": {"type": "LineString", "coordinates": [[693813.7720957285, 4375754.060199479], [693813.8608192293, 4375745.021569345]]}, "properties": {"highway": "residential"}}, {"type": "Feature", "geometry": {"type": "LineString", "coordinates": [[693813.7720957285, 4375754.060199479], [693822.0885882633, 4375754.179642158]]}, "properties": {"highway": "footway"}}, {"type": "Feature", "geometry": {"type": "LineString", "coordinates": [[693813.7720957285, 4375754.060199479], [693803.6491890638, 4375753.928845196]]}, "properties": {"highway": "footway"}}, {"type": "Feature", "geometry": {"type": "LineString", "coordinates": [[693813.9431480509, 4375736.2382332375], [693813.8608192293, 4375745.021569345]]}, "properties": {"highway": "residential"}}, {"type": "Feature", "geometry": {"type": "LineString", "coordinates": [[693813.9431480509, 4375736.2382332375], [693814.3952888934, 4375687.269021679]]}, "properties": {"highway": "residential"}}, {"type": "Feature", "geometry": {"type": "LineString", "coordinates": [[693813.9431480509, 4375736.2382332375], [693804.2750987937, 4375735.80728421]]}, "properties": {"highway": "footway"}}, {"type": "Feature", "geometry": {"type": "LineString", "coordinates": [[693813.9431480509, 4375736.2382332375], [693822.0427833935, 4375736.085682622]]}, "properties": {"highway": "footway"}}, {"type": "Feature", "geometry": {"type": "LineString", "coordinates": [[693883.0077019644, 4375861.719208218], [693882.9478299936, 4375873.3797499575]]}, "properties": {"highway": "footway"}}, {"type": "Feature", "geometry": {"type": "LineString", "coordinates": [[693883.0077019644, 4375861.719208218], [693883.3871791896, 4375848.633909434]]}, "properties": {"highway": "footway"}}, {"type": "Feature", "geometry": {"type": "LineString", "coordinates": [[693883.0077019644, 4375861.719208218], [693879.3946432739, 4375861.70642925]]}, "properties": {"highway": "trunk"}}, {"type": "Feature", "geometry": {"type": "LineString", "coordinates": [[693883.0077019644, 4375861.719208218], [693939.1383963331, 4375861.948479528]]}, "properties": {"highway": "trunk"}}, {"type": "Feature", "geometry": {"type": "LineString", "coordinates": [[693802.7293248938, 4375872.758587198], [693802.4956740211, 4375870.064914103]]}, "properties": {"highway": "footway"}}, {"type": "Feature", "geometry": {"type": "LineString", "coordinates": [[693802.7293248938, 4375872.758587198], [693802.4719774018, 4375891.278116977]]}, "properties": {"highway": "footway"}}, {"type": "Feature", "geometry": {"type": "LineString", "coordinates": [[693802.7293248938, 4375872.758587198], [693805.9679419326, 4375872.950766539], [693812.4540720535, 4375872.979937714]]}, "properties": {"highway": "footway"}}, {"type": "Feature", "geometry": {"type": "LineString", "coordinates": [[693822.6908201639, 4375873.025310985], [693812.4540720535, 4375872.979937714]]}, "properties": {"highway": "footway"}}, {"type": "Feature", "geometry": {"type": "LineString", "coordinates": [[693822.6908201639, 4375873.025310985], [693822.9283767598, 4375861.480291983]]}, "properties": {"highway": "footway"}}, {"type": "Feature", "geometry": {"type": "LineString", "coordinates": [[693822.6908201639, 4375873.025310985], [693822.4897112595, 4375887.23685149]]}, "properties": {"highway": "footway"}}, {"type": "Feature", "geometry": {"type": "LineString", "coordinates": [[693822.6908201639, 4375873.025310985], [693845.3570537948, 4375873.159920605]]}, "properties": {"highway": "footway"}}, {"type": "Feature", "geometry": {"type": "LineString", "coordinates": [[693823.2083867815, 4375849.614242208], [693822.9283767598, 4375861.480291983]]}, "properties": {"highway": "footway"}}, {"type": "Feature", "geometry": {"type": "LineString", "coordinates": [[693823.2083867815, 4375849.614242208], [693820.4563497468, 4375847.51278452]]}, "properties": {"highway": "footway"}}, {"type": "Feature", "geometry": {"type": "LineString", "coordinates": [[693823.2083867815, 4375849.614242208], [693878.8216941938, 4375848.519520826]]}, "properties": {"highway": "footway"}}, {"type": "Feature", "geometry": {"type": "LineString", "coordinates": [[693820.4563497468, 4375847.51278452], [693823.2083867815, 4375849.614242208]]}, "properties": {"highway": "footway"}}, {"type": "Feature", "geometry": {"type": "LineString", "coordinates": [[693820.4563497468, 4375847.51278452], [693821.1660217626, 4375802.34850333]]}, "properties": {"highway": "footway"}}, {"type": "Feature", "geometry": {"type": "LineString", "coordinates": [[693820.4563497468, 4375847.51278452], [693816.8419165699, 4375847.2112264745], [693812.9004850374, 4375846.912586739]]}, "properties": {"highway": "footway"}}, {"type": "Feature", "geometry": {"type": "LineString", "coordinates": [[694016.0180502309, 4375849.570219489], [693957.043527163, 4375849.524570721]]}, "properties": {"highway": "footway"}}, {"type": "Feature", "geometry": {"type": "LineString", "coordinates": [[693957.043527163, 4375849.524570721], [693957.4576801818, 4375834.374288698]]}, "properties": {"highway": "footway"}}, {"type": "Feature", "geometry": {"type": "LineString", "coordinates": [[693957.043527163, 4375849.524570721], [694016.0180502309, 4375849.570219489]]}, "properties": {"highway": "footway"}}, {"type": "Feature", "geometry": {"type": "LineString", "coordinates": [[693957.043527163, 4375849.524570721], [693957.7214880149, 4375851.651839207], [693957.7195715925, 4375862.02546106]]}, "properties": {"highway": "footway"}}, {"type": "Feature", "geometry": {"type": "LineString", "coordinates": [[693957.043527163, 4375849.524570721], [693954.1721858196, 4375848.408570401], [693947.8973855947, 4375848.184657828]]}, "properties": {"highway": "footway"}}, {"type": "Feature", "geometry": {"type": "LineString", "coordinates": [[693958.1027239745, 4375803.147275123], [694017.4974794881, 4375803.60328815]]}, "properties": {"highway": "service"}}, {"type": "Feature", "geometry": {"type": "LineString", "coordinates": [[693958.1027239745, 4375803.147275123], [693948.1410862154, 4375802.075699824]]}, "properties": {"highway": "service"}}, {"type": "Feature", "geometry": {"type": "LineString", "coordinates": [[693958.1027239745, 4375803.147275123], [693958.7343932169, 4375754.604564988]]}, "properties": {"highway": "footway"}}, {"type": "Feature", "geometry": {"type": "LineString", "coordinates": [[693958.1027239745, 4375803.147275123], [693957.5008450738, 4375828.533239881]]}, "properties": {"highway": "footway"}}, {"type": "Feature", "geometry": {"type": "LineString", "coordinates": [[693958.7343932169, 4375754.604564988], [693965.0688992718, 4375754.852191593]]}, "properties": {"highway": "footway"}}, {"type": "Feature", "geometry": {"type": "LineString", "coordinates": [[693958.7343932169, 4375754.604564988], [693958.1027239745, 4375803.147275123]]}, "properties": {"highway": "footway"}}, {"type": "Feature", "geometry": {"type": "LineString", "coordinates": [[693958.7343932169, 4375754.604564988], [693958.5808985217, 4375745.282187267]]}, "properties": {"highway": "footway"}}, {"type": "Feature", "geometry": {"type": "LineString", "coordinates": [[693958.7343932169, 4375754.604564988], [693949.1758863361, 4375754.609340701]]}, "properties": {"highway": "footway"}}, {"type": "Feature", "geometry": {"type": "LineString", "coordinates": [[693989.6287333439, 4375754.968025051], [694007.2807522711, 4375755.055137282]]}, "properties": {"highway": "footway"}}, {"type": "Feature", "geometry": {"type": "LineString", "coordinates": [[693989.6287333439, 4375754.968025051], [693965.0688992718, 4375754.852191593]]}, "properties": {"highway": "footway"}}, {"type": "Feature", "geometry": {"type": "LineString", "coordinates": [[693989.6287333439, 4375754.968025051], [693989.4404121791, 4375761.79393316]]}, "properties": {"highway": "footway"}}, {"type": "Feature", "geometry": {"type": "LineString", "coordinates": [[694007.2807522711, 4375755.055137282], [693989.6287333439, 4375754.968025051]]}, "properties": {"highway": "footway"}}, {"type": "Feature", "geometry": {"type": "LineString", "coordinates": [[693989.4404121791, 4375761.79393316], [693989.6287333439, 4375754.968025051]]}, "properties": {"highway": "footway"}}, {"type": "Feature", "geometry": {"type": "LineString", "coordinates": [[693964.8656295086, 4375761.588870577], [693965.0688992718, 4375754.852191593]]}, "properties": {"highway": "footway"}}, {"type": "Feature", "geometry": {"type": "LineString", "coordinates": [[693965.0688992718, 4375754.852191593], [693989.6287333439, 4375754.968025051]]}, "properties": {"highway": "footway"}}, {"type": "Feature", "geometry": {"type": "LineString", "coordinates": [[693965.0688992718, 4375754.852191593], [693958.7343932169, 4375754.604564988]]}, "properties": {"highway": "footway"}}, {"type": "Feature", "geometry": {"type": "LineString", "coordinates": [[693965.0688992718, 4375754.852191593], [693964.8656295086, 4375761.588870577]]}, "properties": {"highway": "footway"}}, {"type": "Feature", "geometry": {"type": "LineString", "coordinates": [[693957.5008450738, 4375828.533239881], [693958.1027239745, 4375803.147275123]]}, "properties": {"highway": "footway"}}, {"type": "Feature", "geometry": {"type": "LineString", "coordinates": [[693957.5008450738, 4375828.533239881], [693957.4576801818, 4375834.374288698]]}, "properties": {"highway": "footway"}}, {"type": "Feature", "geometry": {"type": "LineString", "coordinates": [[693957.5008450738, 4375828.533239881], [693961.3055796879, 4375828.450898285]]}, "properties": {"highway": "footway"}}, {"type": "Feature", "geometry": {"type": "LineString", "coordinates": [[693961.3055796879, 4375828.450898285], [693957.5008450738, 4375828.533239881]]}, "properties": {"highway": "footway"}}, {"type": "Feature", "geometry": {"type": "LineString", "coordinates": [[693957.4576801818, 4375834.374288698], [693957.5008450738, 4375828.533239881]]}, "properties": {"highway": "footway"}}, {"type": "Feature", "geometry": {"type": "LineString", "coordinates": [[693957.4576801818, 4375834.374288698], [693957.043527163, 4375849.524570721]]}, "properties": {"highway": "footway"}}, {"type": "Feature", "geometry": {"type": "LineString", "coordinates": [[693957.4576801818, 4375834.374288698], [693961.2235687595, 4375834.468680974]]}, "properties": {"highway": "footway"}}, {"type": "Feature", "geometry": {"type": "LineString", "coordinates": [[693961.2235687595, 4375834.468680974], [693957.4576801818, 4375834.374288698]]}, "properties": {"highway": "footway"}}, {"type": "Feature", "geometry": {"type": "LineString", "coordinates": [[693957.4747243263, 4375875.5695139915], [693957.0459368913, 4375914.643291629]]}, "properties": {"highway": "footway"}}, {"type": "Feature", "geometry": {"type": "LineString", "coordinates": [[693957.4747243263, 4375875.5695139915], [693957.6976491945, 4375872.853956889]]}, "properties": {"highway": "footway"}}, {"type": "Feature", "geometry": {"type": "LineString", "coordinates": [[693957.4747243263, 4375875.5695139915], [693954.7220138056, 4375875.556050907], [693948.1016514611, 4375875.390115635]]}, "properties": {"highway": "footway"}}, {"type": "Feature", "geometry": {"type": "LineString", "coordinates": [[693939.4361862929, 4375874.095578663], [693882.9478299936, 4375873.3797499575]]}, "properties": {"highway": "footway"}}, {"type": "Feature", "geometry": {"type": "LineString", "coordinates": [[693939.4361862929, 4375874.095578663], [693938.7762688008, 4375919.305570724]]}, "properties": {"highway": "footway"}}, {"type": "Feature", "geometry": {"type": "LineString", "coordinates": [[693939.4361862929, 4375874.095578663], [693938.961590001, 4375871.062658404], [693939.1383963331, 4375861.948479528]]}, "properties": {"highway": "footway"}}, {"type": "Feature", "geometry": {"type": "LineString", "coordinates": [[693939.4361862929, 4375874.095578663], [693942.126129663, 4375875.240347757], [693948.1016514611, 4375875.390115635]]}, "properties": {"highway": "footway"}}, {"type": "Feature", "geometry": {"type": "LineString", "coordinates": [[693940.7349499472, 4375849.3934828695], [693940.4908281447, 4375802.150523419]]}, "properties": {"highway": "footway"}}, {"type": "Feature", "geometry": {"type": "LineString", "coordinates": [[693940.7349499472, 4375849.3934828695], [693883.3871791896, 4375848.633909434]]}, "properties": {"highway": "footway"}}, {"type": "Feature", "geometry": {"type": "LineString", "coordinates": [[693940.7349499472, 4375849.3934828695], [693942.7658282749, 4375848.000510125], [693947.8973855947, 4375848.184657828]]}, "properties": {"highway": "footway"}}, {"type": "Feature", "geometry": {"type": "LineString", "coordinates": [[693940.7349499472, 4375849.3934828695], [693939.3463852236, 4375851.246822587], [693939.1383963331, 4375861.948479528]]}, "properties": {"highway": "footway"}}, {"type": "Feature", "geometry": {"type": "LineString", "coordinates": [[693940.4908281447, 4375802.150523419], [693948.1410862154, 4375802.075699824]]}, "properties": {"highway": "service"}}, {"type": "Feature", "geometry": {"type": "LineString", "coordinates": [[693940.4908281447, 4375802.150523419], [693890.2914527918, 4375802.103201459]]}, "properties": {"highway": "service"}}, {"type": "Feature", "geometry": {"type": "LineString", "coordinates": [[693940.4908281447, 4375802.150523419], [693940.4521768205, 4375792.364542992]]}, "properties": {"highway": "footway"}}, {"type": "Feature", "geometry": {"type": "LineString", "coordinates": [[693940.4908281447, 4375802.150523419], [693940.7349499472, 4375849.3934828695]]}, "properties": {"highway": "footway"}}, {"type": "Feature", "geometry": {"type": "LineString", "coordinates": [[693940.8907197854, 4375754.612720481], [693892.2980525389, 4375754.294684365]]}, "properties": {"highway": "footway"}}, {"type": "Feature", "geometry": {"type": "LineString", "coordinates": [[693940.8907197854, 4375754.612720481], [693940.4521768205, 4375792.364542992]]}, "properties": {"highway": "footway"}}, {"type": "Feature", "geometry": {"type": "LineString", "coordinates": [[693940.8907197854, 4375754.612720481], [693949.1758863361, 4375754.609340701]]}, "properties": {"highway": "footway"}}, {"type": "Feature", "geometry": {"type": "LineString", "coordinates": [[693940.8907197854, 4375754.612720481], [693940.9369053295, 4375745.217601856]]}, "properties": {"highway": "footway"}}, {"type": "Feature", "geometry": {"type": "LineString", "coordinates": [[693879.7632501961, 4375754.280506366], [693879.0654631762, 4375782.818360583]]}, "properties": {"highway": "service"}}, {"type": "Feature", "geometry": {"type": "LineString", "coordinates": [[693879.7632501961, 4375754.280506366], [693879.9355509002, 4375744.999618698]]}, "properties": {"highway": "service"}}, {"type": "Feature", "geometry": {"type": "LineString", "coordinates": [[693879.7632501961, 4375754.280506366], [693826.4744036971, 4375754.256173531]]}, "properties": {"highway": "footway"}}, {"type": "Feature", "geometry": {"type": "LineString", "coordinates": [[693879.7632501961, 4375754.280506366], [693892.2980525389, 4375754.294684365]]}, "properties": {"highway": "footway"}}, {"type": "Feature", "geometry": {"type": "LineString", "coordinates": [[693822.0885882633, 4375754.179642158], [693821.4461954376, 4375782.918796485]]}, "properties": {"highway": "footway"}}, {"type": "Feature", "geometry": {"type": "LineString", "coordinates": [[693822.0885882633, 4375754.179642158], [693826.4744036971, 4375754.256173531]]}, "properties": {"highway": "footway"}}, {"type": "Feature", "geometry": {"type": "LineString", "coordinates": [[693822.0885882633, 4375754.179642158], [693821.8933090463, 4375745.145004909]]}, "properties": {"highway": "footway"}}, {"type": "Feature", "geometry": {"type": "LineString", "coordinates": [[693822.0885882633, 4375754.179642158], [693813.7720957285, 4375754.060199479]]}, "properties": {"highway": "footway"}}, {"type": "Feature", "geometry": {"type": "LineString", "coordinates": [[693821.1660217626, 4375802.34850333], [693878.6567549707, 4375801.878332646]]}, "properties": {"highway": "service"}}, {"type": "Feature", "geometry": {"type": "LineString", "coordinates": [[693821.1660217626, 4375802.34850333], [693813.3297164516, 4375801.608003325]]}, "properties": {"highway": "service"}}, {"type": "Feature", "geometry": {"type": "LineString", "coordinates": [[693821.1660217626, 4375802.34850333], [693820.4563497468, 4375847.51278452]]}, "properties": {"highway": "footway"}}, {"type": "Feature", "geometry": {"type": "LineString", "coordinates": [[693821.1660217626, 4375802.34850333], [693821.4461954376, 4375782.918796485]]}, "properties": {"highway": "footway"}}, {"type": "Feature", "geometry": {"type": "LineString", "coordinates": [[693878.8216941938, 4375848.519520826], [693879.3946432739, 4375861.70642925]]}, "properties": {"highway": "service"}}, {"type": "Feature", "geometry": {"type": "LineString", "coordinates": [[693878.8216941938, 4375848.519520826], [693878.6567549707, 4375801.878332646]]}, "properties": {"highway": "service"}}, {"type": "Feature", "geometry": {"type": "LineString", "coordinates": [[693878.8216941938, 4375848.519520826], [693823.2083867815, 4375849.614242208]]}, "properties": {"highway": "footway"}}, {"type": "Feature", "geometry": {"type": "LineString", "coordinates": [[693878.8216941938, 4375848.519520826], [693883.3871791896, 4375848.633909434]]}, "properties": {"highway": "footway"}}, {"type": "Feature", "geometry": {"type": "LineString", "coordinates": [[693958.4447976892, 4375736.98206307], [693949.77464782, 4375736.898038276]]}, "properties": {"highway": "footway"}}, {"type": "Feature", "geometry": {"type": "LineString", "coordinates": [[693958.4447976892, 4375736.98206307], [693958.5808985217, 4375745.282187267]]}, "properties": {"highway": "footway"}}, {"type": "Feature", "geometry": {"type": "LineString", "coordinates": [[693958.4447976892, 4375736.98206307], [693996.9232816633, 4375736.824812254]]}, "properties": {"highway": "footway"}}, {"type": "Feature", "geometry": {"type": "LineString", "coordinates": [[693958.4447976892, 4375736.98206307], [693958.869240408, 4375735.837603477], [693959.3640744266, 4375713.692118644]]}, "properties": {"highway": "footway"}}, {"type": "Feature", "geometry": {"type": "LineString", "coordinates": [[693940.9746934203, 4375736.844090162], [693940.9369053295, 4375745.217601856]]}, "properties": {"highway": "footway"}}, {"type": "Feature", "geometry": {"type": "LineString", "coordinates": [[693940.9746934203, 4375736.844090162], [693949.77464782, 4375736.898038276]]}, "properties": {"highway": "footway"}}, {"type": "Feature", "geometry": {"type": "LineString", "coordinates": [[693940.9746934203, 4375736.844090162], [693880.1582810807, 4375736.45303707]]}, "properties": {"highway": "footway"}}, {"type": "Feature", "geometry": {"type": "LineString", "coordinates": [[693940.9746934203, 4375736.844090162], [693941.4776330142, 4375686.90982587]]}, "properties": {"highway": "footway"}}, {"type": "Feature", "geometry": {"type": "LineString", "coordinates": [[693958.5808985217, 4375745.282187267], [693996.9478172688, 4375745.455344245]]}, "properties": {"highway": "residential"}}, {"type": "Feature", "geometry": {"type": "LineString", "coordinates": [[693958.5808985217, 4375745.282187267], [693949.6428284101, 4375745.2469803775]]}, "properties": {"highway": "residential"}}, {"type": "Feature", "geometry": {"type": "LineString", "coordinates": [[693958.5808985217, 4375745.282187267], [693958.4447976892, 4375736.98206307]]}, "properties": {"highway": "footway"}}, {"type": "Feature", "geometry": {"type": "LineString", "coordinates": [[693958.5808985217, 4375745.282187267], [693958.7343932169, 4375754.604564988]]}, "properties": {"highway": "footway"}}, {"type": "Feature", "geometry": {"type": "LineString", "coordinates": [[693949.77464782, 4375736.898038276], [693949.6428284101, 4375745.2469803775]]}, "properties": {"highway": "residential"}}, {"type": "Feature", "geometry": {"type": "LineString", "coordinates": [[693949.77464782, 4375736.898038276], [693950.144179425, 4375713.5721027795]]}, "properties": {"highway": "residential"}}, {"type": "Feature", "geometry": {"type": "LineString", "coordinates": [[693949.77464782, 4375736.898038276], [693940.9746934203, 4375736.844090162]]}, "properties": {"highway": "footway"}}, {"type": "Feature", "geometry": {"type": "LineString", "coordinates": [[693949.77464782, 4375736.898038276], [693958.4447976892, 4375736.98206307]]}, "properties": {"highway": "footway"}}, {"type": "Feature", "geometry": {"type": "LineString", "coordinates": [[693940.9369053295, 4375745.217601856], [693949.6428284101, 4375745.2469803775]]}, "properties": {"highway": "residential"}}, {"type": "Feature", "geometry": {"type": "LineString", "coordinates": [[693940.9369053295, 4375745.217601856], [693879.9355509002, 4375744.999618698]]}, "properties": {"highway": "residential"}}, {"type": "Feature", "geometry": {"type": "LineString", "coordinates": [[693940.9369053295, 4375745.217601856], [693940.8907197854, 4375754.612720481]]}, "properties": {"highway": "footway"}}, {"type": "Feature", "geometry": {"type": "LineString", "coordinates": [[693940.9369053295, 4375745.217601856], [693940.9746934203, 4375736.844090162]]}, "properties": {"highway": "footway"}}, {"type": "Feature", "geometry": {"type": "LineString", "coordinates": [[693957.6976491945, 4375872.853956889], [694021.3866346815, 4375873.584270419]]}, "properties": {"highway": "footway"}}, {"type": "Feature", "geometry": {"type": "LineString", "coordinates": [[693957.6976491945, 4375872.853956889], [693957.4747243263, 4375875.5695139915]]}, "properties": {"highway": "footway"}}, {"type": "Feature", "geometry": {"type": "LineString", "coordinates": [[693957.6976491945, 4375872.853956889], [693957.7260541545, 4375871.377476004], [693957.7195715925, 4375862.02546106]]}, "properties": {"highway": "footway"}}, {"type": "Feature", "geometry": {"type": "LineString", "coordinates": [[693956.3846100466, 4375969.171790032], [693957.0459368913, 4375914.643291629]]}, "properties": {"highway": "footway"}}, {"type": "Feature", "geometry": {"type": "LineString", "coordinates": [[693803.6491890638, 4375753.928845196], [693745.845049833, 4375753.503211488]]}, "properties": {"highway": "footway"}}, {"type": "Feature", "geometry": {"type": "LineString", "coordinates": [[693803.6491890638, 4375753.928845196], [693803.84234655, 4375766.484250804]]}, "properties": {"highway": "footway"}}, {"type": "Feature", "geometry": {"type": "LineString", "coordinates": [[693803.6491890638, 4375753.928845196], [693813.7720957285, 4375754.060199479]]}, "properties": {"highway": "footway"}}, {"type": "Feature", "geometry": {"type": "LineString", "coordinates": [[693803.6491890638, 4375753.928845196], [693803.958947198, 4375744.995711605]]}, "properties": {"highway": "footway"}}, {"type": "Feature", "geometry": {"type": "LineString", "coordinates": [[693745.845049833, 4375753.503211488], [693803.6491890638, 4375753.928845196]]}, "properties": {"highway": "footway"}}, {"type": "Feature", "geometry": {"type": "LineString", "coordinates": [[693684.6653017867, 4375850.821225708], [693802.8090530923, 4375851.369081091]]}, "properties": {"highway": "footway"}}, {"type": "Feature", "geometry": {"type": "LineString", "coordinates": [[693803.3652292008, 4375801.680533902], [693803.5379899755, 4375777.949847037]]}, "properties": {"highway": "footway"}}, {"type": "Feature", "geometry": {"type": "LineString", "coordinates": [[693803.3652292008, 4375801.680533902], [693802.9706262155, 4375848.696413204]]}, "properties": {"highway": "footway"}}, {"type": "Feature", "geometry": {"type": "LineString", "coordinates": [[693803.3652292008, 4375801.680533902], [693789.8284438279, 4375801.48590852]]}, "properties": {"highway": "footway"}}, {"type": "Feature", "geometry": {"type": "LineString", "coordinates": [[693803.3652292008, 4375801.680533902], [693813.3297164516, 4375801.608003325]]}, "properties": {"highway": "footway"}}, {"type": "Feature", "geometry": {"type": "LineString", "coordinates": [[693784.0395226757, 4375801.440899478], [693789.8284438279, 4375801.48590852]]}, "properties": {"highway": "footway"}}, {"type": "Feature", "geometry": {"type": "LineString", "coordinates": [[693789.7476986742, 4375807.114981831], [693789.8284438279, 4375801.48590852]]}, "properties": {"highway": "footway"}}, {"type": "Feature", "geometry": {"type": "LineString", "coordinates": [[693789.8697361836, 4375797.088690603], [693789.8284438279, 4375801.48590852]]}, "properties": {"highway": "footway"}}, {"type": "Feature", "geometry": {"type": "LineString", "coordinates": [[693789.8284438279, 4375801.48590852], [693784.0395226757, 4375801.440899478]]}, "properties": {"highway": "footway"}}, {"type": "Feature", "geometry": {"type": "LineString", "coordinates": [[693789.8284438279, 4375801.48590852], [693803.3652292008, 4375801.680533902]]}, "properties": {"highway": "footway"}}, {"type": "Feature", "geometry": {"type": "LineString", "coordinates": [[693789.8284438279, 4375801.48590852], [693789.8697361836, 4375797.088690603]]}, "properties": {"highway": "footway"}}, {"type": "Feature", "geometry": {"type": "LineString", "coordinates": [[693789.8284438279, 4375801.48590852], [693789.7476986742, 4375807.114981831]]}, "properties": {"highway": "footway"}}, {"type": "Feature", "geometry": {"type": "LineString", "coordinates": [[693785.4825008161, 4375777.830878305], [693803.5379899755, 4375777.949847037]]}, "properties": {"highway": "footway"}}, {"type": "Feature", "geometry": {"type": "LineString", "coordinates": [[693813.5507595581, 4375778.011804453], [693813.3297164516, 4375801.608003325]]}, "properties": {"highway": "residential"}}, {"type": "Feature", "geometry": {"type": "LineString", "coordinates": [[693813.5507595581, 4375778.011804453], [693813.6559872305, 4375766.596753861]]}, "properties": {"highway": "residential"}}, {"type": "Feature", "geometry": {"type": "LineString", "coordinates": [[693813.5507595581, 4375778.011804453], [693803.5379899755, 4375777.949847037]]}, "properties": {"highway": "footway"}}, {"type": "Feature", "geometry": {"type": "LineString", "coordinates": [[693803.5379899755, 4375777.949847037], [693803.84234655, 4375766.484250804]]}, "properties": {"highway": "footway"}}, {"type": "Feature", "geometry": {"type": "LineString", "coordinates": [[693803.5379899755, 4375777.949847037], [693803.3652292008, 4375801.680533902]]}, "properties": {"highway": "footway"}}, {"type": "Feature", "geometry": {"type": "LineString", "coordinates": [[693803.5379899755, 4375777.949847037], [693813.5507595581, 4375778.011804453]]}, "properties": {"highway": "footway"}}, {"type": "Feature", "geometry": {"type": "LineString", "coordinates": [[693803.5379899755, 4375777.949847037], [693785.4825008161, 4375777.830878305]]}, "properties": {"highway": "footway"}}, {"type": "Feature", "geometry": {"type": "LineString", "coordinates": [[693803.84234655, 4375766.484250804], [693803.6491890638, 4375753.928845196]]}, "properties": {"highway": "footway"}}, {"type": "Feature", "geometry": {"type": "LineString", "coordinates": [[693803.84234655, 4375766.484250804], [693803.5379899755, 4375777.949847037]]}, "properties": {"highway": "footway"}}, {"type": "Feature", "geometry": {"type": "LineString", "coordinates": [[693803.84234655, 4375766.484250804], [693813.6559872305, 4375766.596753861]]}, "properties": {"highway": "footway"}}, {"type": "Feature", "geometry": {"type": "LineString", "coordinates": [[693813.6559872305, 4375766.596753861], [693813.5507595581, 4375778.011804453]]}, "properties": {"highway": "residential"}}, {"type": "Feature", "geometry": {"type": "LineString", "coordinates": [[693813.6559872305, 4375766.596753861], [693813.7720957285, 4375754.060199479]]}, "properties": {"highway": "residential"}}, {"type": "Feature", "geometry": {"type": "LineString", "coordinates": [[693813.6559872305, 4375766.596753861], [693803.84234655, 4375766.484250804]]}, "properties": {"highway": "footway"}}, {"type": "Feature", "geometry": {"type": "LineString", "coordinates": [[693822.0427833935, 4375736.085682622], [693813.9431480509, 4375736.2382332375]]}, "properties": {"highway": "footway"}}, {"type": "Feature", "geometry": {"type": "LineString", "coordinates": [[693822.0427833935, 4375736.085682622], [693821.8933090463, 4375745.145004909]]}, "properties": {"highway": "footway"}}, {"type": "Feature", "geometry": {"type": "LineString", "coordinates": [[693822.0427833935, 4375736.085682622], [693822.7490255703, 4375687.278326439]]}, "properties": {"highway": "footway"}}, {"type": "Feature", "geometry": {"type": "LineString", "coordinates": [[693822.0427833935, 4375736.085682622], [693880.1582810807, 4375736.45303707]]}, "properties": {"highway": "footway"}}, {"type": "Feature", "geometry": {"type": "LineString", "coordinates": [[693804.2750987937, 4375735.80728421], [693803.958947198, 4375744.995711605]]}, "properties": {"highway": "footway"}}, {"type": "Feature", "geometry": {"type": "LineString", "coordinates": [[693804.2750987937, 4375735.80728421], [693813.9431480509, 4375736.2382332375]]}, "properties": {"highway": "footway"}}, {"type": "Feature", "geometry": {"type": "LineString", "coordinates": [[693804.2750987937, 4375735.80728421], [693744.8502277741, 4375735.507676818]]}, "properties": {"highway": "footway"}}, {"type": "Feature", "geometry": {"type": "LineString", "coordinates": [[693804.2750987937, 4375735.80728421], [693805.0039653247, 4375687.1226736]]}, "properties": {"highway": "footway"}}, {"type": "Feature", "geometry": {"type": "LineString", "coordinates": [[693848.1759799297, 4375786.731536294], [693878.9614552057, 4375786.969662246]]}, "properties": {"highway": "service"}}, {"type": "Feature", "geometry": {"type": "LineString", "coordinates": [[693878.9614552057, 4375786.969662246], [693878.6567549707, 4375801.878332646]]}, "properties": {"highway": "service"}}, {"type": "Feature", "geometry": {"type": "LineString", "coordinates": [[693878.9614552057, 4375786.969662246], [693879.0654631762, 4375782.818360583]]}, "properties": {"highway": "service"}}, {"type": "Feature", "geometry": {"type": "LineString", "coordinates": [[693878.9614552057, 4375786.969662246], [693848.1759799297, 4375786.731536294]]}, "properties": {"highway": "service"}}, {"type": "Feature", "geometry": {"type": "LineString", "coordinates": [[693890.2914527918, 4375802.103201459], [693940.4908281447, 4375802.150523419]]}, "properties": {"highway": "service"}}, {"type": "Feature", "geometry": {"type": "LineString", "coordinates": [[693890.2914527918, 4375802.103201459], [693878.6567549707, 4375801.878332646]]}, "properties": {"highway": "service"}}, {"type": "Feature", "geometry": {"type": "LineString", "coordinates": [[693890.2914527918, 4375802.103201459], [693890.5994699708, 4375783.629360738], [693879.0654631762, 4375782.818360583]]}, "properties": {"highway": "service"}}, {"type": "Feature", "geometry": {"type": "LineString", "coordinates": [[693767.1651131007, 4375826.652598672], [693765.1133824169, 4375829.566710867]]}, "properties": {"highway": "footway"}}, {"type": "Feature", "geometry": {"type": "LineString", "coordinates": [[693767.1651131007, 4375826.652598672], [693755.5802307385, 4375818.598940291], [693745.4138667095, 4375818.488782142]]}, "properties": {"highway": "footway"}}, {"type": "Feature", "geometry": {"type": "LineString", "coordinates": [[693767.1651131007, 4375826.652598672], [693799.79154933, 4375849.905170959], [693802.8090530923, 4375851.369081091]]}, "properties": {"highway": "footway"}}, {"type": "Feature", "geometry": {"type": "LineString", "coordinates": [[693765.1133824169, 4375829.566710867], [693759.3826417346, 4375825.824646403]]}, "properties": {"highway": "footway"}}, {"type": "Feature", "geometry": {"type": "LineString", "coordinates": [[693765.1133824169, 4375829.566710867], [693767.1651131007, 4375826.652598672]]}, "properties": {"highway": "footway"}}, {"type": "Feature", "geometry": {"type": "LineString", "coordinates": [[693765.1133824169, 4375829.566710867], [693764.9714291671, 4375833.861447483]]}, "properties": {"highway": "footway"}}, {"type": "Feature", "geometry": {"type": "LineString", "coordinates": [[693759.3826417346, 4375825.824646403], [693759.3511643836, 4375828.456144906]]}, "properties": {"highway": "footway"}}, {"type": "Feature", "geometry": {"type": "LineString", "coordinates": [[693759.3826417346, 4375825.824646403], [693765.1133824169, 4375829.566710867]]}, "properties": {"highway": "footway"}}, {"type": "Feature", "geometry": {"type": "LineString", "coordinates": [[693759.3826417346, 4375825.824646403], [693753.8466926548, 4375825.641605978]]}, "properties": {"highway": "footway"}}, {"type": "Feature", "geometry": {"type": "LineString", "coordinates": [[693764.9485350661, 4375841.9909753315], [693764.9220219404, 4375845.111292911]]}, "properties": {"highway": "footway"}}, {"type": "Feature", "geometry": {"type": "LineString", "coordinates": [[693764.9485350661, 4375841.9909753315], [693765.8457742806, 4375841.891268626], [693766.6556630332, 4375841.500600658], [693767.2911105941, 4375840.861217396], [693767.6725122919, 4375840.059979034], [693767.7552108902, 4375839.162407477], [693767.5361489293, 4375838.29059982], [693767.0386185735, 4375837.545099593], [693766.3205816211, 4375837.016211794], [693765.4583075171, 4375836.750273052], [693764.6146007292, 4375836.773573416]]}, "properties": {"highway": "footway"}}, {"type": "Feature", "geometry": {"type": "LineString", "coordinates": [[693764.9485350661, 4375841.9909753315], [693764.1273054522, 4375841.803811328], [693763.4070452532, 4375841.363721674], [693762.8551479687, 4375840.727927342], [693762.5392850982, 4375839.942549547], [693762.5151770369, 4375839.530998161]]}, "properties": {"highway": "footway"}}, {"type": "Feature", "geometry": {"type": "LineString", "coordinates": [[693764.6146007292, 4375836.773573416], [693764.9714291671, 4375833.861447483]]}, "properties": {"highway": "footway"}}, {"type": "Feature", "geometry": {"type": "LineString", "coordinates": [[693764.6146007292, 4375836.773573416], [693763.8244088563, 4375837.064774568], [693763.1662248749, 4375837.581415148], [693762.7010679634, 4375838.291702937], [693762.4827489993, 4375839.1081317505], [693762.5151770369, 4375839.530998161]]}, "properties": {"highway": "footway"}}, {"type": "Feature", "geometry": {"type": "LineString", "coordinates": [[693764.6146007292, 4375836.773573416], [693765.4583075171, 4375836.750273052], [693766.3205816211, 4375837.016211794], [693767.0386185735, 4375837.545099593], [693767.5361489293, 4375838.29059982], [693767.7552108902, 4375839.162407477], [693767.6725122919, 4375840.059979034], [693767.2911105941, 4375840.861217396], [693766.6556630332, 4375841.500600658], [693765.8457742806, 4375841.891268626], [693764.9485350661, 4375841.9909753315]]}, "properties": {"highway": "footway"}}, {"type": "Feature", "geometry": {"type": "LineString", "coordinates": [[693762.5151770369, 4375839.530998161], [693759.2116358795, 4375839.526026069]]}, "properties": {"highway": "footway"}}, {"type": "Feature", "geometry": {"type": "LineString", "coordinates": [[693762.5151770369, 4375839.530998161], [693762.5392850982, 4375839.942549547], [693762.8551479687, 4375840.727927342], [693763.4070452532, 4375841.363721674], [693764.1273054522, 4375841.803811328], [693764.9485350661, 4375841.9909753315]]}, "properties": {"highway": "footway"}}, {"type": "Feature", "geometry": {"type": "LineString", "coordinates": [[693762.5151770369, 4375839.530998161], [693762.4827489993, 4375839.1081317505], [693762.7010679634, 4375838.291702937], [693763.1662248749, 4375837.581415148], [693763.8244088563, 4375837.064774568], [693764.6146007292, 4375836.773573416]]}, "properties": {"highway": "footway"}}, {"type": "Feature", "geometry": {"type": "LineString", "coordinates": [[693759.2116358795, 4375839.526026069], [693759.2562119127, 4375835.684225749]]}, "properties": {"highway": "footway"}}, {"type": "Feature", "geometry": {"type": "LineString", "coordinates": [[693759.2116358795, 4375839.526026069], [693762.5151770369, 4375839.530998161]]}, "properties": {"highway": "footway"}}, {"type": "Feature", "geometry": {"type": "LineString", "coordinates": [[693759.2116358795, 4375839.526026069], [693759.1439557292, 4375844.977718693], [693764.9220219404, 4375845.111292911]]}, "properties": {"highway": "footway"}}, {"type": "Feature", "geometry": {"type": "LineString", "coordinates": [[693764.9220219404, 4375845.111292911], [693764.9485350661, 4375841.9909753315]]}, "properties": {"highway": "footway"}}, {"type": "Feature", "geometry": {"type": "LineString", "coordinates": [[693764.9220219404, 4375845.111292911], [693770.3129048024, 4375845.246282771]]}, "properties": {"highway": "footway"}}, {"type": "Feature", "geometry": {"type": "LineString", "coordinates": [[693764.9220219404, 4375845.111292911], [693759.1439557292, 4375844.977718693], [693759.2116358795, 4375839.526026069]]}, "properties": {"highway": "footway"}}, {"type": "Feature", "geometry": {"type": "LineString", "coordinates": [[693769.0376855622, 4375833.985480869], [693764.9714291671, 4375833.861447483]]}, "properties": {"highway": "footway"}}, {"type": "Feature", "geometry": {"type": "LineString", "coordinates": [[693759.2876536528, 4375833.741341409], [693759.2562119127, 4375835.684225749]]}, "properties": {"highway": "footway"}}, {"type": "Feature", "geometry": {"type": "LineString", "coordinates": [[693759.2876536528, 4375833.741341409], [693759.3157959756, 4375831.243039718]]}, "properties": {"highway": "footway"}}, {"type": "Feature", "geometry": {"type": "LineString", "coordinates": [[693759.2876536528, 4375833.741341409], [693764.9714291671, 4375833.861447483]]}, "properties": {"highway": "footway"}}, {"type": "Feature", "geometry": {"type": "LineString", "coordinates": [[693764.9714291671, 4375833.861447483], [693764.6146007292, 4375836.773573416]]}, "properties": {"highway": "footway"}}, {"type": "Feature", "geometry": {"type": "LineString", "coordinates": [[693764.9714291671, 4375833.861447483], [693765.1133824169, 4375829.566710867]]}, "properties": {"highway": "footway"}}, {"type": "Feature", "geometry": {"type": "LineString", "coordinates": [[693764.9714291671, 4375833.861447483], [693759.2876536528, 4375833.741341409]]}, "properties": {"highway": "footway"}}, {"type": "Feature", "geometry": {"type": "LineString", "coordinates": [[693764.9714291671, 4375833.861447483], [693769.0376855622, 4375833.985480869]]}, "properties": {"highway": "footway"}}, {"type": "Feature", "geometry": {"type": "LineString", "coordinates": [[693753.8466926548, 4375825.641605978], [693759.3826417346, 4375825.824646403]]}, "properties": {"highway": "footway"}}, {"type": "Feature", "geometry": {"type": "LineString", "coordinates": [[693759.3511643836, 4375828.456144906], [693759.3157959756, 4375831.243039718]]}, "properties": {"highway": "footway"}}, {"type": "Feature", "geometry": {"type": "LineString", "coordinates": [[693759.3511643836, 4375828.456144906], [693759.3826417346, 4375825.824646403]]}, "properties": {"highway": "footway"}}, {"type": "Feature", "geometry": {"type": "LineString", "coordinates": [[693759.3511643836, 4375828.456144906], [693753.7783242341, 4375828.372140938]]}, "properties": {"highway": "footway"}}, {"type": "Feature", "geometry": {"type": "LineString", "coordinates": [[693753.7783242341, 4375828.372140938], [693759.3511643836, 4375828.456144906]]}, "properties": {"highway": "footway"}}, {"type": "Feature", "geometry": {"type": "LineString", "coordinates": [[693759.3157959756, 4375831.243039718], [693759.2876536528, 4375833.741341409]]}, "properties": {"highway": "footway"}}, {"type": "Feature", "geometry": {"type": "LineString", "coordinates": [[693759.3157959756, 4375831.243039718], [693759.3511643836, 4375828.456144906]]}, "properties": {"highway": "footway"}}, {"type": "Feature", "geometry": {"type": "LineString", "coordinates": [[693759.3157959756, 4375831.243039718], [693753.717719931, 4375831.136190395]]}, "properties": {"highway": "footway"}}, {"type": "Feature", "geometry": {"type": "LineString", "coordinates": [[693753.717719931, 4375831.136190395], [693759.3157959756, 4375831.243039718]]}, "properties": {"highway": "footway"}}, {"type": "Feature", "geometry": {"type": "LineString", "coordinates": [[693759.2562119127, 4375835.684225749], [693759.2116358795, 4375839.526026069]]}, "properties": {"highway": "footway"}}, {"type": "Feature", "geometry": {"type": "LineString", "coordinates": [[693759.2562119127, 4375835.684225749], [693759.2876536528, 4375833.741341409]]}, "properties": {"highway": "footway"}}, {"type": "Feature", "geometry": {"type": "LineString", "coordinates": [[693759.2562119127, 4375835.684225749], [693753.6148716141, 4375835.58739969]]}, "properties": {"highway": "footway"}}, {"type": "Feature", "geometry": {"type": "LineString", "coordinates": [[693753.6148716141, 4375835.58739969], [693759.2562119127, 4375835.684225749]]}, "properties": {"highway": "footway"}}, {"type": "Feature", "geometry": {"type": "LineString", "coordinates": [[693770.3129048024, 4375845.246282771], [693764.9220219404, 4375845.111292911]]}, "properties": {"highway": "footway"}}, {"type": "Feature", "geometry": {"type": "LineString", "coordinates": [[693745.2067745745, 4375777.622073603], [693757.3180018286, 4375777.714284273], [693757.2104991084, 4375780.976960508], [693770.9342494463, 4375781.265061905]]}, "properties": {"highway": "footway"}}, {"type": "Feature", "geometry": {"type": "LineString", "coordinates": [[693821.4461954376, 4375782.918796485], [693821.1660217626, 4375802.34850333]]}, "properties": {"highway": "footway"}}, {"type": "Feature", "geometry": {"type": "LineString", "coordinates": [[693821.4461954376, 4375782.918796485], [693822.0885882633, 4375754.179642158]]}, "properties": {"highway": "footway"}}, {"type": "Feature", "geometry": {"type": "LineString", "coordinates": [[693821.4461954376, 4375782.918796485], [693826.2488468161, 4375783.183476378]]}, "properties": {"highway": "footway"}}, {"type": "Feature", "geometry": {"type": "LineString", "coordinates": [[693827.9454272575, 4375783.114904621], [693826.2488468161, 4375783.183476378]]}, "properties": {"highway": "footway"}}, {"type": "Feature", "geometry": {"type": "LineString", "coordinates": [[693826.2488468161, 4375783.183476378], [693827.9454272575, 4375783.114904621]]}, "properties": {"highway": "footway"}}, {"type": "Feature", "geometry": {"type": "LineString", "coordinates": [[693826.2488468161, 4375783.183476378], [693821.4461954376, 4375782.918796485]]}, "properties": {"highway": "footway"}}, {"type": "Feature", "geometry": {"type": "LineString", "coordinates": [[693826.2488468161, 4375783.183476378], [693826.4744036971, 4375754.256173531]]}, "properties": {"highway": "footway"}}, {"type": "Feature", "geometry": {"type": "LineString", "coordinates": [[693826.4744036971, 4375754.256173531], [693822.0885882633, 4375754.179642158]]}, "properties": {"highway": "footway"}}, {"type": "Feature", "geometry": {"type": "LineString", "coordinates": [[693826.4744036971, 4375754.256173531], [693879.7632501961, 4375754.280506366]]}, "properties": {"highway": "footway"}}, {"type": "Feature", "geometry": {"type": "LineString", "coordinates": [[693826.4744036971, 4375754.256173531], [693826.2488468161, 4375783.183476378]]}, "properties": {"highway": "footway"}}, {"type": "Feature", "geometry": {"type": "LineString", "coordinates": [[693892.2762854617, 4375760.313973198], [693892.2980525389, 4375754.294684365]]}, "properties": {"highway": "footway"}}, {"type": "Feature", "geometry": {"type": "LineString", "coordinates": [[693892.2980525389, 4375754.294684365], [693879.7632501961, 4375754.280506366]]}, "properties": {"highway": "footway"}}, {"type": "Feature", "geometry": {"type": "LineString", "coordinates": [[693892.2980525389, 4375754.294684365], [693940.8907197854, 4375754.612720481]]}, "properties": {"highway": "footway"}}, {"type": "Feature", "geometry": {"type": "LineString", "coordinates": [[693892.2980525389, 4375754.294684365], [693892.2762854617, 4375760.313973198]]}, "properties": {"highway": "footway"}}, {"type": "Feature", "geometry": {"type": "LineString", "coordinates": [[693934.1393232401, 4375792.284077921], [693940.4521768205, 4375792.364542992]]}, "properties": {"highway": "footway"}}, {"type": "Feature", "geometry": {"type": "LineString", "coordinates": [[693940.4521768205, 4375792.364542992], [693940.8907197854, 4375754.612720481]]}, "properties": {"highway": "footway"}}, {"type": "Feature", "geometry": {"type": "LineString", "coordinates": [[693940.4521768205, 4375792.364542992], [693940.4908281447, 4375802.150523419]]}, "properties": {"highway": "footway"}}, {"type": "Feature", "geometry": {"type": "LineString", "coordinates": [[693940.4521768205, 4375792.364542992], [693934.1393232401, 4375792.284077921]]}, "properties": {"highway": "footway"}}, {"type": "Feature", "geometry": {"type": "LineString", "coordinates": [[693879.3436527187, 4375873.356086499], [693879.0665385635, 4375918.753360555]]}, "properties": {"highway": "service"}}, {"type": "Feature", "geometry": {"type": "LineString", "coordinates": [[693879.3436527187, 4375873.356086499], [693879.3946432739, 4375861.70642925]]}, "properties": {"highway": "service"}}, {"type": "Feature", "geometry": {"type": "LineString", "coordinates": [[693879.3436527187, 4375873.356086499], [693865.0900259267, 4375873.276641865]]}, "properties": {"highway": "footway"}}, {"type": "Feature", "geometry": {"type": "LineString", "coordinates": [[693879.3436527187, 4375873.356086499], [693882.9478299936, 4375873.3797499575]]}, "properties": {"highway": "footway"}}, {"type": "Feature", "geometry": {"type": "LineString", "coordinates": [[693822.2426586925, 4375918.051760974], [693838.9878984776, 4375918.260187144]]}, "properties": {"highway": "service"}}, {"type": "Feature", "geometry": {"type": "LineString", "coordinates": [[693822.2426586925, 4375918.051760974], [693812.2142638648, 4375917.933856278]]}, "properties": {"highway": "service"}}, {"type": "Feature", "geometry": {"type": "LineString", "coordinates": [[693822.2426586925, 4375918.051760974], [693819.698487484, 4375927.917426493], [693819.4162166028, 4375967.694564485]]}, "properties": {"highway": "footway"}}, {"type": "Feature", "geometry": {"type": "LineString", "coordinates": [[693822.2426586925, 4375918.051760974], [693822.3841727054, 4375894.198109897], [693822.4897112595, 4375887.23685149]]}, "properties": {"highway": "footway"}}, {"type": "Feature", "geometry": {"type": "LineString", "coordinates": [[693819.4162166028, 4375967.694564485], [693819.698487484, 4375927.917426493], [693822.2426586925, 4375918.051760974]]}, "properties": {"highway": "footway"}}, {"type": "Feature", "geometry": {"type": "LineString", "coordinates": [[693879.7149451682, 4375967.72797428], [693879.4417082558, 4375924.038446536], [693879.0665385635, 4375918.753360555]]}, "properties": {"highway": "service"}}, {"type": "Feature", "geometry": {"type": "LineString", "coordinates": [[693865.1417598366, 4375879.453266017], [693865.0900259267, 4375873.276641865]]}, "properties": {"highway": "footway"}}, {"type": "Feature", "geometry": {"type": "LineString", "coordinates": [[693865.0900259267, 4375873.276641865], [693852.9353934019, 4375873.205379604]]}, "properties": {"highway": "footway"}}, {"type": "Feature", "geometry": {"type": "LineString", "coordinates": [[693865.0900259267, 4375873.276641865], [693879.3436527187, 4375873.356086499]]}, "properties": {"highway": "footway"}}, {"type": "Feature", "geometry": {"type": "LineString", "coordinates": [[693865.0900259267, 4375873.276641865], [693865.1417598366, 4375879.453266017]]}, "properties": {"highway": "footway"}}, {"type": "Feature", "geometry": {"type": "LineString", "coordinates": [[693852.9353934019, 4375873.205379604], [693845.3570537948, 4375873.159920605]]}, "properties": {"highway": "footway"}}, {"type": "Feature", "geometry": {"type": "LineString", "coordinates": [[693852.9353934019, 4375873.205379604], [693865.0900259267, 4375873.276641865]]}, "properties": {"highway": "footway"}}, {"type": "Feature", "geometry": {"type": "LineString", "coordinates": [[693852.9353934019, 4375873.205379604], [693852.4132682508, 4375918.429906461]]}, "properties": {"highway": "footway"}}, {"type": "Feature", "geometry": {"type": "LineString", "coordinates": [[693852.4132682508, 4375918.429906461], [693879.0665385635, 4375918.753360555]]}, "properties": {"highway": "service"}}, {"type": "Feature", "geometry": {"type": "LineString", "coordinates": [[693852.4132682508, 4375918.429906461], [693838.9878984776, 4375918.260187144]]}, "properties": {"highway": "service"}}, {"type": "Feature", "geometry": {"type": "LineString", "coordinates": [[693852.4132682508, 4375918.429906461], [693852.9353934019, 4375873.205379604]]}, "properties": {"highway": "footway"}}, {"type": "Feature", "geometry": {"type": "LineString", "coordinates": [[693812.3761319963, 4375887.083495267], [693812.3534086365, 4375891.4256461]]}, "properties": {"highway": "trunk"}}, {"type": "Feature", "geometry": {"type": "LineString", "coordinates": [[693812.3761319963, 4375887.083495267], [693812.4540720535, 4375872.979937714]]}, "properties": {"highway": "trunk"}}, {"type": "Feature", "geometry": {"type": "LineString", "coordinates": [[693812.3761319963, 4375887.083495267], [693822.4897112595, 4375887.23685149]]}, "properties": {"highway": "service"}}, {"type": "Feature", "geometry": {"type": "LineString", "coordinates": [[693845.5527669998, 4375861.569425194], [693845.3570537948, 4375873.159920605]]}, "properties": {"highway": "service"}}, {"type": "Feature", "geometry": {"type": "LineString", "coordinates": [[693845.5527669998, 4375861.569425194], [693822.9283767598, 4375861.480291983]]}, "properties": {"highway": "trunk"}}, {"type": "Feature", "geometry": {"type": "LineString", "coordinates": [[693845.5527669998, 4375861.569425194], [693879.3946432739, 4375861.70642925]]}, "properties": {"highway": "trunk"}}, {"type": "Feature", "geometry": {"type": "LineString", "coordinates": [[693845.3570537948, 4375873.159920605], [693822.6908201639, 4375873.025310985]]}, "properties": {"highway": "footway"}}, {"type": "Feature", "geometry": {"type": "LineString", "coordinates": [[693845.3570537948, 4375873.159920605], [693852.9353934019, 4375873.205379604]]}, "properties": {"highway": "footway"}}, {"type": "Feature", "geometry": {"type": "LineString", "coordinates": [[693845.3570537948, 4375873.159920605], [693845.5527669998, 4375861.569425194]]}, "properties": {"highway": "service"}}, {"type": "Feature", "geometry": {"type": "LineString", "coordinates": [[693845.3570537948, 4375873.159920605], [693845.1613177647, 4375885.094723458], [693844.112825923, 4375886.767783666], [693842.1838040119, 4375887.530250067], [693839.4577277943, 4375887.484174739]]}, "properties": {"highway": "service"}}, {"type": "Feature", "geometry": {"type": "LineString", "coordinates": [[693822.4897112595, 4375887.23685149], [693822.6908201639, 4375873.025310985]]}, "properties": {"highway": "footway"}}, {"type": "Feature", "geometry": {"type": "LineString", "coordinates": [[693822.4897112595, 4375887.23685149], [693839.4577277943, 4375887.484174739]]}, "properties": {"highway": "service"}}, {"type": "Feature", "geometry": {"type": "LineString", "coordinates": [[693822.4897112595, 4375887.23685149], [693812.3761319963, 4375887.083495267]]}, "properties": {"highway": "service"}}, {"type": "Feature", "geometry": {"type": "LineString", "coordinates": [[693822.4897112595, 4375887.23685149], [693822.3841727054, 4375894.198109897], [693822.2426586925, 4375918.051760974]]}, "properties": {"highway": "footway"}}, {"type": "Feature", "geometry": {"type": "LineString", "coordinates": [[693838.9878984776, 4375918.260187144], [693852.4132682508, 4375918.429906461]]}, "properties": {"highway": "service"}}, {"type": "Feature", "geometry": {"type": "LineString", "coordinates": [[693838.9878984776, 4375918.260187144], [693822.2426586925, 4375918.051760974]]}, "properties": {"highway": "service"}}, {"type": "Feature", "geometry": {"type": "LineString", "coordinates": [[693838.9878984776, 4375918.260187144], [693839.4577277943, 4375887.484174739]]}, "properties": {"highway": "service"}}, {"type": "Feature", "geometry": {"type": "LineString", "coordinates": [[693839.4577277943, 4375887.484174739], [693822.4897112595, 4375887.23685149]]}, "properties": {"highway": "service"}}, {"type": "Feature", "geometry": {"type": "LineString", "coordinates": [[693839.4577277943, 4375887.484174739], [693838.9878984776, 4375918.260187144]]}, "properties": {"highway": "service"}}, {"type": "Feature", "geometry": {"type": "LineString", "coordinates": [[693839.4577277943, 4375887.484174739], [693842.1838040119, 4375887.530250067], [693844.112825923, 4375886.767783666], [693845.1613177647, 4375885.094723458], [693845.3570537948, 4375873.159920605]]}, "properties": {"highway": "service"}}, {"type": "Feature", "geometry": {"type": "LineString", "coordinates": [[693996.9478172688, 4375745.455344245], [694018.9781991553, 4375745.574498145]]}, "properties": {"highway": "residential"}}, {"type": "Feature", "geometry": {"type": "LineString", "coordinates": [[693996.9478172688, 4375745.455344245], [693958.5808985217, 4375745.282187267]]}, "properties": {"highway": "residential"}}, {"type": "Feature", "geometry": {"type": "LineString", "coordinates": [[693996.9478172688, 4375745.455344245], [693996.9232816633, 4375736.824812254]]}, "properties": {"highway": "service"}}, {"type": "Feature", "geometry": {"type": "LineString", "coordinates": [[693996.8761012073, 4375716.74269079], [693976.2960103825, 4375715.738101008], [693959.3640744266, 4375713.692118644]]}, "properties": {"highway": "service"}}, {"type": "Feature", "geometry": {"type": "LineString", "coordinates": [[693996.8761012073, 4375716.74269079], [694000.3817987598, 4375714.520379336], [694001.8007313458, 4375711.457178055], [694002.1006007212, 4375687.140992426]]}, "properties": {"highway": "service"}}, {"type": "Feature", "geometry": {"type": "LineString", "coordinates": [[693950.144179425, 4375713.5721027795], [693949.77464782, 4375736.898038276]]}, "properties": {"highway": "residential"}}, {"type": "Feature", "geometry": {"type": "LineString", "coordinates": [[693950.144179425, 4375713.5721027795], [693950.5730390549, 4375686.849002077]]}, "properties": {"highway": "residential"}}, {"type": "Feature", "geometry": {"type": "LineString", "coordinates": [[694002.1006007212, 4375687.140992426], [694019.4776370394, 4375687.22122922]]}, "properties": {"highway": "service"}}, {"type": "Feature", "geometry": {"type": "LineString", "coordinates": [[694002.1006007212, 4375687.140992426], [693959.6398696202, 4375686.898539826]]}, "properties": {"highway": "service"}}, {"type": "Feature", "geometry": {"type": "LineString", "coordinates": [[694021.3866346815, 4375873.584270419], [693957.6976491945, 4375872.853956889]]}, "properties": {"highway": "footway"}}, {"type": "Feature", "geometry": {"type": "LineString", "coordinates": [[693882.9478299936, 4375873.3797499575], [693879.3436527187, 4375873.356086499]]}, "properties": {"highway": "footway"}}, {"type": "Feature", "geometry": {"type": "LineString", "coordinates": [[693882.9478299936, 4375873.3797499575], [693939.4361862929, 4375874.095578663]]}, "properties": {"highway": "footway"}}, {"type": "Feature", "geometry": {"type": "LineString", "coordinates": [[693882.9478299936, 4375873.3797499575], [693883.0077019644, 4375861.719208218]]}, "properties": {"highway": "footway"}}, {"type": "Feature", "geometry": {"type": "LineString", "coordinates": [[693883.3871791896, 4375848.633909434], [693878.8216941938, 4375848.519520826]]}, "properties": {"highway": "footway"}}, {"type": "Feature", "geometry": {"type": "LineString", "coordinates": [[693883.3871791896, 4375848.633909434], [693940.7349499472, 4375849.3934828695]]}, "properties": {"highway": "footway"}}, {"type": "Feature", "geometry": {"type": "LineString", "coordinates": [[693883.3871791896, 4375848.633909434], [693883.0077019644, 4375861.719208218]]}, "properties": {"highway": "footway"}}, {"type": "Feature", "geometry": {"type": "LineString", "coordinates": [[693938.8805408026, 4375934.024578344], [693938.7762688008, 4375919.305570724]]}, "properties": {"highway": "footway"}}, {"type": "Feature", "geometry": {"type": "LineString", "coordinates": [[693948.2396850691, 4375934.070340266], [693948.5262157546, 4375915.773658231]]}, "properties": {"highway": "residential"}}, {"type": "Feature", "geometry": {"type": "LineString", "coordinates": [[693770.9342494463, 4375781.265061905], [693757.2104991084, 4375780.976960508], [693757.3180018286, 4375777.714284273], [693745.2067745745, 4375777.622073603]]}, "properties": {"highway": "footway"}}, {"type": "Feature", "geometry": {"type": "LineString", "coordinates": [[693743.6626025385, 4375869.535726622], [693783.9683505637, 4375869.900798414]]}, "properties": {"highway": "footway"}}, {"type": "Feature", "geometry": {"type": "LineString", "coordinates": [[693802.4956740211, 4375870.064914103], [693802.7293248938, 4375872.758587198]]}, "properties": {"highway": "footway"}}, {"type": "Feature", "geometry": {"type": "LineString", "coordinates": [[693802.4956740211, 4375870.064914103], [693783.9683505637, 4375869.900798414]]}, "properties": {"highway": "footway"}}, {"type": "Feature", "geometry": {"type": "LineString", "coordinates": [[693802.4956740211, 4375870.064914103], [693802.3171842264, 4375867.91685082], [693802.5186697216, 4375860.90246305]]}, "properties": {"highway": "footway"}}, {"type": "Feature", "geometry": {"type": "LineString", "coordinates": [[693802.09544337, 4375917.991407025], [693812.2142638648, 4375917.933856278]]}, "properties": {"highway": "service"}}, {"type": "Feature", "geometry": {"type": "LineString", "coordinates": [[693802.09544337, 4375917.991407025], [693742.6386557829, 4375918.33511921]]}, "properties": {"highway": "service"}}, {"type": "Feature", "geometry": {"type": "LineString", "coordinates": [[693802.09544337, 4375917.991407025], [693802.4719774018, 4375891.278116977]]}, "properties": {"highway": "footway"}}, {"type": "Feature", "geometry": {"type": "LineString", "coordinates": [[693802.09544337, 4375917.991407025], [693801.6429883349, 4375966.971732305]]}, "properties": {"highway": "footway"}}, {"type": "Feature", "geometry": {"type": "LineString", "coordinates": [[693801.6429883349, 4375966.971732305], [693802.09544337, 4375917.991407025]]}, "properties": {"highway": "footway"}}, {"type": "Feature", "geometry": {"type": "LineString", "coordinates": [[693950.8296271084, 4375638.163622613], [693950.5730390549, 4375686.849002077]]}, "properties": {"highway": "residential"}}, {"type": "Feature", "geometry": {"type": "LineString", "coordinates": [[693744.8502277741, 4375735.507676818], [693804.2750987937, 4375735.80728421]]}, "properties": {"highway": "footway"}}, {"type": "Feature", "geometry": {"type": "LineString", "coordinates": [[693805.7367251732, 4375637.938362864], [693805.0039653247, 4375687.1226736]]}, "properties": {"highway": "footway"}}, {"type": "Feature", "geometry": {"type": "LineString", "coordinates": [[693942.0955386289, 4375638.566705919], [693941.4776330142, 4375686.90982587]]}, "properties": {"highway": "footway"}}, {"type": "Feature", "geometry": {"type": "LineString", "coordinates": [[693822.7490255703, 4375687.278326439], [693880.5007340004, 4375687.4144152105]]}, "properties": {"highway": "service"}}, {"type": "Feature", "geometry": {"type": "LineString", "coordinates": [[693822.7490255703, 4375687.278326439], [693814.3952888934, 4375687.269021679]]}, "properties": {"highway": "service"}}, {"type": "Feature", "geometry": {"type": "LineString", "coordinates": [[693822.7490255703, 4375687.278326439], [693822.0427833935, 4375736.085682622]]}, "properties": {"highway": "footway"}}, {"type": "Feature", "geometry": {"type": "LineString", "coordinates": [[693822.7490255703, 4375687.278326439], [693822.9772754294, 4375668.547044509]]}, "properties": {"highway": "footway"}}, {"type": "Feature", "geometry": {"type": "LineString", "coordinates": [[693880.1582810807, 4375736.45303707], [693879.9355509002, 4375744.999618698]]}, "properties": {"highway": "service"}}, {"type": "Feature", "geometry": {"type": "LineString", "coordinates": [[693880.1582810807, 4375736.45303707], [693880.5007340004, 4375687.4144152105]]}, "properties": {"highway": "service"}}, {"type": "Feature", "geometry": {"type": "LineString", "coordinates": [[693880.1582810807, 4375736.45303707], [693940.9746934203, 4375736.844090162]]}, "properties": {"highway": "footway"}}, {"type": "Feature", "geometry": {"type": "LineString", "coordinates": [[693880.1582810807, 4375736.45303707], [693822.0427833935, 4375736.085682622]]}, "properties": {"highway": "footway"}}, {"type": "Feature", "geometry": {"type": "LineString", "coordinates": [[693941.4776330142, 4375686.90982587], [693950.5730390549, 4375686.849002077]]}, "properties": {"highway": "service"}}, {"type": "Feature", "geometry": {"type": "LineString", "coordinates": [[693941.4776330142, 4375686.90982587], [693880.5007340004, 4375687.4144152105]]}, "properties": {"highway": "service"}}, {"type": "Feature", "geometry": {"type": "LineString", "coordinates": [[693941.4776330142, 4375686.90982587], [693940.9746934203, 4375736.844090162]]}, "properties": {"highway": "footway"}}, {"type": "Feature", "geometry": {"type": "LineString", "coordinates": [[693941.4776330142, 4375686.90982587], [693942.0955386289, 4375638.566705919]]}, "properties": {"highway": "footway"}}, {"type": "Feature", "geometry": {"type": "LineString", "coordinates": [[693959.3640744266, 4375713.692118644], [693950.144179425, 4375713.5721027795]]}, "properties": {"highway": "service"}}, {"type": "Feature", "geometry": {"type": "LineString", "coordinates": [[693959.3640744266, 4375713.692118644], [693959.6398696202, 4375686.898539826]]}, "properties": {"highway": "footway"}}, {"type": "Feature", "geometry": {"type": "LineString", "coordinates": [[693959.3640744266, 4375713.692118644], [693958.869240408, 4375735.837603477], [693958.4447976892, 4375736.98206307]]}, "properties": {"highway": "footway"}}, {"type": "Feature", "geometry": {"type": "LineString", "coordinates": [[693959.6398696202, 4375686.898539826], [694002.1006007212, 4375687.140992426]]}, "properties": {"highway": "service"}}, {"type": "Feature", "geometry": {"type": "LineString", "coordinates": [[693959.6398696202, 4375686.898539826], [693950.5730390549, 4375686.849002077]]}, "properties": {"highway": "service"}}, {"type": "Feature", "geometry": {"type": "LineString", "coordinates": [[693959.6398696202, 4375686.898539826], [693959.3640744266, 4375713.692118644]]}, "properties": {"highway": "footway"}}, {"type": "Feature", "geometry": {"type": "LineString", "coordinates": [[693959.6398696202, 4375686.898539826], [693960.3042176464, 4375638.423297832]]}, "properties": {"highway": "footway"}}, {"type": "Feature", "geometry": {"type": "LineString", "coordinates": [[693960.3042176464, 4375638.423297832], [693959.6398696202, 4375686.898539826]]}, "properties": {"highway": "footway"}}, {"type": "Feature", "geometry": {"type": "LineString", "coordinates": [[693996.9232816633, 4375736.824812254], [693996.8761012073, 4375716.74269079]]}, "properties": {"highway": "service"}}, {"type": "Feature", "geometry": {"type": "LineString", "coordinates": [[693996.9232816633, 4375736.824812254], [693958.4447976892, 4375736.98206307]]}, "properties": {"highway": "footway"}}, {"type": "Feature", "geometry": {"type": "LineString", "coordinates": [[693996.9232816633, 4375736.824812254], [694019.0518842146, 4375736.802039846]]}, "properties": {"highway": "footway"}}, {"type": "Feature", "geometry": {"type": "LineString", "coordinates": [[694019.0518842146, 4375736.802039846], [693996.9232816633, 4375736.824812254]]}, "properties": {"highway": "footway"}}, {"type": "Feature", "geometry": {"type": "LineString", "coordinates": [[693880.3727695395, 4375638.264051474], [693880.5007340004, 4375687.4144152105]]}, "properties": {"highway": "service"}}, {"type": "Feature", "geometry": {"type": "LineString", "coordinates": [[693805.0039653247, 4375687.1226736], [693814.3952888934, 4375687.269021679]]}, "properties": {"highway": "service"}}, {"type": "Feature", "geometry": {"type": "LineString", "coordinates": [[693805.0039653247, 4375687.1226736], [693745.0462292038, 4375686.098914534]]}, "properties": {"highway": "service"}}, {"type": "Feature", "geometry": {"type": "LineString", "coordinates": [[693805.0039653247, 4375687.1226736], [693804.2750987937, 4375735.80728421]]}, "properties": {"highway": "footway"}}, {"type": "Feature", "geometry": {"type": "LineString", "coordinates": [[693805.0039653247, 4375687.1226736], [693805.7367251732, 4375637.938362864]]}, "properties": {"highway": "footway"}}, {"type": "Feature", "geometry": {"type": "LineString", "coordinates": [[693812.3534086365, 4375891.4256461], [693812.2142638648, 4375917.933856278]]}, "properties": {"highway": "trunk"}}, {"type": "Feature", "geometry": {"type": "LineString", "coordinates": [[693812.3534086365, 4375891.4256461], [693812.3761319963, 4375887.083495267]]}, "properties": {"highway": "trunk"}}, {"type": "Feature", "geometry": {"type": "LineString", "coordinates": [[693812.3534086365, 4375891.4256461], [693802.4719774018, 4375891.278116977]]}, "properties": {"highway": "service"}}, {"type": "Feature", "geometry": {"type": "LineString", "coordinates": [[693802.4719774018, 4375891.278116977], [693802.7293248938, 4375872.758587198]]}, "properties": {"highway": "footway"}}, {"type": "Feature", "geometry": {"type": "LineString", "coordinates": [[693802.4719774018, 4375891.278116977], [693802.09544337, 4375917.991407025]]}, "properties": {"highway": "footway"}}, {"type": "Feature", "geometry": {"type": "LineString", "coordinates": [[693802.4719774018, 4375891.278116977], [693812.3534086365, 4375891.4256461]]}, "properties": {"highway": "service"}}, {"type": "Feature", "geometry": {"type": "LineString", "coordinates": [[693802.4719774018, 4375891.278116977], [693783.7314262736, 4375891.042018187], [693783.9683505637, 4375869.900798414]]}, "properties": {"highway": "service"}}, {"type": "Feature", "geometry": {"type": "LineString", "coordinates": [[693783.9683505637, 4375869.900798414], [693743.6626025385, 4375869.535726622]]}, "properties": {"highway": "footway"}}, {"type": "Feature", "geometry": {"type": "LineString", "coordinates": [[693783.9683505637, 4375869.900798414], [693802.4956740211, 4375870.064914103]]}, "properties": {"highway": "footway"}}, {"type": "Feature", "geometry": {"type": "LineString", "coordinates": [[693783.9683505637, 4375869.900798414], [693784.5998282464, 4375860.831333564]]}, "properties": {"highway": "service"}}, {"type": "Feature", "geometry": {"type": "LineString", "coordinates": [[693783.9683505637, 4375869.900798414], [693783.7314262736, 4375891.042018187], [693802.4719774018, 4375891.278116977]]}, "properties": {"highway": "service"}}, {"type": "Feature", "geometry": {"type": "LineString", "coordinates": [[693784.5998282464, 4375860.831333564], [693743.4547581052, 4375860.656274101]]}, "properties": {"highway": "tertiary"}}, {"type": "Feature", "geometry": {"type": "LineString", "coordinates": [[693784.5998282464, 4375860.831333564], [693802.5186697216, 4375860.90246305]]}, "properties": {"highway": "tertiary"}}, {"type": "Feature", "geometry": {"type": "LineString", "coordinates": [[693784.5998282464, 4375860.831333564], [693783.9683505637, 4375869.900798414]]}, "properties": {"highway": "service"}}, {"type": "Feature", "geometry": {"type": "LineString", "coordinates": [[693879.0654631762, 4375782.818360583], [693878.9614552057, 4375786.969662246]]}, "properties": {"highway": "service"}}, {"type": "Feature", "geometry": {"type": "LineString", "coordinates": [[693879.0654631762, 4375782.818360583], [693879.7632501961, 4375754.280506366]]}, "properties": {"highway": "service"}}, {"type": "Feature", "geometry": {"type": "LineString", "coordinates": [[693879.0654631762, 4375782.818360583], [693890.5994699708, 4375783.629360738], [693890.2914527918, 4375802.103201459]]}, "properties": {"highway": "service"}}, {"type": "Feature", "geometry": {"type": "LineString", "coordinates": [[693822.9772754294, 4375668.547044509], [693822.7490255703, 4375687.278326439]]}, "properties": {"highway": "footway"}}, {"type": "Feature", "geometry": {"type": "LineString", "coordinates": [[693814.5719299678, 4375668.536448207], [693814.3952888934, 4375687.269021679]]}, "properties": {"highway": "residential"}}]}