{"type": "FeatureCollection", "features": [{"type": "Feature", "geometry": {"type": "LineString", "coordinates": [[693216.0390571814, 4375365.918445317], [693216.2034712206, 4375316.253667634]]}, "properties": {"highway": "residential"}}, {"type": "Feature", "geometry": {"type": "LineString", "coordinates": [[693422.0495576693, 4375228.832490498], [693422.1191921296, 4375220.1932544755]]}, "properties": {"highway": "service"}}, {"type": "Feature", "geometry": {"type": "LineString", "coordinates": [[693422.0495576693, 4375228.832490498], [693362.99014584, 4375227.878784047]]}, "properties": {"highway": "residential"}}, {"type": "Feature", "geometry": {"type": "LineString", "coordinates": [[693422.0495576693, 4375228.832490498], [693432.8260627948, 4375229.001852063]]}, "properties": {"highway": "residential"}}, {"type": "Feature", "geometry": {"type": "LineString", "coordinates": [[693422.7955255517, 4375137.354529356], [693391.5618290334, 4375138.773172354], [693377.642830665, 4375143.8454462895], [693366.5092307774, 4375144.189259887]]}, "properties": {"highway": "service"}}, {"type": "Feature", "geometry": {"type": "LineString", "coordinates": [[693294.9862968109, 4375226.779887392], [693279.6517254103, 4375226.530210275]]}, "properties": {"highway": "residential"}}, {"type": "Feature", "geometry": {"type": "LineString", "coordinates": [[693294.9862968109, 4375226.779887392], [693313.081840996, 4375227.0652346155]]}, "properties": {"highway": "residential"}}, {"type": "Feature", "geometry": {"type": "LineString", "coordinates": [[693295.2630634946, 4375150.239827096], [693295.1042475159, 4375194.151519557]]}, "properties": {"highway": "service"}}, {"type": "Feature", "geometry": {"type": "LineString", "coordinates": [[693295.2630634946, 4375150.239827096], [693287.7526706003, 4375140.21178444], [693277.900271985, 4375140.243414773]]}, "properties": {"highway": "footway"}}, {"type": "Feature", "geometry": {"type": "LineString", "coordinates": [[693360.1182091547, 4375144.462754874], [693360.4305623941, 4375110.950700673]]}, "properties": {"highway": "residential"}}, {"type": "Feature", "geometry": {"type": "LineString", "coordinates": [[693360.1182091547, 4375144.462754874], [693360.0502993328, 4375150.969553073]]}, "properties": {"highway": "residential"}}, {"type": "Feature", "geometry": {"type": "LineString", "coordinates": [[693360.1182091547, 4375144.462754874], [693366.5092307774, 4375144.189259887]]}, "properties": {"highway": "service"}}, {"type": "Feature", "geometry": {"type": "LineString", "coordinates": [[693279.6517254103, 4375226.530210275], [693280.0701449269, 4375218.388384967]]}, "properties": {"highway": "service"}}, {"type": "Feature", "geometry": {"type": "LineString", "coordinates": [[693279.6517254103, 4375226.530210275], [693294.9862968109, 4375226.779887392]]}, "properties": {"highway": "residential"}}, {"type": "Feature", "geometry": {"type": "LineString", "coordinates": [[693279.6517254103, 4375226.530210275], [693225.236679472, 4375225.649110781], [693216.2578373626, 4375225.502702022]]}, "properties": {"highway": "residential"}}, {"type": "Feature", "geometry": {"type": "LineString", "coordinates": [[693277.8545439745, 4375142.419174103], [693260.3956609069, 4375142.127605023]]}, "properties": {"highway": "service"}}, {"type": "Feature", "geometry": {"type": "LineString", "coordinates": [[693277.8545439745, 4375142.419174103], [693277.9432219589, 4375153.339214726]]}, "properties": {"highway": "service"}}, {"type": "Feature", "geometry": {"type": "LineString", "coordinates": [[693277.8545439745, 4375142.419174103], [693277.900271985, 4375140.243414773]]}, "properties": {"highway": "service"}}, {"type": "Feature", "geometry": {"type": "LineString", "coordinates": [[693216.5394579725, 4375141.49915034], [693216.4530359008, 4375167.708648629]]}, "properties": {"highway": "residential"}}, {"type": "Feature", "geometry": {"type": "LineString", "coordinates": [[693216.5394579725, 4375141.49915034], [693216.5683739696, 4375133.447562941]]}, "properties": {"highway": "residential"}}, {"type": "Feature", "geometry": {"type": "LineString", "coordinates": [[693216.5394579725, 4375141.49915034], [693225.381373165, 4375141.619921799]]}, "properties": {"highway": "service"}}, {"type": "Feature", "geometry": {"type": "LineString", "coordinates": [[693216.8962231239, 4375038.627319169], [693216.7951987, 4375067.490933419]]}, "properties": {"highway": "residential"}}, {"type": "Feature", "geometry": {"type": "LineString", "coordinates": [[693359.33519952, 4375227.809685919], [693313.081840996, 4375227.0652346155]]}, "properties": {"highway": "residential"}}, {"type": "Feature", "geometry": {"type": "LineString", "coordinates": [[693359.33519952, 4375227.809685919], [693362.99014584, 4375227.878784047]]}, "properties": {"highway": "residential"}}, {"type": "Feature", "geometry": {"type": "LineString", "coordinates": [[693359.33519952, 4375227.809685919], [693359.4141967192, 4375219.481673692], [693360.0502993328, 4375150.969553073]]}, "properties": {"highway": "residential"}}, {"type": "Feature", "geometry": {"type": "LineString", "coordinates": [[693216.4530359008, 4375167.708648629], [693209.0296477559, 4375167.634402498]]}, "properties": {"highway": "residential"}}, {"type": "Feature", "geometry": {"type": "LineString", "coordinates": [[693216.4530359008, 4375167.708648629], [693216.2941729382, 4375214.396974089]]}, "properties": {"highway": "residential"}}, {"type": "Feature", "geometry": {"type": "LineString", "coordinates": [[693216.4530359008, 4375167.708648629], [693216.5394579725, 4375141.49915034]]}, "properties": {"highway": "residential"}}, {"type": "Feature", "geometry": {"type": "LineString", "coordinates": [[693216.2578373626, 4375225.502702022], [693216.3113739365, 4375236.799486568], [693216.3838280241, 4375250.440243723]]}, "properties": {"highway": "residential"}}, {"type": "Feature", "geometry": {"type": "LineString", "coordinates": [[693216.2578373626, 4375225.502702022], [693225.236679472, 4375225.649110781], [693279.6517254103, 4375226.530210275]]}, "properties": {"highway": "residential"}}, {"type": "Feature", "geometry": {"type": "LineString", "coordinates": [[693216.2578373626, 4375225.502702022], [693216.2724374899, 4375221.471357965], [693216.2941729382, 4375214.396974089]]}, "properties": {"highway": "residential"}}, {"type": "Feature", "geometry": {"type": "LineString", "coordinates": [[693216.2034712206, 4375316.253667634], [693216.0390571814, 4375365.918445317]]}, "properties": {"highway": "residential"}}, {"type": "Feature", "geometry": {"type": "LineString", "coordinates": [[693216.2034712206, 4375316.253667634], [693216.1891110473, 4375295.805990986]]}, "properties": {"highway": "residential"}}, {"type": "Feature", "geometry": {"type": "LineString", "coordinates": [[693216.2034712206, 4375316.253667634], [693208.7056101746, 4375316.066487465]]}, "properties": {"highway": "service"}}, {"type": "Feature", "geometry": {"type": "LineString", "coordinates": [[693216.1891110473, 4375295.805990986], [693216.2034712206, 4375316.253667634]]}, "properties": {"highway": "residential"}}, {"type": "Feature", "geometry": {"type": "LineString", "coordinates": [[693216.1891110473, 4375295.805990986], [693216.2745771224, 4375285.834365142]]}, "properties": {"highway": "residential"}}, {"type": "Feature", "geometry": {"type": "LineString", "coordinates": [[693216.1891110473, 4375295.805990986], [693224.9049210096, 4375295.801451568]]}, "properties": {"highway": "service"}}, {"type": "Feature", "geometry": {"type": "LineString", "coordinates": [[693313.081840996, 4375227.0652346155], [693294.9862968109, 4375226.779887392]]}, "properties": {"highway": "residential"}}, {"type": "Feature", "geometry": {"type": "LineString", "coordinates": [[693313.081840996, 4375227.0652346155], [693359.33519952, 4375227.809685919]]}, "properties": {"highway": "residential"}}, {"type": "Feature", "geometry": {"type": "LineString", "coordinates": [[693313.081840996, 4375227.0652346155], [693313.1143842263, 4375234.374219044]]}, "properties": {"highway": "service"}}, {"type": "Feature", "geometry": {"type": "LineString", "coordinates": [[693252.6262781443, 4375245.847315595], [693275.4814805632, 4375246.062610739]]}, "properties": {"highway": "service"}}, {"type": "Feature", "geometry": {"type": "LineString", "coordinates": [[693252.6262781443, 4375245.847315595], [693252.0678077248, 4375295.779927459]]}, "properties": {"highway": "service"}}, {"type": "Feature", "geometry": {"type": "LineString", "coordinates": [[693252.6262781443, 4375245.847315595], [693238.3268991534, 4375245.490286171], [693237.8195650767, 4375295.790689182]]}, "properties": {"highway": "service"}}, {"type": "Feature", "geometry": {"type": "LineString", "coordinates": [[693216.2745771224, 4375285.834365142], [693216.1891110473, 4375295.805990986]]}, "properties": {"highway": "residential"}}, {"type": "Feature", "geometry": {"type": "LineString", "coordinates": [[693216.2745771224, 4375285.834365142], [693216.3838280241, 4375250.440243723]]}, "properties": {"highway": "residential"}}, {"type": "Feature", "geometry": {"type": "LineString", "coordinates": [[693216.2745771224, 4375285.834365142], [693208.8962429789, 4375286.027796176]]}, "properties": {"highway": "service"}}, {"type": "Feature", "geometry": {"type": "LineString", "coordinates": [[693216.3838280241, 4375250.440243723], [693216.2745771224, 4375285.834365142]]}, "properties": {"highway": "residential"}}, {"type": "Feature", "geometry": {"type": "LineString", "coordinates": [[693216.3838280241, 4375250.440243723], [693208.9064341391, 4375250.4646043135]]}, "properties": {"highway": "service"}}, {"type": "Feature", "geometry": {"type": "LineString", "coordinates": [[693216.3838280241, 4375250.440243723], [693216.3113739365, 4375236.799486568], [693216.2578373626, 4375225.502702022]]}, "properties": {"highway": "residential"}}, {"type": "Feature", "geometry": {"type": "LineString", "coordinates": [[693194.1152971127, 4375250.506325459], [693208.9064341391, 4375250.4646043135]]}, "properties": {"highway": "service"}}, {"type": "Feature", "geometry": {"type": "LineString", "coordinates": [[693313.1231308059, 4375246.425146207], [693313.1747440399, 4375271.227572131]]}, "properties": {"highway": "service"}}, {"type": "Feature", "geometry": {"type": "LineString", "coordinates": [[693313.1231308059, 4375246.425146207], [693313.1143842263, 4375234.374219044]]}, "properties": {"highway": "service"}}, {"type": "Feature", "geometry": {"type": "LineString", "coordinates": [[693313.1231308059, 4375246.425146207], [693295.3621435055, 4375246.181471449]]}, "properties": {"highway": "service"}}, {"type": "Feature", "geometry": {"type": "LineString", "coordinates": [[693237.8195650767, 4375295.790689182], [693224.9049210096, 4375295.801451568]]}, "properties": {"highway": "service"}}, {"type": "Feature", "geometry": {"type": "LineString", "coordinates": [[693237.8195650767, 4375295.790689182], [693252.0678077248, 4375295.779927459]]}, "properties": {"highway": "service"}}, {"type": "Feature", "geometry": {"type": "LineString", "coordinates": [[693237.8195650767, 4375295.790689182], [693238.3268991534, 4375245.490286171], [693252.6262781443, 4375245.847315595]]}, "properties": {"highway": "service"}}, {"type": "Feature", "geometry": {"type": "LineString", "coordinates": [[693432.8260627948, 4375229.001852063], [693422.0495576693, 4375228.832490498]]}, "properties": {"highway": "residential"}}, {"type": "Feature", "geometry": {"type": "LineString", "coordinates": [[693432.8260627948, 4375229.001852063], [693437.9605189913, 4375229.0857486855]]}, "properties": {"highway": "residential"}}, {"type": "Feature", "geometry": {"type": "LineString", "coordinates": [[693432.8260627948, 4375229.001852063], [693432.877630922, 4375236.577879158]]}, "properties": {"highway": "service"}}, {"type": "Feature", "geometry": {"type": "LineString", "coordinates": [[693313.1747440399, 4375271.227572131], [693313.1231308059, 4375246.425146207]]}, "properties": {"highway": "service"}}, {"type": "Feature", "geometry": {"type": "LineString", "coordinates": [[693313.1747440399, 4375271.227572131], [693326.53224381, 4375283.112127282]]}, "properties": {"highway": "service"}}, {"type": "Feature", "geometry": {"type": "LineString", "coordinates": [[693313.1747440399, 4375271.227572131], [693313.2330038217, 4375295.763605687], [693294.6566639356, 4375295.788333008]]}, "properties": {"highway": "service"}}, {"type": "Feature", "geometry": {"type": "LineString", "coordinates": [[693252.0678077248, 4375295.779927459], [693237.8195650767, 4375295.790689182]]}, "properties": {"highway": "service"}}, {"type": "Feature", "geometry": {"type": "LineString", "coordinates": [[693252.0678077248, 4375295.779927459], [693275.0579382061, 4375295.754253398]]}, "properties": {"highway": "service"}}, {"type": "Feature", "geometry": {"type": "LineString", "coordinates": [[693195.6626677292, 4375167.489548913], [693209.0296477559, 4375167.634402498]]}, "properties": {"highway": "residential"}}, {"type": "Feature", "geometry": {"type": "LineString", "coordinates": [[693362.99014584, 4375227.878784047], [693359.33519952, 4375227.809685919]]}, "properties": {"highway": "residential"}}, {"type": "Feature", "geometry": {"type": "LineString", "coordinates": [[693362.99014584, 4375227.878784047], [693422.0495576693, 4375228.832490498]]}, "properties": {"highway": "residential"}}, {"type": "Feature", "geometry": {"type": "LineString", "coordinates": [[693362.99014584, 4375227.878784047], [693362.9521916772, 4375235.596956326]]}, "properties": {"highway": "service"}}, {"type": "Feature", "geometry": {"type": "LineString", "coordinates": [[693432.9510979933, 4375248.097316068], [693433.0861164547, 4375266.448884372]]}, "properties": {"highway": "service"}}, {"type": "Feature", "geometry": {"type": "LineString", "coordinates": [[693432.9510979933, 4375248.097316068], [693432.877630922, 4375236.577879158]]}, "properties": {"highway": "service"}}, {"type": "Feature", "geometry": {"type": "LineString", "coordinates": [[693432.9510979933, 4375248.097316068], [693363.6068550015, 4375246.586680634]]}, "properties": {"highway": "service"}}, {"type": "Feature", "geometry": {"type": "LineString", "coordinates": [[693432.9510979933, 4375248.097316068], [693475.9957140206, 4375249.162117659], [693475.5456652902, 4375266.132948425]]}, "properties": {"highway": "service"}}, {"type": "Feature", "geometry": {"type": "LineString", "coordinates": [[693363.6068550015, 4375246.586680634], [693362.9521916772, 4375235.596956326]]}, "properties": {"highway": "service"}}, {"type": "Feature", "geometry": {"type": "LineString", "coordinates": [[693363.6068550015, 4375246.586680634], [693362.4366504526, 4375302.035156627]]}, "properties": {"highway": "service"}}, {"type": "Feature", "geometry": {"type": "LineString", "coordinates": [[693363.6068550015, 4375246.586680634], [693432.9510979933, 4375248.097316068]]}, "properties": {"highway": "service"}}, {"type": "Feature", "geometry": {"type": "LineString", "coordinates": [[693295.3621435055, 4375246.181471449], [693313.1231308059, 4375246.425146207]]}, "properties": {"highway": "service"}}, {"type": "Feature", "geometry": {"type": "LineString", "coordinates": [[693295.3621435055, 4375246.181471449], [693275.4814805632, 4375246.062610739]]}, "properties": {"highway": "service"}}, {"type": "Feature", "geometry": {"type": "LineString", "coordinates": [[693295.3621435055, 4375246.181471449], [693294.6566639356, 4375295.788333008]]}, "properties": {"highway": "service"}}, {"type": "Feature", "geometry": {"type": "LineString", "coordinates": [[693275.4814805632, 4375246.062610739], [693295.3621435055, 4375246.181471449]]}, "properties": {"highway": "service"}}, {"type": "Feature", "geometry": {"type": "LineString", "coordinates": [[693275.4814805632, 4375246.062610739], [693252.6262781443, 4375245.847315595]]}, "properties": {"highway": "service"}}, {"type": "Feature", "geometry": {"type": "LineString", "coordinates": [[693275.4814805632, 4375246.062610739], [693275.0579382061, 4375295.754253398]]}, "properties": {"highway": "service"}}, {"type": "Feature", "geometry": {"type": "LineString", "coordinates": [[693475.5456652902, 4375266.132948425], [693433.0861164547, 4375266.448884372]]}, "properties": {"highway": "service"}}, {"type": "Feature", "geometry": {"type": "LineString", "coordinates": [[693475.5456652902, 4375266.132948425], [693475.9957140206, 4375249.162117659], [693432.9510979933, 4375248.097316068]]}, "properties": {"highway": "service"}}, {"type": "Feature", "geometry": {"type": "LineString", "coordinates": [[693433.0861164547, 4375266.448884372], [693433.2349895849, 4375287.344223672]]}, "properties": {"highway": "service"}}, {"type": "Feature", "geometry": {"type": "LineString", "coordinates": [[693433.0861164547, 4375266.448884372], [693432.9510979933, 4375248.097316068]]}, "properties": {"highway": "service"}}, {"type": "Feature", "geometry": {"type": "LineString", "coordinates": [[693433.0861164547, 4375266.448884372], [693475.5456652902, 4375266.132948425]]}, "properties": {"highway": "service"}}, {"type": "Feature", "geometry": {"type": "LineString", "coordinates": [[693350.3182899179, 4375256.395067143], [693350.1293028158, 4375281.524689848]]}, "properties": {"highway": "service"}}, {"type": "Feature", "geometry": {"type": "LineString", "coordinates": [[693475.4117864304, 4375286.632494216], [693433.2349895849, 4375287.344223672]]}, "properties": {"highway": "service"}}, {"type": "Feature", "geometry": {"type": "LineString", "coordinates": [[693433.2349895849, 4375287.344223672], [693433.2513453178, 4375289.788096656]]}, "properties": {"highway": "service"}}, {"type": "Feature", "geometry": {"type": "LineString", "coordinates": [[693433.2349895849, 4375287.344223672], [693433.0861164547, 4375266.448884372]]}, "properties": {"highway": "service"}}, {"type": "Feature", "geometry": {"type": "LineString", "coordinates": [[693433.2349895849, 4375287.344223672], [693475.4117864304, 4375286.632494216]]}, "properties": {"highway": "service"}}, {"type": "Feature", "geometry": {"type": "LineString", "coordinates": [[693474.9478506866, 4375305.191231074], [693433.3622323477, 4375305.662279018]]}, "properties": {"highway": "service"}}, {"type": "Feature", "geometry": {"type": "LineString", "coordinates": [[693294.6566639356, 4375295.788333008], [693275.0579382061, 4375295.754253398]]}, "properties": {"highway": "service"}}, {"type": "Feature", "geometry": {"type": "LineString", "coordinates": [[693294.6566639356, 4375295.788333008], [693295.3621435055, 4375246.181471449]]}, "properties": {"highway": "service"}}, {"type": "Feature", "geometry": {"type": "LineString", "coordinates": [[693294.6566639356, 4375295.788333008], [693313.2330038217, 4375295.763605687], [693313.1747440399, 4375271.227572131]]}, "properties": {"highway": "service"}}, {"type": "Feature", "geometry": {"type": "LineString", "coordinates": [[693275.0579382061, 4375295.754253398], [693252.0678077248, 4375295.779927459]]}, "properties": {"highway": "service"}}, {"type": "Feature", "geometry": {"type": "LineString", "coordinates": [[693275.0579382061, 4375295.754253398], [693294.6566639356, 4375295.788333008]]}, "properties": {"highway": "service"}}, {"type": "Feature", "geometry": {"type": "LineString", "coordinates": [[693275.0579382061, 4375295.754253398], [693275.4814805632, 4375246.062610739]]}, "properties": {"highway": "service"}}, {"type": "Feature", "geometry": {"type": "LineString", "coordinates": [[693433.3622323477, 4375305.662279018], [693433.445673229, 4375317.470739747]]}, "properties": {"highway": "service"}}, {"type": "Feature", "geometry": {"type": "LineString", "coordinates": [[693433.3622323477, 4375305.662279018], [693433.2513453178, 4375289.788096656]]}, "properties": {"highway": "service"}}, {"type": "Feature", "geometry": {"type": "LineString", "coordinates": [[693433.3622323477, 4375305.662279018], [693474.9478506866, 4375305.191231074]]}, "properties": {"highway": "service"}}, {"type": "Feature", "geometry": {"type": "LineString", "coordinates": [[693362.4366504526, 4375302.035156627], [693363.6068550015, 4375246.586680634]]}, "properties": {"highway": "service"}}, {"type": "Feature", "geometry": {"type": "LineString", "coordinates": [[693362.4366504526, 4375302.035156627], [693362.3702830152, 4375342.228464516]]}, "properties": {"highway": "service"}}, {"type": "Feature", "geometry": {"type": "LineString", "coordinates": [[693362.4366504526, 4375302.035156627], [693347.7751246991, 4375302.057603616], [693342.5239320577, 4375300.104930732], [693326.53224381, 4375283.112127282]]}, "properties": {"highway": "service"}}, {"type": "Feature", "geometry": {"type": "LineString", "coordinates": [[693474.9449465733, 4375319.074483032], [693433.4642473294, 4375319.825815066]]}, "properties": {"highway": "service"}}, {"type": "Feature", "geometry": {"type": "LineString", "coordinates": [[693433.4642473294, 4375319.825815066], [693433.5892644797, 4375337.888362801]]}, "properties": {"highway": "service"}}, {"type": "Feature", "geometry": {"type": "LineString", "coordinates": [[693433.4642473294, 4375319.825815066], [693433.445673229, 4375317.470739747]]}, "properties": {"highway": "service"}}, {"type": "Feature", "geometry": {"type": "LineString", "coordinates": [[693433.4642473294, 4375319.825815066], [693474.9449465733, 4375319.074483032]]}, "properties": {"highway": "service"}}, {"type": "Feature", "geometry": {"type": "LineString", "coordinates": [[693433.5892644797, 4375337.888362801], [693433.4642473294, 4375319.825815066]]}, "properties": {"highway": "service"}}, {"type": "Feature", "geometry": {"type": "LineString", "coordinates": [[693436.068445422, 4375044.523637529], [693435.0484717666, 4375078.106873912]]}, "properties": {"highway": "service"}}, {"type": "Feature", "geometry": {"type": "LineString", "coordinates": [[693435.0484717666, 4375078.106873912], [693436.068445422, 4375044.523637529]]}, "properties": {"highway": "service"}}, {"type": "Feature", "geometry": {"type": "LineString", "coordinates": [[693435.0484717666, 4375078.106873912], [693435.699702112, 4375107.478030049], [693493.8178202445, 4375106.887090296]]}, "properties": {"highway": "service"}}, {"type": "Feature", "geometry": {"type": "LineString", "coordinates": [[693360.7528798982, 4375076.006140007], [693360.8795373713, 4375063.014529648]]}, "properties": {"highway": "residential"}}, {"type": "Feature", "geometry": {"type": "LineString", "coordinates": [[693360.7528798982, 4375076.006140007], [693360.4305623941, 4375110.950700673]]}, "properties": {"highway": "residential"}}, {"type": "Feature", "geometry": {"type": "LineString", "coordinates": [[693360.7528798982, 4375076.006140007], [693366.5817147263, 4375076.196183026]]}, "properties": {"highway": "service"}}, {"type": "Feature", "geometry": {"type": "LineString", "coordinates": [[693360.0502993328, 4375150.969553073], [693353.4529133654, 4375150.89359174]]}, "properties": {"highway": "service"}}, {"type": "Feature", "geometry": {"type": "LineString", "coordinates": [[693360.0502993328, 4375150.969553073], [693360.1182091547, 4375144.462754874]]}, "properties": {"highway": "residential"}}, {"type": "Feature", "geometry": {"type": "LineString", "coordinates": [[693360.0502993328, 4375150.969553073], [693359.4141967192, 4375219.481673692], [693359.33519952, 4375227.809685919]]}, "properties": {"highway": "residential"}}, {"type": "Feature", "geometry": {"type": "LineString", "coordinates": [[693360.8795373713, 4375063.014529648], [693360.7528798982, 4375076.006140007]]}, "properties": {"highway": "residential"}}, {"type": "Feature", "geometry": {"type": "LineString", "coordinates": [[693360.4305623941, 4375110.950700673], [693360.7528798982, 4375076.006140007]]}, "properties": {"highway": "residential"}}, {"type": "Feature", "geometry": {"type": "LineString", "coordinates": [[693360.4305623941, 4375110.950700673], [693360.1182091547, 4375144.462754874]]}, "properties": {"highway": "residential"}}, {"type": "Feature", "geometry": {"type": "LineString", "coordinates": [[693360.4305623941, 4375110.950700673], [693353.4642301442, 4375110.832204512]]}, "properties": {"highway": "service"}}, {"type": "Feature", "geometry": {"type": "LineString", "coordinates": [[693308.0833556183, 4375109.920808892], [693353.4642301442, 4375110.832204512]]}, "properties": {"highway": "service"}}, {"type": "Feature", "geometry": {"type": "LineString", "coordinates": [[693224.6220321243, 4375370.542062475], [693224.6654634395, 4375365.356346558], [693224.8806299674, 4375300.909898281]]}, "properties": {"highway": "footway"}}, {"type": "Feature", "geometry": {"type": "LineString", "coordinates": [[693216.2941729382, 4375214.396974089], [693216.4530359008, 4375167.708648629]]}, "properties": {"highway": "residential"}}, {"type": "Feature", "geometry": {"type": "LineString", "coordinates": [[693216.2941729382, 4375214.396974089], [693225.4971451708, 4375214.526764304]]}, "properties": {"highway": "footway"}}, {"type": "Feature", "geometry": {"type": "LineString", "coordinates": [[693216.2941729382, 4375214.396974089], [693209.000362369, 4375214.303746754]]}, "properties": {"highway": "footway"}}, {"type": "Feature", "geometry": {"type": "LineString", "coordinates": [[693216.2941729382, 4375214.396974089], [693216.2724374899, 4375221.471357965], [693216.2578373626, 4375225.502702022]]}, "properties": {"highway": "residential"}}, {"type": "Feature", "geometry": {"type": "LineString", "coordinates": [[693488.2904549658, 4375229.899537119], [693437.9605189913, 4375229.0857486855]]}, "properties": {"highway": "residential"}}, {"type": "Feature", "geometry": {"type": "LineString", "coordinates": [[693438.0032210606, 4375147.508442493], [693483.0993187651, 4375148.446813875]]}, "properties": {"highway": "service"}}, {"type": "Feature", "geometry": {"type": "LineString", "coordinates": [[693437.9605189913, 4375229.0857486855], [693432.8260627948, 4375229.001852063]]}, "properties": {"highway": "residential"}}, {"type": "Feature", "geometry": {"type": "LineString", "coordinates": [[693437.9605189913, 4375229.0857486855], [693488.2904549658, 4375229.899537119]]}, "properties": {"highway": "residential"}}, {"type": "Feature", "geometry": {"type": "LineString", "coordinates": [[693437.9605189913, 4375229.0857486855], [693437.961659983, 4375220.433693207]]}, "properties": {"highway": "service"}}, {"type": "Feature", "geometry": {"type": "LineString", "coordinates": [[693326.53224381, 4375283.112127282], [693313.1747440399, 4375271.227572131]]}, "properties": {"highway": "service"}}, {"type": "Feature", "geometry": {"type": "LineString", "coordinates": [[693326.53224381, 4375283.112127282], [693330.9704033955, 4375277.314253247]]}, "properties": {"highway": "service"}}, {"type": "Feature", "geometry": {"type": "LineString", "coordinates": [[693326.53224381, 4375283.112127282], [693342.5239320577, 4375300.104930732], [693347.7751246991, 4375302.057603616], [693362.4366504526, 4375302.035156627]]}, "properties": {"highway": "service"}}, {"type": "Feature", "geometry": {"type": "LineString", "coordinates": [[693330.6958820239, 4375256.615714296], [693330.9704033955, 4375277.314253247]]}, "properties": {"highway": "service"}}, {"type": "Feature", "geometry": {"type": "LineString", "coordinates": [[693330.9704033955, 4375277.314253247], [693330.6958820239, 4375256.615714296]]}, "properties": {"highway": "service"}}, {"type": "Feature", "geometry": {"type": "LineString", "coordinates": [[693330.9704033955, 4375277.314253247], [693326.53224381, 4375283.112127282]]}, "properties": {"highway": "service"}}, {"type": "Feature", "geometry": {"type": "LineString", "coordinates": [[693330.9704033955, 4375277.314253247], [693339.2968456994, 4375281.187441361], [693350.1293028158, 4375281.524689848]]}, "properties": {"highway": "service"}}, {"type": "Feature", "geometry": {"type": "LineString", "coordinates": [[693350.0603073563, 4375291.518949514], [693350.1293028158, 4375281.524689848]]}, "properties": {"highway": "service"}}, {"type": "Feature", "geometry": {"type": "LineString", "coordinates": [[693260.3956609069, 4375142.127605023], [693277.8545439745, 4375142.419174103]]}, "properties": {"highway": "service"}}, {"type": "Feature", "geometry": {"type": "LineString", "coordinates": [[693260.3956609069, 4375142.127605023], [693251.3539247889, 4375136.914964888]]}, "properties": {"highway": "service"}}, {"type": "Feature", "geometry": {"type": "LineString", "coordinates": [[693260.3956609069, 4375142.127605023], [693260.9671424013, 4375105.456652197], [693261.8419434334, 4375103.157208116], [693264.1594013186, 4375101.660144247], [693275.8977424224, 4375101.908826398], [693278.2926424943, 4375103.168146644]]}, "properties": {"highway": "service"}}, {"type": "Feature", "geometry": {"type": "LineString", "coordinates": [[693178.1098063492, 4375068.580051081], [693209.330115678, 4375067.704424509]]}, "properties": {"highway": "service"}}, {"type": "Feature", "geometry": {"type": "LineString", "coordinates": [[693216.7951987, 4375067.490933419], [693216.8962231239, 4375038.627319169]]}, "properties": {"highway": "residential"}}, {"type": "Feature", "geometry": {"type": "LineString", "coordinates": [[693216.7951987, 4375067.490933419], [693209.330115678, 4375067.704424509]]}, "properties": {"highway": "service"}}, {"type": "Feature", "geometry": {"type": "LineString", "coordinates": [[693216.7951987, 4375067.490933419], [693216.7230870076, 4375088.647267831], [693216.5683739696, 4375133.447562941]]}, "properties": {"highway": "residential"}}, {"type": "Feature", "geometry": {"type": "LineString", "coordinates": [[693216.5683739696, 4375133.447562941], [693216.5394579725, 4375141.49915034]]}, "properties": {"highway": "residential"}}, {"type": "Feature", "geometry": {"type": "LineString", "coordinates": [[693216.5683739696, 4375133.447562941], [693216.7230870076, 4375088.647267831], [693216.7951987, 4375067.490933419]]}, "properties": {"highway": "residential"}}, {"type": "Feature", "geometry": {"type": "LineString", "coordinates": [[693278.2926424943, 4375103.168146644], [693275.8977424224, 4375101.908826398], [693264.1594013186, 4375101.660144247], [693261.8419434334, 4375103.157208116], [693260.9671424013, 4375105.456652197], [693260.3956609069, 4375142.127605023]]}, "properties": {"highway": "service"}}, {"type": "Feature", "geometry": {"type": "LineString", "coordinates": [[693278.2926424943, 4375103.168146644], [693278.5772689885, 4375105.207768938], [693277.900271985, 4375140.243414773]]}, "properties": {"highway": "service"}}, {"type": "Feature", "geometry": {"type": "LineString", "coordinates": [[693278.2926424943, 4375103.168146644], [693283.8168424307, 4375100.396155603], [693284.0124960216, 4375090.49391985]]}, "properties": {"highway": "service"}}, {"type": "Feature", "geometry": {"type": "LineString", "coordinates": [[693278.2414891475, 4375189.976360187], [693278.1030685265, 4375173.46843691]]}, "properties": {"highway": "service"}}, {"type": "Feature", "geometry": {"type": "LineString", "coordinates": [[693278.2414891475, 4375189.976360187], [693279.2739946874, 4375196.866047506]]}, "properties": {"highway": "service"}}, {"type": "Feature", "geometry": {"type": "LineString", "coordinates": [[693278.2414891475, 4375189.976360187], [693273.7927200209, 4375192.064381598], [693269.6915513577, 4375196.771145529]]}, "properties": {"highway": "footway"}}, {"type": "Feature", "geometry": {"type": "LineString", "coordinates": [[693350.1293028158, 4375281.524689848], [693350.3182899179, 4375256.395067143]]}, "properties": {"highway": "service"}}, {"type": "Feature", "geometry": {"type": "LineString", "coordinates": [[693350.1293028158, 4375281.524689848], [693350.0603073563, 4375291.518949514]]}, "properties": {"highway": "service"}}, {"type": "Feature", "geometry": {"type": "LineString", "coordinates": [[693350.1293028158, 4375281.524689848], [693339.2968456994, 4375281.187441361], [693330.9704033955, 4375277.314253247]]}, "properties": {"highway": "service"}}, {"type": "Feature", "geometry": {"type": "LineString", "coordinates": [[693483.0993187651, 4375148.446813875], [693438.0032210606, 4375147.508442493]]}, "properties": {"highway": "service"}}, {"type": "Feature", "geometry": {"type": "LineString", "coordinates": [[693395.7865969284, 4375066.452278948], [693395.6948217757, 4375077.012408061]]}, "properties": {"highway": "footway"}}, {"type": "Feature", "geometry": {"type": "LineString", "coordinates": [[693395.6948217757, 4375077.012408061], [693435.0484717666, 4375078.106873912]]}, "properties": {"highway": "service"}}, {"type": "Feature", "geometry": {"type": "LineString", "coordinates": [[693395.6948217757, 4375077.012408061], [693395.7865969284, 4375066.452278948]]}, "properties": {"highway": "footway"}}, {"type": "Feature", "geometry": {"type": "LineString", "coordinates": [[693374.079968244, 4375057.09126744], [693374.0627840997, 4375059.156674243], [693373.5360661349, 4375063.019734499], [693372.3386393585, 4375065.833120292], [693370.8946181117, 4375067.8406670755], [693368.7332992877, 4375070.318986439], [693367.0413151442, 4375073.986335888], [693366.5817147263, 4375076.196183026]]}, "properties": {"highway": "footway"}}, {"type": "Feature", "geometry": {"type": "LineString", "coordinates": [[693380.6474789525, 4375057.333094686], [693379.3804268357, 4375060.178059988], [693378.7383093631, 4375062.805399174], [693378.691726507, 4375065.703070043], [693379.1508096594, 4375069.368626436], [693381.9121545593, 4375076.623616917]]}, "properties": {"highway": "footway"}}, {"type": "Feature", "geometry": {"type": "LineString", "coordinates": [[693381.9121545593, 4375076.623616917], [693395.6948217757, 4375077.012408061]]}, "properties": {"highway": "service"}}, {"type": "Feature", "geometry": {"type": "LineString", "coordinates": [[693381.9121545593, 4375076.623616917], [693379.1508096594, 4375069.368626436], [693378.691726507, 4375065.703070043], [693378.7383093631, 4375062.805399174], [693379.3804268357, 4375060.178059988], [693380.6474789525, 4375057.333094686]]}, "properties": {"highway": "footway"}}, {"type": "Feature", "geometry": {"type": "LineString", "coordinates": [[693328.8846482604, 4375081.463122428], [693328.9131753932, 4375077.909709453]]}, "properties": {"highway": "footway"}}, {"type": "Feature", "geometry": {"type": "LineString", "coordinates": [[693328.9131753932, 4375077.909709453], [693328.8846482604, 4375081.463122428]]}, "properties": {"highway": "footway"}}, {"type": "Feature", "geometry": {"type": "LineString", "coordinates": [[693328.9131753932, 4375077.909709453], [693316.8624679387, 4375077.764213942]]}, "properties": {"highway": "footway"}}, {"type": "Feature", "geometry": {"type": "LineString", "coordinates": [[693328.9131753932, 4375077.909709453], [693353.470325364, 4375078.212141331]]}, "properties": {"highway": "footway"}}, {"type": "Feature", "geometry": {"type": "LineString", "coordinates": [[693316.8624679387, 4375077.764213942], [693310.3426872966, 4375077.679124786]]}, "properties": {"highway": "footway"}}, {"type": "Feature", "geometry": {"type": "LineString", "coordinates": [[693316.8624679387, 4375077.764213942], [693328.9131753932, 4375077.909709453]]}, "properties": {"highway": "footway"}}, {"type": "Feature", "geometry": {"type": "LineString", "coordinates": [[693316.8624679387, 4375077.764213942], [693316.9014910668, 4375071.378869969], [693310.4360696665, 4375071.184072338]]}, "properties": {"highway": "footway"}}, {"type": "Feature", "geometry": {"type": "LineString", "coordinates": [[693310.4360696665, 4375071.184072338], [693310.3426872966, 4375077.679124786]]}, "properties": {"highway": "footway"}}, {"type": "Feature", "geometry": {"type": "LineString", "coordinates": [[693310.4360696665, 4375071.184072338], [693310.5114426622, 4375066.099113491]]}, "properties": {"highway": "footway"}}, {"type": "Feature", "geometry": {"type": "LineString", "coordinates": [[693310.4360696665, 4375071.184072338], [693316.9014910668, 4375071.378869969], [693316.8624679387, 4375077.764213942]]}, "properties": {"highway": "footway"}}, {"type": "Feature", "geometry": {"type": "LineString", "coordinates": [[693310.5114426622, 4375066.099113491], [693310.4360696665, 4375071.184072338]]}, "properties": {"highway": "footway"}}, {"type": "Feature", "geometry": {"type": "LineString", "coordinates": [[693310.3426872966, 4375077.679124786], [693316.8624679387, 4375077.764213942]]}, "properties": {"highway": "footway"}}, {"type": "Feature", "geometry": {"type": "LineString", "coordinates": [[693310.3426872966, 4375077.679124786], [693310.4360696665, 4375071.184072338]]}, "properties": {"highway": "footway"}}, {"type": "Feature", "geometry": {"type": "LineString", "coordinates": [[693310.3426872966, 4375077.679124786], [693308.8459532314, 4375077.663956962], [693308.6995480362, 4375081.114465667]]}, "properties": {"highway": "footway"}}, {"type": "Feature", "geometry": {"type": "LineString", "coordinates": [[693308.6995480362, 4375081.114465667], [693308.8459532314, 4375077.663956962], [693310.3426872966, 4375077.679124786]]}, "properties": {"highway": "footway"}}, {"type": "Feature", "geometry": {"type": "LineString", "coordinates": [[693287.1080285057, 4375058.52856993], [693287.150089487, 4375068.558914605], [693284.037363182, 4375069.5141011225], [693283.6590312553, 4375085.698132015]]}, "properties": {"highway": "footway"}}, {"type": "Feature", "geometry": {"type": "LineString", "coordinates": [[693283.6590312553, 4375085.698132015], [693286.8153171679, 4375085.754737616]]}, "properties": {"highway": "footway"}}, {"type": "Feature", "geometry": {"type": "LineString", "coordinates": [[693283.6590312553, 4375085.698132015], [693281.2855063891, 4375085.649967759]]}, "properties": {"highway": "footway"}}, {"type": "Feature", "geometry": {"type": "LineString", "coordinates": [[693283.6590312553, 4375085.698132015], [693284.0318925981, 4375089.372633735], [693284.0124960216, 4375090.49391985]]}, "properties": {"highway": "['footway', 'service']"}}, {"type": "Feature", "geometry": {"type": "LineString", "coordinates": [[693283.6590312553, 4375085.698132015], [693284.037363182, 4375069.5141011225], [693287.150089487, 4375068.558914605], [693287.1080285057, 4375058.52856993]]}, "properties": {"highway": "footway"}}, {"type": "Feature", "geometry": {"type": "LineString", "coordinates": [[693286.8153171679, 4375085.754737616], [693283.6590312553, 4375085.698132015]]}, "properties": {"highway": "footway"}}, {"type": "Feature", "geometry": {"type": "LineString", "coordinates": [[693281.2855063891, 4375085.649967759], [693283.6590312553, 4375085.698132015]]}, "properties": {"highway": "footway"}}, {"type": "Feature", "geometry": {"type": "LineString", "coordinates": [[693249.3197861528, 4375092.604232618], [693251.4944295085, 4375092.691848133]]}, "properties": {"highway": "footway"}}, {"type": "Feature", "geometry": {"type": "LineString", "coordinates": [[693251.4944295085, 4375092.691848133], [693249.3197861528, 4375092.604232618]]}, "properties": {"highway": "footway"}}, {"type": "Feature", "geometry": {"type": "LineString", "coordinates": [[693251.4944295085, 4375092.691848133], [693251.4927516233, 4375092.069834643]]}, "properties": {"highway": "footway"}}, {"type": "Feature", "geometry": {"type": "LineString", "coordinates": [[693251.4944295085, 4375092.691848133], [693251.3863978258, 4375124.931715015]]}, "properties": {"highway": "footway"}}, {"type": "Feature", "geometry": {"type": "LineString", "coordinates": [[693249.0489429185, 4375124.817820671], [693251.3863978258, 4375124.931715015]]}, "properties": {"highway": "footway"}}, {"type": "Feature", "geometry": {"type": "LineString", "coordinates": [[693251.3863978258, 4375124.931715015], [693249.0489429185, 4375124.817820671]]}, "properties": {"highway": "footway"}}, {"type": "Feature", "geometry": {"type": "LineString", "coordinates": [[693251.3863978258, 4375124.931715015], [693251.4944295085, 4375092.691848133]]}, "properties": {"highway": "footway"}}, {"type": "Feature", "geometry": {"type": "LineString", "coordinates": [[693251.3863978258, 4375124.931715015], [693251.3539247889, 4375136.914964888]]}, "properties": {"highway": "footway"}}, {"type": "Feature", "geometry": {"type": "LineString", "coordinates": [[693262.2709787973, 4375086.319152986], [693262.2464114801, 4375092.127310471]]}, "properties": {"highway": "footway"}}, {"type": "Feature", "geometry": {"type": "LineString", "coordinates": [[693262.2464114801, 4375092.127310471], [693262.2709787973, 4375086.319152986]]}, "properties": {"highway": "footway"}}, {"type": "Feature", "geometry": {"type": "LineString", "coordinates": [[693262.2464114801, 4375092.127310471], [693251.4927516233, 4375092.069834643]]}, "properties": {"highway": "footway"}}, {"type": "Feature", "geometry": {"type": "LineString", "coordinates": [[693262.2464114801, 4375092.127310471], [693274.298755367, 4375092.206123484], [693274.3037117268, 4375090.284798936]]}, "properties": {"highway": "footway"}}, {"type": "Feature", "geometry": {"type": "LineString", "coordinates": [[693284.0124960216, 4375090.49391985], [693274.3037117268, 4375090.284798936]]}, "properties": {"highway": "footway"}}, {"type": "Feature", "geometry": {"type": "LineString", "coordinates": [[693284.0124960216, 4375090.49391985], [693284.0318925981, 4375089.372633735], [693283.6590312553, 4375085.698132015]]}, "properties": {"highway": "['footway', 'service']"}}, {"type": "Feature", "geometry": {"type": "LineString", "coordinates": [[693284.0124960216, 4375090.49391985], [693283.8168424307, 4375100.396155603], [693278.2926424943, 4375103.168146644]]}, "properties": {"highway": "service"}}, {"type": "Feature", "geometry": {"type": "LineString", "coordinates": [[693274.3037117268, 4375090.284798936], [693284.0124960216, 4375090.49391985]]}, "properties": {"highway": "footway"}}, {"type": "Feature", "geometry": {"type": "LineString", "coordinates": [[693274.3037117268, 4375090.284798936], [693274.3227773872, 4375086.420165138]]}, "properties": {"highway": "footway"}}, {"type": "Feature", "geometry": {"type": "LineString", "coordinates": [[693274.3037117268, 4375090.284798936], [693274.298755367, 4375092.206123484], [693262.2464114801, 4375092.127310471]]}, "properties": {"highway": "footway"}}, {"type": "Feature", "geometry": {"type": "LineString", "coordinates": [[693274.3227773872, 4375086.420165138], [693274.3037117268, 4375090.284798936]]}, "properties": {"highway": "footway"}}, {"type": "Feature", "geometry": {"type": "LineString", "coordinates": [[693251.4927516233, 4375092.069834643], [693262.2464114801, 4375092.127310471]]}, "properties": {"highway": "footway"}}, {"type": "Feature", "geometry": {"type": "LineString", "coordinates": [[693251.4927516233, 4375092.069834643], [693251.5095435625, 4375086.228163582]]}, "properties": {"highway": "footway"}}, {"type": "Feature", "geometry": {"type": "LineString", "coordinates": [[693251.4927516233, 4375092.069834643], [693251.4944295085, 4375092.691848133]]}, "properties": {"highway": "footway"}}, {"type": "Feature", "geometry": {"type": "LineString", "coordinates": [[693251.5095435625, 4375086.228163582], [693251.4927516233, 4375092.069834643]]}, "properties": {"highway": "footway"}}, {"type": "Feature", "geometry": {"type": "LineString", "coordinates": [[693251.3539247889, 4375136.914964888], [693251.3863978258, 4375124.931715015]]}, "properties": {"highway": "footway"}}, {"type": "Feature", "geometry": {"type": "LineString", "coordinates": [[693251.3539247889, 4375136.914964888], [693246.2814828501, 4375134.000551839], [693225.3492763783, 4375133.600130602]]}, "properties": {"highway": "service"}}, {"type": "Feature", "geometry": {"type": "LineString", "coordinates": [[693277.900271985, 4375140.243414773], [693277.8545439745, 4375142.419174103]]}, "properties": {"highway": "service"}}, {"type": "Feature", "geometry": {"type": "LineString", "coordinates": [[693277.900271985, 4375140.243414773], [693278.5772689885, 4375105.207768938], [693278.2926424943, 4375103.168146644]]}, "properties": {"highway": "service"}}, {"type": "Feature", "geometry": {"type": "LineString", "coordinates": [[693277.900271985, 4375140.243414773], [693287.7526706003, 4375140.21178444], [693295.2630634946, 4375150.239827096]]}, "properties": {"highway": "footway"}}, {"type": "Feature", "geometry": {"type": "LineString", "coordinates": [[693341.4852343842, 4375120.562265544], [693341.2994419464, 4375125.588934338]]}, "properties": {"highway": "footway"}}, {"type": "Feature", "geometry": {"type": "LineString", "coordinates": [[693341.4852343842, 4375120.562265544], [693338.3633564308, 4375120.506496278]]}, "properties": {"highway": "footway"}}, {"type": "Feature", "geometry": {"type": "LineString", "coordinates": [[693341.4852343842, 4375120.562265544], [693353.457102562, 4375120.7613671785]]}, "properties": {"highway": "footway"}}, {"type": "Feature", "geometry": {"type": "LineString", "coordinates": [[693341.2994419464, 4375125.588934338], [693341.4852343842, 4375120.562265544]]}, "properties": {"highway": "footway"}}, {"type": "Feature", "geometry": {"type": "LineString", "coordinates": [[693338.3633564308, 4375120.506496278], [693338.2299898992, 4375125.501154648]]}, "properties": {"highway": "footway"}}, {"type": "Feature", "geometry": {"type": "LineString", "coordinates": [[693338.3633564308, 4375120.506496278], [693331.775375893, 4375120.397470009]]}, "properties": {"highway": "footway"}}, {"type": "Feature", "geometry": {"type": "LineString", "coordinates": [[693338.3633564308, 4375120.506496278], [693341.4852343842, 4375120.562265544]]}, "properties": {"highway": "footway"}}, {"type": "Feature", "geometry": {"type": "LineString", "coordinates": [[693338.2299898992, 4375125.501154648], [693338.3633564308, 4375120.506496278]]}, "properties": {"highway": "footway"}}, {"type": "Feature", "geometry": {"type": "LineString", "coordinates": [[693331.775375893, 4375120.397470009], [693331.6009609774, 4375125.313356404]]}, "properties": {"highway": "footway"}}, {"type": "Feature", "geometry": {"type": "LineString", "coordinates": [[693331.775375893, 4375120.397470009], [693328.7394849155, 4375120.343852435]]}, "properties": {"highway": "footway"}}, {"type": "Feature", "geometry": {"type": "LineString", "coordinates": [[693331.775375893, 4375120.397470009], [693338.3633564308, 4375120.506496278]]}, "properties": {"highway": "footway"}}, {"type": "Feature", "geometry": {"type": "LineString", "coordinates": [[693331.6009609774, 4375125.313356404], [693331.775375893, 4375120.397470009]]}, "properties": {"highway": "footway"}}, {"type": "Feature", "geometry": {"type": "LineString", "coordinates": [[693328.7394849155, 4375120.343852435], [693328.5573049926, 4375125.226224898]]}, "properties": {"highway": "footway"}}, {"type": "Feature", "geometry": {"type": "LineString", "coordinates": [[693328.7394849155, 4375120.343852435], [693322.0311229962, 4375120.231827582]]}, "properties": {"highway": "footway"}}, {"type": "Feature", "geometry": {"type": "LineString", "coordinates": [[693328.7394849155, 4375120.343852435], [693331.775375893, 4375120.397470009]]}, "properties": {"highway": "footway"}}, {"type": "Feature", "geometry": {"type": "LineString", "coordinates": [[693328.5573049926, 4375125.226224898], [693328.7394849155, 4375120.343852435]]}, "properties": {"highway": "footway"}}, {"type": "Feature", "geometry": {"type": "LineString", "coordinates": [[693322.0311229962, 4375120.231827582], [693321.9110787492, 4375125.038005412]]}, "properties": {"highway": "footway"}}, {"type": "Feature", "geometry": {"type": "LineString", "coordinates": [[693322.0311229962, 4375120.231827582], [693318.9436400025, 4375120.176925235]]}, "properties": {"highway": "footway"}}, {"type": "Feature", "geometry": {"type": "LineString", "coordinates": [[693322.0311229962, 4375120.231827582], [693328.7394849155, 4375120.343852435]]}, "properties": {"highway": "footway"}}, {"type": "Feature", "geometry": {"type": "LineString", "coordinates": [[693321.9110787492, 4375125.038005412], [693322.0311229962, 4375120.231827582]]}, "properties": {"highway": "footway"}}, {"type": "Feature", "geometry": {"type": "LineString", "coordinates": [[693318.9436400025, 4375120.176925235], [693318.7814359696, 4375124.948730056]]}, "properties": {"highway": "footway"}}, {"type": "Feature", "geometry": {"type": "LineString", "coordinates": [[693318.9436400025, 4375120.176925235], [693312.2524756943, 4375120.0653383965]]}, "properties": {"highway": "footway"}}, {"type": "Feature", "geometry": {"type": "LineString", "coordinates": [[693318.9436400025, 4375120.176925235], [693322.0311229962, 4375120.231827582]]}, "properties": {"highway": "footway"}}, {"type": "Feature", "geometry": {"type": "LineString", "coordinates": [[693318.7814359696, 4375124.948730056], [693318.9436400025, 4375120.176925235]]}, "properties": {"highway": "footway"}}, {"type": "Feature", "geometry": {"type": "LineString", "coordinates": [[693312.2524756943, 4375120.0653383965], [693312.2297952647, 4375124.762881328]]}, "properties": {"highway": "footway"}}, {"type": "Feature", "geometry": {"type": "LineString", "coordinates": [[693312.2524756943, 4375120.0653383965], [693309.1991103322, 4375120.022398693]]}, "properties": {"highway": "footway"}}, {"type": "Feature", "geometry": {"type": "LineString", "coordinates": [[693312.2524756943, 4375120.0653383965], [693318.9436400025, 4375120.176925235]]}, "properties": {"highway": "footway"}}, {"type": "Feature", "geometry": {"type": "LineString", "coordinates": [[693312.2297952647, 4375124.762881328], [693312.2524756943, 4375120.0653383965]]}, "properties": {"highway": "footway"}}, {"type": "Feature", "geometry": {"type": "LineString", "coordinates": [[693309.1991103322, 4375120.022398693], [693309.082955141, 4375124.673180381]]}, "properties": {"highway": "footway"}}, {"type": "Feature", "geometry": {"type": "LineString", "coordinates": [[693309.1991103322, 4375120.022398693], [693302.508223481, 4375119.899720565]]}, "properties": {"highway": "footway"}}, {"type": "Feature", "geometry": {"type": "LineString", "coordinates": [[693309.1991103322, 4375120.022398693], [693312.2524756943, 4375120.0653383965]]}, "properties": {"highway": "footway"}}, {"type": "Feature", "geometry": {"type": "LineString", "coordinates": [[693309.082955141, 4375124.673180381], [693309.1991103322, 4375120.022398693]]}, "properties": {"highway": "footway"}}, {"type": "Feature", "geometry": {"type": "LineString", "coordinates": [[693302.508223481, 4375119.899720565], [693302.3851368957, 4375124.48368915]]}, "properties": {"highway": "footway"}}, {"type": "Feature", "geometry": {"type": "LineString", "coordinates": [[693302.508223481, 4375119.899720565], [693309.1991103322, 4375120.022398693]]}, "properties": {"highway": "footway"}}, {"type": "Feature", "geometry": {"type": "LineString", "coordinates": [[693302.508223481, 4375119.899720565], [693299.3774700607, 4375119.854852004], [693299.2812901967, 4375124.395065938]]}, "properties": {"highway": "footway"}}, {"type": "Feature", "geometry": {"type": "LineString", "coordinates": [[693302.3851368957, 4375124.48368915], [693302.508223481, 4375119.899720565]]}, "properties": {"highway": "footway"}}, {"type": "Feature", "geometry": {"type": "LineString", "coordinates": [[693299.2812901967, 4375124.395065938], [693299.3774700607, 4375119.854852004], [693302.508223481, 4375119.899720565]]}, "properties": {"highway": "footway"}}, {"type": "Feature", "geometry": {"type": "LineString", "coordinates": [[693353.457102562, 4375120.7613671785], [693341.4852343842, 4375120.562265544]]}, "properties": {"highway": "footway"}}, {"type": "Feature", "geometry": {"type": "LineString", "coordinates": [[693353.457102562, 4375120.7613671785], [693353.4529133654, 4375150.89359174]]}, "properties": {"highway": "footway"}}, {"type": "Feature", "geometry": {"type": "LineString", "coordinates": [[693353.457102562, 4375120.7613671785], [693353.4642301442, 4375110.832204512]]}, "properties": {"highway": "footway"}}, {"type": "Feature", "geometry": {"type": "LineString", "coordinates": [[693305.910469671, 4375194.1659508], [693305.989186811, 4375150.3633207185]]}, "properties": {"highway": "footway"}}, {"type": "Feature", "geometry": {"type": "LineString", "coordinates": [[693305.910469671, 4375194.1659508], [693315.9766582744, 4375194.184126631]]}, "properties": {"highway": "footway"}}, {"type": "Feature", "geometry": {"type": "LineString", "coordinates": [[693305.910469671, 4375194.1659508], [693303.7422353989, 4375194.16733143]]}, "properties": {"highway": "footway"}}, {"type": "Feature", "geometry": {"type": "LineString", "coordinates": [[693305.989186811, 4375150.3633207185], [693295.2630634946, 4375150.239827096]]}, "properties": {"highway": "service"}}, {"type": "Feature", "geometry": {"type": "LineString", "coordinates": [[693305.989186811, 4375150.3633207185], [693305.910469671, 4375194.1659508]]}, "properties": {"highway": "footway"}}, {"type": "Feature", "geometry": {"type": "LineString", "coordinates": [[693254.8223436156, 4375142.043978514], [693260.3956609069, 4375142.127605023]]}, "properties": {"highway": "service"}}, {"type": "Feature", "geometry": {"type": "LineString", "coordinates": [[693254.8223436156, 4375142.043978514], [693253.8811635602, 4375153.204862059]]}, "properties": {"highway": "footway"}}, {"type": "Feature", "geometry": {"type": "LineString", "coordinates": [[693278.1030685265, 4375173.46843691], [693277.9432219589, 4375153.339214726]]}, "properties": {"highway": "service"}}, {"type": "Feature", "geometry": {"type": "LineString", "coordinates": [[693278.1030685265, 4375173.46843691], [693278.2414891475, 4375189.976360187]]}, "properties": {"highway": "service"}}, {"type": "Feature", "geometry": {"type": "LineString", "coordinates": [[693278.1030685265, 4375173.46843691], [693253.7417835918, 4375173.259968776]]}, "properties": {"highway": "footway"}}, {"type": "Feature", "geometry": {"type": "LineString", "coordinates": [[693253.7417835918, 4375173.259968776], [693278.1030685265, 4375173.46843691]]}, "properties": {"highway": "footway"}}, {"type": "Feature", "geometry": {"type": "LineString", "coordinates": [[693253.7417835918, 4375173.259968776], [693253.6836968374, 4375181.099804495]]}, "properties": {"highway": "footway"}}, {"type": "Feature", "geometry": {"type": "LineString", "coordinates": [[693253.7417835918, 4375173.259968776], [693253.7926568597, 4375165.364419859]]}, "properties": {"highway": "footway"}}, {"type": "Feature", "geometry": {"type": "LineString", "coordinates": [[693248.6673168761, 4375165.258662219], [693253.7926568597, 4375165.364419859]]}, "properties": {"highway": "footway"}}, {"type": "Feature", "geometry": {"type": "LineString", "coordinates": [[693253.7926568597, 4375165.364419859], [693248.6673168761, 4375165.258662219]]}, "properties": {"highway": "footway"}}, {"type": "Feature", "geometry": {"type": "LineString", "coordinates": [[693253.7926568597, 4375165.364419859], [693253.7417835918, 4375173.259968776]]}, "properties": {"highway": "footway"}}, {"type": "Feature", "geometry": {"type": "LineString", "coordinates": [[693253.7926568597, 4375165.364419859], [693253.8811635602, 4375153.204862059]]}, "properties": {"highway": "footway"}}, {"type": "Feature", "geometry": {"type": "LineString", "coordinates": [[693248.5159284716, 4375180.970773656], [693253.6836968374, 4375181.099804495]]}, "properties": {"highway": "footway"}}, {"type": "Feature", "geometry": {"type": "LineString", "coordinates": [[693253.6836968374, 4375181.099804495], [693248.5159284716, 4375180.970773656]]}, "properties": {"highway": "footway"}}, {"type": "Feature", "geometry": {"type": "LineString", "coordinates": [[693253.6836968374, 4375181.099804495], [693253.5996213021, 4375193.081767291]]}, "properties": {"highway": "footway"}}, {"type": "Feature", "geometry": {"type": "LineString", "coordinates": [[693253.6836968374, 4375181.099804495], [693253.7417835918, 4375173.259968776]]}, "properties": {"highway": "footway"}}, {"type": "Feature", "geometry": {"type": "LineString", "coordinates": [[693248.4060651306, 4375192.95209214], [693253.5996213021, 4375193.081767291]]}, "properties": {"highway": "footway"}}, {"type": "Feature", "geometry": {"type": "LineString", "coordinates": [[693253.5996213021, 4375193.081767291], [693248.4060651306, 4375192.95209214]]}, "properties": {"highway": "footway"}}, {"type": "Feature", "geometry": {"type": "LineString", "coordinates": [[693253.5996213021, 4375193.081767291], [693253.5716788154, 4375196.612980428]]}, "properties": {"highway": "footway"}}, {"type": "Feature", "geometry": {"type": "LineString", "coordinates": [[693253.5996213021, 4375193.081767291], [693253.6836968374, 4375181.099804495]]}, "properties": {"highway": "footway"}}, {"type": "Feature", "geometry": {"type": "LineString", "coordinates": [[693253.8811635602, 4375153.204862059], [693253.7926568597, 4375165.364419859]]}, "properties": {"highway": "footway"}}, {"type": "Feature", "geometry": {"type": "LineString", "coordinates": [[693253.8811635602, 4375153.204862059], [693254.8223436156, 4375142.043978514]]}, "properties": {"highway": "footway"}}, {"type": "Feature", "geometry": {"type": "LineString", "coordinates": [[693253.8811635602, 4375153.204862059], [693248.7885472933, 4375153.166561716]]}, "properties": {"highway": "footway"}}, {"type": "Feature", "geometry": {"type": "LineString", "coordinates": [[693253.8811635602, 4375153.204862059], [693277.9432219589, 4375153.339214726]]}, "properties": {"highway": "footway"}}, {"type": "Feature", "geometry": {"type": "LineString", "coordinates": [[693248.7885472933, 4375153.166561716], [693253.8811635602, 4375153.204862059]]}, "properties": {"highway": "footway"}}, {"type": "Feature", "geometry": {"type": "LineString", "coordinates": [[693277.9432219589, 4375153.339214726], [693277.8545439745, 4375142.419174103]]}, "properties": {"highway": "service"}}, {"type": "Feature", "geometry": {"type": "LineString", "coordinates": [[693277.9432219589, 4375153.339214726], [693278.1030685265, 4375173.46843691]]}, "properties": {"highway": "service"}}, {"type": "Feature", "geometry": {"type": "LineString", "coordinates": [[693277.9432219589, 4375153.339214726], [693253.8811635602, 4375153.204862059]]}, "properties": {"highway": "footway"}}, {"type": "Feature", "geometry": {"type": "LineString", "coordinates": [[693253.5716788154, 4375196.612980428], [693253.5996213021, 4375193.081767291]]}, "properties": {"highway": "footway"}}, {"type": "Feature", "geometry": {"type": "LineString", "coordinates": [[693253.5716788154, 4375196.612980428], [693268.0228687156, 4375196.751690459]]}, "properties": {"highway": "footway"}}, {"type": "Feature", "geometry": {"type": "LineString", "coordinates": [[693253.5716788154, 4375196.612980428], [693251.8683247746, 4375196.603769771], [693251.7865457776, 4375198.845268683]]}, "properties": {"highway": "footway"}}, {"type": "Feature", "geometry": {"type": "LineString", "coordinates": [[693269.6915513577, 4375196.771145529], [693268.0228687156, 4375196.751690459]]}, "properties": {"highway": "footway"}}, {"type": "Feature", "geometry": {"type": "LineString", "coordinates": [[693269.6915513577, 4375196.771145529], [693279.2739946874, 4375196.866047506]]}, "properties": {"highway": "footway"}}, {"type": "Feature", "geometry": {"type": "LineString", "coordinates": [[693269.6915513577, 4375196.771145529], [693273.7927200209, 4375192.064381598], [693278.2414891475, 4375189.976360187]]}, "properties": {"highway": "footway"}}, {"type": "Feature", "geometry": {"type": "LineString", "coordinates": [[693268.0228687156, 4375196.751690459], [693267.9921222833, 4375199.016677087]]}, "properties": {"highway": "footway"}}, {"type": "Feature", "geometry": {"type": "LineString", "coordinates": [[693268.0228687156, 4375196.751690459], [693253.5716788154, 4375196.612980428]]}, "properties": {"highway": "footway"}}, {"type": "Feature", "geometry": {"type": "LineString", "coordinates": [[693268.0228687156, 4375196.751690459], [693269.6915513577, 4375196.771145529]]}, "properties": {"highway": "footway"}}, {"type": "Feature", "geometry": {"type": "LineString", "coordinates": [[693267.9921222833, 4375199.016677087], [693268.0228687156, 4375196.751690459]]}, "properties": {"highway": "footway"}}, {"type": "Feature", "geometry": {"type": "LineString", "coordinates": [[693251.7865457776, 4375198.845268683], [693251.8683247746, 4375196.603769771], [693253.5716788154, 4375196.612980428]]}, "properties": {"highway": "footway"}}, {"type": "Feature", "geometry": {"type": "LineString", "coordinates": [[693279.2739946874, 4375196.866047506], [693278.2414891475, 4375189.976360187]]}, "properties": {"highway": "service"}}, {"type": "Feature", "geometry": {"type": "LineString", "coordinates": [[693279.2739946874, 4375196.866047506], [693269.6915513577, 4375196.771145529]]}, "properties": {"highway": "footway"}}, {"type": "Feature", "geometry": {"type": "LineString", "coordinates": [[693279.2739946874, 4375196.866047506], [693280.6901489177, 4375206.3087364305], [693280.0701449269, 4375218.388384967]]}, "properties": {"highway": "service"}}, {"type": "Feature", "geometry": {"type": "LineString", "coordinates": [[693303.7489656822, 4375199.409834681], [693303.7422353989, 4375194.16733143]]}, "properties": {"highway": "footway"}}, {"type": "Feature", "geometry": {"type": "LineString", "coordinates": [[693303.7422353989, 4375194.16733143], [693303.7489656822, 4375199.409834681]]}, "properties": {"highway": "footway"}}, {"type": "Feature", "geometry": {"type": "LineString", "coordinates": [[693303.7422353989, 4375194.16733143], [693305.910469671, 4375194.1659508]]}, "properties": {"highway": "footway"}}, {"type": "Feature", "geometry": {"type": "LineString", "coordinates": [[693303.7422353989, 4375194.16733143], [693295.1042475159, 4375194.151519557]]}, "properties": {"highway": "footway"}}, {"type": "Feature", "geometry": {"type": "LineString", "coordinates": [[693315.8349862199, 4375199.5117769195], [693315.9766582744, 4375194.184126631]]}, "properties": {"highway": "footway"}}, {"type": "Feature", "geometry": {"type": "LineString", "coordinates": [[693315.9766582744, 4375194.184126631], [693315.8349862199, 4375199.5117769195]]}, "properties": {"highway": "footway"}}, {"type": "Feature", "geometry": {"type": "LineString", "coordinates": [[693315.9766582744, 4375194.184126631], [693328.2368781054, 4375194.201585501]]}, "properties": {"highway": "footway"}}, {"type": "Feature", "geometry": {"type": "LineString", "coordinates": [[693315.9766582744, 4375194.184126631], [693305.910469671, 4375194.1659508]]}, "properties": {"highway": "footway"}}, {"type": "Feature", "geometry": {"type": "LineString", "coordinates": [[693328.1875641677, 4375199.620396206], [693328.2368781054, 4375194.201585501]]}, "properties": {"highway": "footway"}}, {"type": "Feature", "geometry": {"type": "LineString", "coordinates": [[693328.2368781054, 4375194.201585501], [693328.1875641677, 4375199.620396206]]}, "properties": {"highway": "footway"}}, {"type": "Feature", "geometry": {"type": "LineString", "coordinates": [[693328.2368781054, 4375194.201585501], [693329.3294554242, 4375194.206663179]]}, "properties": {"highway": "footway"}}, {"type": "Feature", "geometry": {"type": "LineString", "coordinates": [[693328.2368781054, 4375194.201585501], [693315.9766582744, 4375194.184126631]]}, "properties": {"highway": "footway"}}, {"type": "Feature", "geometry": {"type": "LineString", "coordinates": [[693329.8071738108, 4375150.625017777], [693305.989186811, 4375150.3633207185]]}, "properties": {"highway": "service"}}, {"type": "Feature", "geometry": {"type": "LineString", "coordinates": [[693329.8071738108, 4375150.625017777], [693329.3294554242, 4375194.206663179]]}, "properties": {"highway": "footway"}}, {"type": "Feature", "geometry": {"type": "LineString", "coordinates": [[693329.3294554242, 4375194.206663179], [693329.8071738108, 4375150.625017777]]}, "properties": {"highway": "footway"}}, {"type": "Feature", "geometry": {"type": "LineString", "coordinates": [[693329.3294554242, 4375194.206663179], [693333.4334852843, 4375194.209217358]]}, "properties": {"highway": "footway"}}, {"type": "Feature", "geometry": {"type": "LineString", "coordinates": [[693329.3294554242, 4375194.206663179], [693328.2368781054, 4375194.201585501]]}, "properties": {"highway": "footway"}}, {"type": "Feature", "geometry": {"type": "LineString", "coordinates": [[693333.4334852843, 4375194.209217358], [693329.3294554242, 4375194.206663179]]}, "properties": {"highway": "footway"}}, {"type": "Feature", "geometry": {"type": "LineString", "coordinates": [[693295.1042475159, 4375194.151519557], [693295.0119700627, 4375218.517186903]]}, "properties": {"highway": "service"}}, {"type": "Feature", "geometry": {"type": "LineString", "coordinates": [[693295.1042475159, 4375194.151519557], [693303.7422353989, 4375194.16733143]]}, "properties": {"highway": "footway"}}, {"type": "Feature", "geometry": {"type": "LineString", "coordinates": [[693373.8750753633, 4375166.542153007], [693366.4627748244, 4375166.712379434]]}, "properties": {"highway": "footway"}}, {"type": "Feature", "geometry": {"type": "LineString", "coordinates": [[693366.4627748244, 4375166.712379434], [693373.8750753633, 4375166.542153007]]}, "properties": {"highway": "footway"}}, {"type": "Feature", "geometry": {"type": "LineString", "coordinates": [[693366.4627748244, 4375166.712379434], [693366.5092307774, 4375144.189259887]]}, "properties": {"highway": "footway"}}, {"type": "Feature", "geometry": {"type": "LineString", "coordinates": [[693366.4627748244, 4375166.712379434], [693366.4248809894, 4375184.071122618]]}, "properties": {"highway": "footway"}}, {"type": "Feature", "geometry": {"type": "LineString", "coordinates": [[693373.7037503641, 4375184.419575961], [693366.4248809894, 4375184.071122618]]}, "properties": {"highway": "footway"}}, {"type": "Feature", "geometry": {"type": "LineString", "coordinates": [[693366.4248809894, 4375184.071122618], [693373.7037503641, 4375184.419575961]]}, "properties": {"highway": "footway"}}, {"type": "Feature", "geometry": {"type": "LineString", "coordinates": [[693366.4248809894, 4375184.071122618], [693366.4627748244, 4375166.712379434]]}, "properties": {"highway": "footway"}}, {"type": "Feature", "geometry": {"type": "LineString", "coordinates": [[693366.4248809894, 4375184.071122618], [693366.3944732989, 4375201.474479942]]}, "properties": {"highway": "footway"}}, {"type": "Feature", "geometry": {"type": "LineString", "coordinates": [[693373.5429590014, 4375201.530903857], [693366.3944732989, 4375201.474479942]]}, "properties": {"highway": "footway"}}, {"type": "Feature", "geometry": {"type": "LineString", "coordinates": [[693366.3944732989, 4375201.474479942], [693373.5429590014, 4375201.530903857]]}, "properties": {"highway": "footway"}}, {"type": "Feature", "geometry": {"type": "LineString", "coordinates": [[693366.3944732989, 4375201.474479942], [693366.4248809894, 4375184.071122618]]}, "properties": {"highway": "footway"}}, {"type": "Feature", "geometry": {"type": "LineString", "coordinates": [[693366.3944732989, 4375201.474479942], [693366.3623828443, 4375216.189986879], [693367.0072861211, 4375217.92762936], [693368.945303567, 4375219.5642990805], [693422.1191921296, 4375220.1932544755]]}, "properties": {"highway": "footway"}}, {"type": "Feature", "geometry": {"type": "LineString", "coordinates": [[693225.7110739909, 4375038.802941317], [693225.3492763783, 4375133.600130602]]}, "properties": {"highway": "footway"}}, {"type": "Feature", "geometry": {"type": "LineString", "coordinates": [[693225.3492763783, 4375133.600130602], [693216.5683739696, 4375133.447562941]]}, "properties": {"highway": "service"}}, {"type": "Feature", "geometry": {"type": "LineString", "coordinates": [[693225.3492763783, 4375133.600130602], [693225.7110739909, 4375038.802941317]]}, "properties": {"highway": "footway"}}, {"type": "Feature", "geometry": {"type": "LineString", "coordinates": [[693225.3492763783, 4375133.600130602], [693225.381373165, 4375141.619921799]]}, "properties": {"highway": "footway"}}, {"type": "Feature", "geometry": {"type": "LineString", "coordinates": [[693225.381373165, 4375141.619921799], [693254.8223436156, 4375142.043978514]]}, "properties": {"highway": "service"}}, {"type": "Feature", "geometry": {"type": "LineString", "coordinates": [[693225.381373165, 4375141.619921799], [693225.3492763783, 4375133.600130602]]}, "properties": {"highway": "footway"}}, {"type": "Feature", "geometry": {"type": "LineString", "coordinates": [[693225.381373165, 4375141.619921799], [693225.0974045194, 4375212.61754995], [693225.4971451708, 4375214.526764304]]}, "properties": {"highway": "footway"}}, {"type": "Feature", "geometry": {"type": "LineString", "coordinates": [[693225.4971451708, 4375214.526764304], [693216.2941729382, 4375214.396974089]]}, "properties": {"highway": "footway"}}, {"type": "Feature", "geometry": {"type": "LineString", "coordinates": [[693225.4971451708, 4375214.526764304], [693225.0974045194, 4375212.61754995], [693225.381373165, 4375141.619921799]]}, "properties": {"highway": "footway"}}, {"type": "Feature", "geometry": {"type": "LineString", "coordinates": [[693225.4971451708, 4375214.526764304], [693226.731493508, 4375216.090296088], [693228.5699503869, 4375217.235751308], [693230.1093804513, 4375217.607383599], [693280.0701449269, 4375218.388384967]]}, "properties": {"highway": "footway"}}, {"type": "Feature", "geometry": {"type": "LineString", "coordinates": [[693280.0701449269, 4375218.388384967], [693279.6517254103, 4375226.530210275]]}, "properties": {"highway": "service"}}, {"type": "Feature", "geometry": {"type": "LineString", "coordinates": [[693280.0701449269, 4375218.388384967], [693295.0119700627, 4375218.517186903]]}, "properties": {"highway": "footway"}}, {"type": "Feature", "geometry": {"type": "LineString", "coordinates": [[693280.0701449269, 4375218.388384967], [693280.6901489177, 4375206.3087364305], [693279.2739946874, 4375196.866047506]]}, "properties": {"highway": "service"}}, {"type": "Feature", "geometry": {"type": "LineString", "coordinates": [[693280.0701449269, 4375218.388384967], [693230.1093804513, 4375217.607383599], [693228.5699503869, 4375217.235751308], [693226.731493508, 4375216.090296088], [693225.4971451708, 4375214.526764304]]}, "properties": {"highway": "footway"}}, {"type": "Feature", "geometry": {"type": "LineString", "coordinates": [[693295.0119700627, 4375218.517186903], [693294.9862968109, 4375226.779887392]]}, "properties": {"highway": "service"}}, {"type": "Feature", "geometry": {"type": "LineString", "coordinates": [[693295.0119700627, 4375218.517186903], [693280.0701449269, 4375218.388384967]]}, "properties": {"highway": "footway"}}, {"type": "Feature", "geometry": {"type": "LineString", "coordinates": [[693295.0119700627, 4375218.517186903], [693349.6464895176, 4375219.226549712], [693353.2437199116, 4375215.751180752], [693353.4529133654, 4375150.89359174]]}, "properties": {"highway": "footway"}}, {"type": "Feature", "geometry": {"type": "LineString", "coordinates": [[693353.4529133654, 4375150.89359174], [693329.8071738108, 4375150.625017777]]}, "properties": {"highway": "service"}}, {"type": "Feature", "geometry": {"type": "LineString", "coordinates": [[693353.4529133654, 4375150.89359174], [693353.457102562, 4375120.7613671785]]}, "properties": {"highway": "footway"}}, {"type": "Feature", "geometry": {"type": "LineString", "coordinates": [[693353.4529133654, 4375150.89359174], [693353.2437199116, 4375215.751180752], [693349.6464895176, 4375219.226549712], [693295.0119700627, 4375218.517186903]]}, "properties": {"highway": "footway"}}, {"type": "Feature", "geometry": {"type": "LineString", "coordinates": [[693353.4642301442, 4375110.832204512], [693308.0833556183, 4375109.920808892]]}, "properties": {"highway": "service"}}, {"type": "Feature", "geometry": {"type": "LineString", "coordinates": [[693353.4642301442, 4375110.832204512], [693360.4305623941, 4375110.950700673]]}, "properties": {"highway": "service"}}, {"type": "Feature", "geometry": {"type": "LineString", "coordinates": [[693353.4642301442, 4375110.832204512], [693353.457102562, 4375120.7613671785]]}, "properties": {"highway": "footway"}}, {"type": "Feature", "geometry": {"type": "LineString", "coordinates": [[693353.4642301442, 4375110.832204512], [693353.470325364, 4375078.212141331]]}, "properties": {"highway": "footway"}}, {"type": "Feature", "geometry": {"type": "LineString", "coordinates": [[693353.470325364, 4375078.212141331], [693328.9131753932, 4375077.909709453]]}, "properties": {"highway": "footway"}}, {"type": "Feature", "geometry": {"type": "LineString", "coordinates": [[693353.470325364, 4375078.212141331], [693353.4642301442, 4375110.832204512]]}, "properties": {"highway": "footway"}}, {"type": "Feature", "geometry": {"type": "LineString", "coordinates": [[693353.470325364, 4375078.212141331], [693353.1277438597, 4375076.082214318], [693352.0672981513, 4375073.068036409], [693350.297321391, 4375070.558146638], [693348.4005704265, 4375066.923319511], [693347.5237349208, 4375062.758638117]]}, "properties": {"highway": "footway"}}, {"type": "Feature", "geometry": {"type": "LineString", "coordinates": [[693347.5237349208, 4375062.758638117], [693348.4005704265, 4375066.923319511], [693350.297321391, 4375070.558146638], [693352.0672981513, 4375073.068036409], [693353.1277438597, 4375076.082214318], [693353.470325364, 4375078.212141331]]}, "properties": {"highway": "footway"}}, {"type": "Feature", "geometry": {"type": "LineString", "coordinates": [[693366.5817147263, 4375076.196183026], [693381.9121545593, 4375076.623616917]]}, "properties": {"highway": "service"}}, {"type": "Feature", "geometry": {"type": "LineString", "coordinates": [[693366.5817147263, 4375076.196183026], [693366.5092307774, 4375144.189259887]]}, "properties": {"highway": "footway"}}, {"type": "Feature", "geometry": {"type": "LineString", "coordinates": [[693366.5817147263, 4375076.196183026], [693367.0413151442, 4375073.986335888], [693368.7332992877, 4375070.318986439], [693370.8946181117, 4375067.8406670755], [693372.3386393585, 4375065.833120292], [693373.5360661349, 4375063.019734499], [693374.0627840997, 4375059.156674243], [693374.079968244, 4375057.09126744]]}, "properties": {"highway": "footway"}}, {"type": "Feature", "geometry": {"type": "LineString", "coordinates": [[693366.5092307774, 4375144.189259887], [693360.1182091547, 4375144.462754874]]}, "properties": {"highway": "service"}}, {"type": "Feature", "geometry": {"type": "LineString", "coordinates": [[693366.5092307774, 4375144.189259887], [693366.5817147263, 4375076.196183026]]}, "properties": {"highway": "footway"}}, {"type": "Feature", "geometry": {"type": "LineString", "coordinates": [[693366.5092307774, 4375144.189259887], [693366.4627748244, 4375166.712379434]]}, "properties": {"highway": "footway"}}, {"type": "Feature", "geometry": {"type": "LineString", "coordinates": [[693366.5092307774, 4375144.189259887], [693377.642830665, 4375143.8454462895], [693391.5618290334, 4375138.773172354], [693422.7955255517, 4375137.354529356]]}, "properties": {"highway": "service"}}, {"type": "Feature", "geometry": {"type": "LineString", "coordinates": [[693422.1191921296, 4375220.1932544755], [693422.7955255517, 4375137.354529356]]}, "properties": {"highway": "service"}}, {"type": "Feature", "geometry": {"type": "LineString", "coordinates": [[693422.1191921296, 4375220.1932544755], [693437.961659983, 4375220.433693207]]}, "properties": {"highway": "footway"}}, {"type": "Feature", "geometry": {"type": "LineString", "coordinates": [[693422.1191921296, 4375220.1932544755], [693368.945303567, 4375219.5642990805], [693367.0072861211, 4375217.92762936], [693366.3623828443, 4375216.189986879], [693366.3944732989, 4375201.474479942]]}, "properties": {"highway": "footway"}}, {"type": "Feature", "geometry": {"type": "LineString", "coordinates": [[693437.961659983, 4375220.433693207], [693438.0032210606, 4375147.508442493]]}, "properties": {"highway": "service"}}, {"type": "Feature", "geometry": {"type": "LineString", "coordinates": [[693437.961659983, 4375220.433693207], [693422.1191921296, 4375220.1932544755]]}, "properties": {"highway": "footway"}}, {"type": "Feature", "geometry": {"type": "LineString", "coordinates": [[693437.961659983, 4375220.433693207], [693482.442671398, 4375221.5233141845]]}, "properties": {"highway": "footway"}}, {"type": "Feature", "geometry": {"type": "LineString", "coordinates": [[693482.442671398, 4375221.5233141845], [693437.961659983, 4375220.433693207]]}, "properties": {"highway": "footway"}}, {"type": "Feature", "geometry": {"type": "LineString", "coordinates": [[693493.8178202445, 4375106.887090296], [693435.699702112, 4375107.478030049], [693435.0484717666, 4375078.106873912]]}, "properties": {"highway": "service"}}, {"type": "Feature", "geometry": {"type": "LineString", "coordinates": [[693209.330115678, 4375067.704424509], [693178.1098063492, 4375068.580051081]]}, "properties": {"highway": "service"}}, {"type": "Feature", "geometry": {"type": "LineString", "coordinates": [[693209.330115678, 4375067.704424509], [693216.7951987, 4375067.490933419]]}, "properties": {"highway": "service"}}, {"type": "Feature", "geometry": {"type": "LineString", "coordinates": [[693209.330115678, 4375067.704424509], [693208.9507008619, 4375161.146157915]]}, "properties": {"highway": "footway"}}, {"type": "Feature", "geometry": {"type": "LineString", "coordinates": [[693209.330115678, 4375067.704424509], [693209.538892425, 4375034.523022156], [693208.9194551052, 4375032.79713874], [693207.6262745423, 4375031.520916162]]}, "properties": {"highway": "footway"}}, {"type": "Feature", "geometry": {"type": "LineString", "coordinates": [[693207.6262745423, 4375031.520916162], [693208.9194551052, 4375032.79713874], [693209.538892425, 4375034.523022156], [693209.330115678, 4375067.704424509]]}, "properties": {"highway": "footway"}}, {"type": "Feature", "geometry": {"type": "LineString", "coordinates": [[693208.9507008619, 4375161.146157915], [693209.330115678, 4375067.704424509]]}, "properties": {"highway": "footway"}}, {"type": "Feature", "geometry": {"type": "LineString", "coordinates": [[693208.9507008619, 4375161.146157915], [693195.7717714012, 4375161.050425626]]}, "properties": {"highway": "footway"}}, {"type": "Feature", "geometry": {"type": "LineString", "coordinates": [[693208.9507008619, 4375161.146157915], [693209.0296477559, 4375167.634402498]]}, "properties": {"highway": "footway"}}, {"type": "Feature", "geometry": {"type": "LineString", "coordinates": [[693195.7717714012, 4375161.050425626], [693208.9507008619, 4375161.146157915]]}, "properties": {"highway": "footway"}}, {"type": "Feature", "geometry": {"type": "LineString", "coordinates": [[693208.9064341391, 4375250.4646043135], [693216.3838280241, 4375250.440243723]]}, "properties": {"highway": "service"}}, {"type": "Feature", "geometry": {"type": "LineString", "coordinates": [[693208.9064341391, 4375250.4646043135], [693194.1152971127, 4375250.506325459]]}, "properties": {"highway": "service"}}, {"type": "Feature", "geometry": {"type": "LineString", "coordinates": [[693208.9064341391, 4375250.4646043135], [693208.9268591951, 4375246.544472064], [693209.000362369, 4375214.303746754]]}, "properties": {"highway": "footway"}}, {"type": "Feature", "geometry": {"type": "LineString", "coordinates": [[693208.9064341391, 4375250.4646043135], [693208.9708771089, 4375254.086976048], [693208.9274499408, 4375280.64185695], [693208.8962429789, 4375286.027796176]]}, "properties": {"highway": "footway"}}, {"type": "Feature", "geometry": {"type": "LineString", "coordinates": [[693208.8962429789, 4375286.027796176], [693216.2745771224, 4375285.834365142]]}, "properties": {"highway": "service"}}, {"type": "Feature", "geometry": {"type": "LineString", "coordinates": [[693208.8962429789, 4375286.027796176], [693190.2222739074, 4375286.5168164745], [693189.9609579346, 4375315.598568857], [693208.7056101746, 4375316.066487465]]}, "properties": {"highway": "service"}}, {"type": "Feature", "geometry": {"type": "LineString", "coordinates": [[693208.8962429789, 4375286.027796176], [693208.8528350547, 4375291.557817134], [693208.7201845385, 4375311.002225201], [693208.7056101746, 4375316.066487465]]}, "properties": {"highway": "footway"}}, {"type": "Feature", "geometry": {"type": "LineString", "coordinates": [[693208.8962429789, 4375286.027796176], [693208.9274499408, 4375280.64185695], [693208.9708771089, 4375254.086976048], [693208.9064341391, 4375250.4646043135]]}, "properties": {"highway": "footway"}}, {"type": "Feature", "geometry": {"type": "LineString", "coordinates": [[693208.7056101746, 4375316.066487465], [693216.2034712206, 4375316.253667634]]}, "properties": {"highway": "service"}}, {"type": "Feature", "geometry": {"type": "LineString", "coordinates": [[693208.7056101746, 4375316.066487465], [693189.9609579346, 4375315.598568857], [693190.2222739074, 4375286.5168164745], [693208.8962429789, 4375286.027796176]]}, "properties": {"highway": "service"}}, {"type": "Feature", "geometry": {"type": "LineString", "coordinates": [[693208.7056101746, 4375316.066487465], [693208.7201845385, 4375311.002225201], [693208.8528350547, 4375291.557817134], [693208.8962429789, 4375286.027796176]]}, "properties": {"highway": "footway"}}, {"type": "Feature", "geometry": {"type": "LineString", "coordinates": [[693208.7056101746, 4375316.066487465], [693208.6172601851, 4375321.328827488], [693208.6623602678, 4375350.540407648], [693207.7013440366, 4375353.193116127], [693205.9378873025, 4375355.248247455]]}, "properties": {"highway": "footway"}}, {"type": "Feature", "geometry": {"type": "LineString", "coordinates": [[693205.9378873025, 4375355.248247455], [693207.7013440366, 4375353.193116127], [693208.6623602678, 4375350.540407648], [693208.6172601851, 4375321.328827488], [693208.7056101746, 4375316.066487465]]}, "properties": {"highway": "footway"}}, {"type": "Feature", "geometry": {"type": "LineString", "coordinates": [[693195.6159317922, 4375172.46415357], [693209.0957936669, 4375172.567398927]]}, "properties": {"highway": "footway"}}, {"type": "Feature", "geometry": {"type": "LineString", "coordinates": [[693209.0957936669, 4375172.567398927], [693209.000362369, 4375214.303746754]]}, "properties": {"highway": "footway"}}, {"type": "Feature", "geometry": {"type": "LineString", "coordinates": [[693209.0957936669, 4375172.567398927], [693195.6159317922, 4375172.46415357]]}, "properties": {"highway": "footway"}}, {"type": "Feature", "geometry": {"type": "LineString", "coordinates": [[693209.0957936669, 4375172.567398927], [693209.0296477559, 4375167.634402498]]}, "properties": {"highway": "footway"}}, {"type": "Feature", "geometry": {"type": "LineString", "coordinates": [[693209.000362369, 4375214.303746754], [693209.0957936669, 4375172.567398927]]}, "properties": {"highway": "footway"}}, {"type": "Feature", "geometry": {"type": "LineString", "coordinates": [[693209.000362369, 4375214.303746754], [693216.2941729382, 4375214.396974089]]}, "properties": {"highway": "footway"}}, {"type": "Feature", "geometry": {"type": "LineString", "coordinates": [[693209.000362369, 4375214.303746754], [693208.9268591951, 4375246.544472064], [693208.9064341391, 4375250.4646043135]]}, "properties": {"highway": "footway"}}, {"type": "Feature", "geometry": {"type": "LineString", "coordinates": [[693209.0296477559, 4375167.634402498], [693195.6626677292, 4375167.489548913]]}, "properties": {"highway": "residential"}}, {"type": "Feature", "geometry": {"type": "LineString", "coordinates": [[693209.0296477559, 4375167.634402498], [693216.4530359008, 4375167.708648629]]}, "properties": {"highway": "residential"}}, {"type": "Feature", "geometry": {"type": "LineString", "coordinates": [[693209.0296477559, 4375167.634402498], [693208.9507008619, 4375161.146157915]]}, "properties": {"highway": "footway"}}, {"type": "Feature", "geometry": {"type": "LineString", "coordinates": [[693209.0296477559, 4375167.634402498], [693209.0957936669, 4375172.567398927]]}, "properties": {"highway": "footway"}}, {"type": "Feature", "geometry": {"type": "LineString", "coordinates": [[693304.0038349709, 4375300.475547938], [693265.4632181366, 4375300.290511773], [693263.4892071516, 4375302.162667466], [693235.206605295, 4375302.57824611], [693231.6404224455, 4375301.023132743], [693224.8806299674, 4375300.909898281]]}, "properties": {"highway": "footway"}}, {"type": "Feature", "geometry": {"type": "LineString", "coordinates": [[693224.8806299674, 4375300.909898281], [693224.9049210096, 4375295.801451568]]}, "properties": {"highway": "footway"}}, {"type": "Feature", "geometry": {"type": "LineString", "coordinates": [[693224.8806299674, 4375300.909898281], [693224.6654634395, 4375365.356346558], [693224.6220321243, 4375370.542062475]]}, "properties": {"highway": "footway"}}, {"type": "Feature", "geometry": {"type": "LineString", "coordinates": [[693224.8806299674, 4375300.909898281], [693231.6404224455, 4375301.023132743], [693235.206605295, 4375302.57824611], [693263.4892071516, 4375302.162667466], [693265.4632181366, 4375300.290511773], [693304.0038349709, 4375300.475547938]]}, "properties": {"highway": "footway"}}, {"type": "Feature", "geometry": {"type": "LineString", "coordinates": [[693488.2021436221, 4375240.31537583], [693486.2555565089, 4375238.678460145], [693482.9209893111, 4375237.495540081], [693438.2001408018, 4375236.710902767], [693432.877630922, 4375236.577879158]]}, "properties": {"highway": "footway"}}, {"type": "Feature", "geometry": {"type": "LineString", "coordinates": [[693224.9049210096, 4375295.801451568], [693216.1891110473, 4375295.805990986]]}, "properties": {"highway": "service"}}, {"type": "Feature", "geometry": {"type": "LineString", "coordinates": [[693224.9049210096, 4375295.801451568], [693237.8195650767, 4375295.790689182]]}, "properties": {"highway": "service"}}, {"type": "Feature", "geometry": {"type": "LineString", "coordinates": [[693224.9049210096, 4375295.801451568], [693224.8806299674, 4375300.909898281]]}, "properties": {"highway": "footway"}}, {"type": "Feature", "geometry": {"type": "LineString", "coordinates": [[693224.9049210096, 4375295.801451568], [693224.8263069848, 4375290.679329144], [693224.8283750695, 4375236.834406393], [693226.8048692046, 4375234.173731445], [693229.2093847531, 4375232.978712254], [693232.1975024642, 4375232.186996444], [693304.7385463902, 4375233.509729838], [693313.1143842263, 4375234.374219044]]}, "properties": {"highway": "footway"}}, {"type": "Feature", "geometry": {"type": "LineString", "coordinates": [[693313.1143842263, 4375234.374219044], [693313.1231308059, 4375246.425146207]]}, "properties": {"highway": "service"}}, {"type": "Feature", "geometry": {"type": "LineString", "coordinates": [[693313.1143842263, 4375234.374219044], [693313.081840996, 4375227.0652346155]]}, "properties": {"highway": "service"}}, {"type": "Feature", "geometry": {"type": "LineString", "coordinates": [[693313.1143842263, 4375234.374219044], [693304.7385463902, 4375233.509729838], [693232.1975024642, 4375232.186996444], [693229.2093847531, 4375232.978712254], [693226.8048692046, 4375234.173731445], [693224.8283750695, 4375236.834406393], [693224.8263069848, 4375290.679329144], [693224.9049210096, 4375295.801451568]]}, "properties": {"highway": "footway"}}, {"type": "Feature", "geometry": {"type": "LineString", "coordinates": [[693313.1143842263, 4375234.374219044], [693319.3450169403, 4375235.007428658], [693358.6684449072, 4375235.556575417], [693362.9521916772, 4375235.596956326]]}, "properties": {"highway": "footway"}}, {"type": "Feature", "geometry": {"type": "LineString", "coordinates": [[693362.9521916772, 4375235.596956326], [693362.99014584, 4375227.878784047]]}, "properties": {"highway": "service"}}, {"type": "Feature", "geometry": {"type": "LineString", "coordinates": [[693362.9521916772, 4375235.596956326], [693363.6068550015, 4375246.586680634]]}, "properties": {"highway": "service"}}, {"type": "Feature", "geometry": {"type": "LineString", "coordinates": [[693362.9521916772, 4375235.596956326], [693358.6684449072, 4375235.556575417], [693319.3450169403, 4375235.007428658], [693313.1143842263, 4375234.374219044]]}, "properties": {"highway": "footway"}}, {"type": "Feature", "geometry": {"type": "LineString", "coordinates": [[693362.9521916772, 4375235.596956326], [693368.7037965246, 4375235.773972281], [693428.8621024967, 4375236.477522898], [693432.877630922, 4375236.577879158]]}, "properties": {"highway": "footway"}}, {"type": "Feature", "geometry": {"type": "LineString", "coordinates": [[693432.877630922, 4375236.577879158], [693432.9510979933, 4375248.097316068]]}, "properties": {"highway": "service"}}, {"type": "Feature", "geometry": {"type": "LineString", "coordinates": [[693432.877630922, 4375236.577879158], [693432.8260627948, 4375229.001852063]]}, "properties": {"highway": "service"}}, {"type": "Feature", "geometry": {"type": "LineString", "coordinates": [[693432.877630922, 4375236.577879158], [693428.8621024967, 4375236.477522898], [693368.7037965246, 4375235.773972281], [693362.9521916772, 4375235.596956326]]}, "properties": {"highway": "footway"}}, {"type": "Feature", "geometry": {"type": "LineString", "coordinates": [[693432.877630922, 4375236.577879158], [693438.2001408018, 4375236.710902767], [693482.9209893111, 4375237.495540081], [693486.2555565089, 4375238.678460145], [693488.2021436221, 4375240.31537583]]}, "properties": {"highway": "footway"}}, {"type": "Feature", "geometry": {"type": "LineString", "coordinates": [[693433.2513453178, 4375289.788096656], [693433.3622323477, 4375305.662279018]]}, "properties": {"highway": "service"}}, {"type": "Feature", "geometry": {"type": "LineString", "coordinates": [[693433.2513453178, 4375289.788096656], [693433.2349895849, 4375287.344223672]]}, "properties": {"highway": "service"}}, {"type": "Feature", "geometry": {"type": "LineString", "coordinates": [[693433.2513453178, 4375289.788096656], [693427.4340415412, 4375289.831521409]]}, "properties": {"highway": "footway"}}, {"type": "Feature", "geometry": {"type": "LineString", "coordinates": [[693427.4340415412, 4375289.831521409], [693433.2513453178, 4375289.788096656]]}, "properties": {"highway": "footway"}}, {"type": "Feature", "geometry": {"type": "LineString", "coordinates": [[693427.4340415412, 4375289.831521409], [693425.867727066, 4375289.847909472]]}, "properties": {"highway": "footway"}}, {"type": "Feature", "geometry": {"type": "LineString", "coordinates": [[693427.4340415412, 4375289.831521409], [693427.3035901156, 4375317.428299521]]}, "properties": {"highway": "footway"}}, {"type": "Feature", "geometry": {"type": "LineString", "coordinates": [[693427.4340415412, 4375289.831521409], [693427.5164697767, 4375273.106959238]]}, "properties": {"highway": "footway"}}, {"type": "Feature", "geometry": {"type": "LineString", "coordinates": [[693425.867727066, 4375289.847909472], [693427.4340415412, 4375289.831521409]]}, "properties": {"highway": "footway"}}, {"type": "Feature", "geometry": {"type": "LineString", "coordinates": [[693433.445673229, 4375317.470739747], [693433.4642473294, 4375319.825815066]]}, "properties": {"highway": "service"}}, {"type": "Feature", "geometry": {"type": "LineString", "coordinates": [[693433.445673229, 4375317.470739747], [693433.3622323477, 4375305.662279018]]}, "properties": {"highway": "service"}}, {"type": "Feature", "geometry": {"type": "LineString", "coordinates": [[693433.445673229, 4375317.470739747], [693427.3035901156, 4375317.428299521]]}, "properties": {"highway": "footway"}}, {"type": "Feature", "geometry": {"type": "LineString", "coordinates": [[693427.3035901156, 4375317.428299521], [693433.445673229, 4375317.470739747]]}, "properties": {"highway": "footway"}}, {"type": "Feature", "geometry": {"type": "LineString", "coordinates": [[693427.3035901156, 4375317.428299521], [693425.7381134257, 4375317.411388238]]}, "properties": {"highway": "footway"}}, {"type": "Feature", "geometry": {"type": "LineString", "coordinates": [[693427.3035901156, 4375317.428299521], [693427.1859005071, 4375342.10434732]]}, "properties": {"highway": "footway"}}, {"type": "Feature", "geometry": {"type": "LineString", "coordinates": [[693427.3035901156, 4375317.428299521], [693427.4340415412, 4375289.831521409]]}, "properties": {"highway": "footway"}}, {"type": "Feature", "geometry": {"type": "LineString", "coordinates": [[693425.7381134257, 4375317.411388238], [693427.3035901156, 4375317.428299521]]}, "properties": {"highway": "footway"}}, {"type": "Feature", "geometry": {"type": "LineString", "coordinates": [[693362.3702830152, 4375342.228464516], [693362.4366504526, 4375302.035156627]]}, "properties": {"highway": "service"}}, {"type": "Feature", "geometry": {"type": "LineString", "coordinates": [[693427.1859005071, 4375342.10434732], [693427.3035901156, 4375317.428299521]]}, "properties": {"highway": "footway"}}, {"type": "Feature", "geometry": {"type": "LineString", "coordinates": [[693427.5164697767, 4375273.106959238], [693427.4340415412, 4375289.831521409]]}, "properties": {"highway": "footway"}}]}