{"type": "FeatureCollection", "features": [{"type": "Feature", "geometry": {"type": "LineString", "coordinates": [[694487.2076967084, 4376764.2788290605], [694620.5604018572, 4376764.655943387]]}, "properties": {"highway": "service"}}, {"type": "Feature", "geometry": {"type": "LineString", "coordinates": [[694487.2076967084, 4376764.2788290605], [694487.2853549151, 4376746.476617263]]}, "properties": {"highway": "service"}}, {"type": "Feature", "geometry": {"type": "LineString", "coordinates": [[694487.821817412, 4376619.062062778], [694620.1507214356, 4376620.568382923]]}, "properties": {"highway": "footway"}}, {"type": "Feature", "geometry": {"type": "LineString", "coordinates": [[694487.821817412, 4376619.062062778], [694487.7815126579, 4376626.824685164]]}, "properties": {"highway": "service"}}, {"type": "Feature", "geometry": {"type": "LineString", "coordinates": [[694487.821817412, 4376619.062062778], [694487.8612844372, 4376611.3327397555]]}, "properties": {"highway": "service"}}, {"type": "Feature", "geometry": {"type": "LineString", "coordinates": [[694620.5604018572, 4376764.655943387], [694487.2076967084, 4376764.2788290605]]}, "properties": {"highway": "service"}}, {"type": "Feature", "geometry": {"type": "LineString", "coordinates": [[694620.1507214356, 4376620.568382923], [694487.821817412, 4376619.062062778]]}, "properties": {"highway": "footway"}}, {"type": "Feature", "geometry": {"type": "LineString", "coordinates": [[694487.2853549151, 4376746.476617263], [694487.2076967084, 4376764.2788290605]]}, "properties": {"highway": "service"}}, {"type": "Feature", "geometry": {"type": "LineString", "coordinates": [[694487.2853549151, 4376746.476617263], [694487.3520194192, 4376729.795914081]]}, "properties": {"highway": "service"}}, {"type": "Feature", "geometry": {"type": "LineString", "coordinates": [[694487.3520194192, 4376729.795914081], [694487.2853549151, 4376746.476617263]]}, "properties": {"highway": "service"}}, {"type": "Feature", "geometry": {"type": "LineString", "coordinates": [[694487.3520194192, 4376729.795914081], [694487.4270526137, 4376712.782218463]]}, "properties": {"highway": "service"}}, {"type": "Feature", "geometry": {"type": "LineString", "coordinates": [[694487.3520194192, 4376729.795914081], [694558.1009824283, 4376730.019950046], [694620.4632073191, 4376730.222452016]]}, "properties": {"highway": "service"}}, {"type": "Feature", "geometry": {"type": "LineString", "coordinates": [[694487.4270526137, 4376712.782218463], [694487.3520194192, 4376729.795914081]]}, "properties": {"highway": "service"}}, {"type": "Feature", "geometry": {"type": "LineString", "coordinates": [[694487.4270526137, 4376712.782218463], [694487.4967809063, 4376695.979418717]]}, "properties": {"highway": "service"}}, {"type": "Feature", "geometry": {"type": "LineString", "coordinates": [[694487.4967809063, 4376695.979418717], [694487.4270526137, 4376712.782218463]]}, "properties": {"highway": "service"}}, {"type": "Feature", "geometry": {"type": "LineString", "coordinates": [[694487.4967809063, 4376695.979418717], [694487.5676760139, 4376678.787911626]]}, "properties": {"highway": "service"}}, {"type": "Feature", "geometry": {"type": "LineString", "coordinates": [[694487.4967809063, 4376695.979418717], [694620.3659803191, 4376697.4994073305]]}, "properties": {"highway": "service"}}, {"type": "Feature", "geometry": {"type": "LineString", "coordinates": [[694487.5676760139, 4376678.787911626], [694487.4967809063, 4376695.979418717]]}, "properties": {"highway": "service"}}, {"type": "Feature", "geometry": {"type": "LineString", "coordinates": [[694487.5676760139, 4376678.787911626], [694487.6426469025, 4376662.11852595]]}, "properties": {"highway": "service"}}, {"type": "Feature", "geometry": {"type": "LineString", "coordinates": [[694487.6426469025, 4376662.11852595], [694487.5676760139, 4376678.787911626]]}, "properties": {"highway": "service"}}, {"type": "Feature", "geometry": {"type": "LineString", "coordinates": [[694487.6426469025, 4376662.11852595], [694487.7141475361, 4376644.56051148]]}, "properties": {"highway": "service"}}, {"type": "Feature", "geometry": {"type": "LineString", "coordinates": [[694487.6426469025, 4376662.11852595], [694620.2739447079, 4376663.543641769]]}, "properties": {"highway": "service"}}, {"type": "Feature", "geometry": {"type": "LineString", "coordinates": [[694487.7141475361, 4376644.56051148], [694487.6426469025, 4376662.11852595]]}, "properties": {"highway": "service"}}, {"type": "Feature", "geometry": {"type": "LineString", "coordinates": [[694487.7141475361, 4376644.56051148], [694487.7815126579, 4376626.824685164]]}, "properties": {"highway": "service"}}, {"type": "Feature", "geometry": {"type": "LineString", "coordinates": [[694487.7815126579, 4376626.824685164], [694487.7141475361, 4376644.56051148]]}, "properties": {"highway": "service"}}, {"type": "Feature", "geometry": {"type": "LineString", "coordinates": [[694487.7815126579, 4376626.824685164], [694487.821817412, 4376619.062062778]]}, "properties": {"highway": "service"}}, {"type": "Feature", "geometry": {"type": "LineString", "coordinates": [[694487.7815126579, 4376626.824685164], [694571.5417288665, 4376627.942341441], [694620.1723588646, 4376628.5991340075]]}, "properties": {"highway": "service"}}, {"type": "Feature", "geometry": {"type": "LineString", "coordinates": [[694487.8612844372, 4376611.3327397555], [694487.821817412, 4376619.062062778]]}, "properties": {"highway": "service"}}, {"type": "Feature", "geometry": {"type": "LineString", "coordinates": [[694487.8612844372, 4376611.3327397555], [694487.9313807329, 4376593.830225358]]}, "properties": {"highway": "service"}}, {"type": "Feature", "geometry": {"type": "LineString", "coordinates": [[694487.9313807329, 4376593.830225358], [694487.8612844372, 4376611.3327397555]]}, "properties": {"highway": "service"}}, {"type": "Feature", "geometry": {"type": "LineString", "coordinates": [[694620.1281272401, 4376613.259549003], [694536.2842677094, 4376612.039312969], [694487.8612844372, 4376611.3327397555]]}, "properties": {"highway": "service"}}, {"type": "Feature", "geometry": {"type": "LineString", "coordinates": [[694620.2204205465, 4376645.838076374], [694579.3083685276, 4376645.442048712], [694519.9828029176, 4376644.872002206], [694487.7141475361, 4376644.56051148]]}, "properties": {"highway": "service"}}, {"type": "Feature", "geometry": {"type": "LineString", "coordinates": [[694620.5105295163, 4376746.806078379], [694487.2853549151, 4376746.476617263]]}, "properties": {"highway": "service"}}, {"type": "Feature", "geometry": {"type": "LineString", "coordinates": [[694620.4148839326, 4376712.994607235], [694487.4270526137, 4376712.782218463]]}, "properties": {"highway": "service"}}, {"type": "Feature", "geometry": {"type": "LineString", "coordinates": [[694620.3245122803, 4376680.682687173], [694487.5676760139, 4376678.787911626]]}, "properties": {"highway": "service"}}]}