{"type": "FeatureCollection", "features": [{"type": "Feature", "geometry": {"type": "LineString", "coordinates": [[694366.8897334039, 4374984.452629997], [694366.704546409, 4375013.414338106], [694366.5382767543, 4375039.566519122]]}, "properties": {"highway": "residential"}}, {"type": "Feature", "geometry": {"type": "LineString", "coordinates": [[694365.1821708495, 4375248.094738709], [694357.835911131, 4375248.032431304]]}, "properties": {"highway": "residential"}}, {"type": "Feature", "geometry": {"type": "LineString", "coordinates": [[694365.1821708495, 4375248.094738709], [694365.6000460268, 4375183.830547948]]}, "properties": {"highway": "residential"}}, {"type": "Feature", "geometry": {"type": "LineString", "coordinates": [[694365.1821708495, 4375248.094738709], [694365.1003137446, 4375259.577049423]]}, "properties": {"highway": "residential"}}, {"type": "Feature", "geometry": {"type": "LineString", "coordinates": [[694228.1163046854, 4375246.886300509], [694238.4215858311, 4375246.978318242]]}, "properties": {"highway": "residential"}}, {"type": "Feature", "geometry": {"type": "LineString", "coordinates": [[694432.6655173445, 4375049.013165646], [694457.9338912636, 4375049.103715438]]}, "properties": {"highway": "footway"}}, {"type": "Feature", "geometry": {"type": "LineString", "coordinates": [[694432.6655173445, 4375049.013165646], [694430.7385471152, 4375048.998080817]]}, "properties": {"highway": "footway"}}, {"type": "Feature", "geometry": {"type": "LineString", "coordinates": [[694432.6655173445, 4375049.013165646], [694445.169074245, 4375063.677172575]]}, "properties": {"highway": "footway"}}, {"type": "Feature", "geometry": {"type": "LineString", "coordinates": [[694491.9202119774, 4375066.584430656], [694514.6366032612, 4375090.501656893]]}, "properties": {"highway": "footway"}}, {"type": "Feature", "geometry": {"type": "LineString", "coordinates": [[694491.9202119774, 4375066.584430656], [694469.5775226539, 4375090.457877826]]}, "properties": {"highway": "footway"}}, {"type": "Feature", "geometry": {"type": "LineString", "coordinates": [[694491.9202119774, 4375066.584430656], [694491.7751241599, 4375090.849023061]]}, "properties": {"highway": "footway"}}, {"type": "Feature", "geometry": {"type": "LineString", "coordinates": [[694491.9202119774, 4375066.584430656], [694491.965270095, 4375059.654954078]]}, "properties": {"highway": "footway"}}, {"type": "Feature", "geometry": {"type": "LineString", "coordinates": [[694469.5775226539, 4375090.457877826], [694491.9202119774, 4375066.584430656]]}, "properties": {"highway": "footway"}}, {"type": "Feature", "geometry": {"type": "LineString", "coordinates": [[694469.5775226539, 4375090.457877826], [694469.1716411456, 4375140.1725722505]]}, "properties": {"highway": "footway"}}, {"type": "Feature", "geometry": {"type": "LineString", "coordinates": [[694469.5775226539, 4375090.457877826], [694491.6327721238, 4375115.346926852]]}, "properties": {"highway": "footway"}}, {"type": "Feature", "geometry": {"type": "LineString", "coordinates": [[694469.5775226539, 4375090.457877826], [694445.169074245, 4375063.677172575]]}, "properties": {"highway": "footway"}}, {"type": "Feature", "geometry": {"type": "LineString", "coordinates": [[694469.5775226539, 4375090.457877826], [694491.7751241599, 4375090.849023061]]}, "properties": {"highway": "footway"}}, {"type": "Feature", "geometry": {"type": "LineString", "coordinates": [[694469.5775226539, 4375090.457877826], [694439.6134733676, 4375090.626948867], [694434.3404061896, 4375084.752300599]]}, "properties": {"highway": "footway"}}, {"type": "Feature", "geometry": {"type": "LineString", "coordinates": [[694514.1031744105, 4375139.802211771], [694491.6327721238, 4375115.346926852]]}, "properties": {"highway": "footway"}}, {"type": "Feature", "geometry": {"type": "LineString", "coordinates": [[694469.1716411456, 4375140.1725722505], [694469.5775226539, 4375090.457877826]]}, "properties": {"highway": "footway"}}, {"type": "Feature", "geometry": {"type": "LineString", "coordinates": [[694469.1716411456, 4375140.1725722505], [694491.6327721238, 4375115.346926852]]}, "properties": {"highway": "footway"}}, {"type": "Feature", "geometry": {"type": "LineString", "coordinates": [[694469.1716411456, 4375140.1725722505], [694469.1146054956, 4375147.579337723]]}, "properties": {"highway": "footway"}}, {"type": "Feature", "geometry": {"type": "LineString", "coordinates": [[694514.2270315989, 4375148.568548934], [694491.4379556492, 4375148.09582586]]}, "properties": {"highway": "footway"}}, {"type": "Feature", "geometry": {"type": "LineString", "coordinates": [[694389.3559107567, 4375184.5160031365], [694373.4181782561, 4375183.949136155]]}, "properties": {"highway": "service"}}, {"type": "Feature", "geometry": {"type": "LineString", "coordinates": [[694389.3559107567, 4375184.5160031365], [694399.5766614904, 4375180.441079824], [694407.6423849578, 4375179.266432481]]}, "properties": {"highway": "service"}}, {"type": "Feature", "geometry": {"type": "LineString", "coordinates": [[694453.0283836169, 4375147.097434636], [694469.1146054956, 4375147.579337723]]}, "properties": {"highway": "footway"}}, {"type": "Feature", "geometry": {"type": "LineString", "coordinates": [[694457.9338912636, 4375049.103715438], [694445.169074245, 4375063.677172575]]}, "properties": {"highway": "footway"}}, {"type": "Feature", "geometry": {"type": "LineString", "coordinates": [[694457.9338912636, 4375049.103715438], [694462.2604882498, 4375049.15688071]]}, "properties": {"highway": "footway"}}, {"type": "Feature", "geometry": {"type": "LineString", "coordinates": [[694457.9338912636, 4375049.103715438], [694432.6655173445, 4375049.013165646]]}, "properties": {"highway": "footway"}}, {"type": "Feature", "geometry": {"type": "LineString", "coordinates": [[694428.9757851094, 4375091.77028145], [694434.3404061896, 4375084.752300599]]}, "properties": {"highway": "footway"}}, {"type": "Feature", "geometry": {"type": "LineString", "coordinates": [[694491.1057756419, 4375205.142838014], [694490.9837759614, 4375224.720968554]]}, "properties": {"highway": "footway"}}, {"type": "Feature", "geometry": {"type": "LineString", "coordinates": [[694491.1057756419, 4375205.142838014], [694491.2531698057, 4375180.445135816]]}, "properties": {"highway": "footway"}}, {"type": "Feature", "geometry": {"type": "LineString", "coordinates": [[694491.1057756419, 4375205.142838014], [694513.4753028771, 4375205.527279367]]}, "properties": {"highway": "footway"}}, {"type": "Feature", "geometry": {"type": "LineString", "coordinates": [[694491.1057756419, 4375205.142838014], [694468.4178712327, 4375202.362511557]]}, "properties": {"highway": "footway"}}, {"type": "Feature", "geometry": {"type": "LineString", "coordinates": [[694514.6366032612, 4375090.501656893], [694491.9202119774, 4375066.584430656]]}, "properties": {"highway": "footway"}}, {"type": "Feature", "geometry": {"type": "LineString", "coordinates": [[694514.6366032612, 4375090.501656893], [694491.6327721238, 4375115.346926852]]}, "properties": {"highway": "footway"}}, {"type": "Feature", "geometry": {"type": "LineString", "coordinates": [[694514.6366032612, 4375090.501656893], [694491.7751241599, 4375090.849023061]]}, "properties": {"highway": "footway"}}, {"type": "Feature", "geometry": {"type": "LineString", "coordinates": [[694491.6327721238, 4375115.346926852], [694469.1716411456, 4375140.1725722505]]}, "properties": {"highway": "footway"}}, {"type": "Feature", "geometry": {"type": "LineString", "coordinates": [[694491.6327721238, 4375115.346926852], [694514.6366032612, 4375090.501656893]]}, "properties": {"highway": "footway"}}, {"type": "Feature", "geometry": {"type": "LineString", "coordinates": [[694491.6327721238, 4375115.346926852], [694514.1031744105, 4375139.802211771]]}, "properties": {"highway": "footway"}}, {"type": "Feature", "geometry": {"type": "LineString", "coordinates": [[694491.6327721238, 4375115.346926852], [694469.5775226539, 4375090.457877826]]}, "properties": {"highway": "footway"}}, {"type": "Feature", "geometry": {"type": "LineString", "coordinates": [[694491.6327721238, 4375115.346926852], [694491.4379556492, 4375148.09582586]]}, "properties": {"highway": "footway"}}, {"type": "Feature", "geometry": {"type": "LineString", "coordinates": [[694491.6327721238, 4375115.346926852], [694491.7751241599, 4375090.849023061]]}, "properties": {"highway": "footway"}}, {"type": "Feature", "geometry": {"type": "LineString", "coordinates": [[694365.6000460268, 4375183.830547948], [694373.4181782561, 4375183.949136155]]}, "properties": {"highway": "service"}}, {"type": "Feature", "geometry": {"type": "LineString", "coordinates": [[694365.6000460268, 4375183.830547948], [694365.9183778939, 4375134.835624816]]}, "properties": {"highway": "residential"}}, {"type": "Feature", "geometry": {"type": "LineString", "coordinates": [[694365.6000460268, 4375183.830547948], [694365.1821708495, 4375248.094738709]]}, "properties": {"highway": "residential"}}, {"type": "Feature", "geometry": {"type": "LineString", "coordinates": [[694514.291484846, 4375157.644382318], [694491.2531698057, 4375180.445135816]]}, "properties": {"highway": "footway"}}, {"type": "Feature", "geometry": {"type": "LineString", "coordinates": [[694491.2531698057, 4375180.445135816], [694491.1057756419, 4375205.142838014]]}, "properties": {"highway": "footway"}}, {"type": "Feature", "geometry": {"type": "LineString", "coordinates": [[694491.2531698057, 4375180.445135816], [694491.4379556492, 4375148.09582586]]}, "properties": {"highway": "footway"}}, {"type": "Feature", "geometry": {"type": "LineString", "coordinates": [[694491.2531698057, 4375180.445135816], [694513.4753028771, 4375205.527279367]]}, "properties": {"highway": "footway"}}, {"type": "Feature", "geometry": {"type": "LineString", "coordinates": [[694491.2531698057, 4375180.445135816], [694469.0426013063, 4375156.9516209895]]}, "properties": {"highway": "footway"}}, {"type": "Feature", "geometry": {"type": "LineString", "coordinates": [[694491.2531698057, 4375180.445135816], [694468.4178712327, 4375202.362511557]]}, "properties": {"highway": "footway"}}, {"type": "Feature", "geometry": {"type": "LineString", "coordinates": [[694491.2531698057, 4375180.445135816], [694514.291484846, 4375157.644382318]]}, "properties": {"highway": "footway"}}, {"type": "Feature", "geometry": {"type": "LineString", "coordinates": [[694490.9837759614, 4375224.720968554], [694513.5593835324, 4375224.7773897275]]}, "properties": {"highway": "footway"}}, {"type": "Feature", "geometry": {"type": "LineString", "coordinates": [[694490.9837759614, 4375224.720968554], [694490.7033783762, 4375272.173058185]]}, "properties": {"highway": "footway"}}, {"type": "Feature", "geometry": {"type": "LineString", "coordinates": [[694490.9837759614, 4375224.720968554], [694491.1057756419, 4375205.142838014]]}, "properties": {"highway": "footway"}}, {"type": "Feature", "geometry": {"type": "LineString", "coordinates": [[694490.9837759614, 4375224.720968554], [694513.4753028771, 4375205.527279367]]}, "properties": {"highway": "footway"}}, {"type": "Feature", "geometry": {"type": "LineString", "coordinates": [[694490.9837759614, 4375224.720968554], [694467.9135595275, 4375243.322625719]]}, "properties": {"highway": "footway"}}, {"type": "Feature", "geometry": {"type": "LineString", "coordinates": [[694490.9837759614, 4375224.720968554], [694468.4178712327, 4375202.362511557]]}, "properties": {"highway": "footway"}}, {"type": "Feature", "geometry": {"type": "LineString", "coordinates": [[694490.9837759614, 4375224.720968554], [694493.8993800676, 4375229.903339019], [694536.0888366346, 4375269.459647502], [694543.3773074031, 4375273.87451986]]}, "properties": {"highway": "path"}}, {"type": "Feature", "geometry": {"type": "LineString", "coordinates": [[694228.4958917656, 4375070.954221822], [694239.3232556692, 4375070.13746929]]}, "properties": {"highway": "residential"}}, {"type": "Feature", "geometry": {"type": "LineString", "coordinates": [[694366.3244344188, 4375071.381940893], [694354.135219653, 4375071.264675407]]}, "properties": {"highway": "residential"}}, {"type": "Feature", "geometry": {"type": "LineString", "coordinates": [[694366.3244344188, 4375071.381940893], [694366.5382767543, 4375039.566519122]]}, "properties": {"highway": "residential"}}, {"type": "Feature", "geometry": {"type": "LineString", "coordinates": [[694366.3244344188, 4375071.381940893], [694365.9183778939, 4375134.835624816]]}, "properties": {"highway": "residential"}}, {"type": "Feature", "geometry": {"type": "LineString", "coordinates": [[694513.4753028771, 4375205.527279367], [694490.9837759614, 4375224.720968554]]}, "properties": {"highway": "footway"}}, {"type": "Feature", "geometry": {"type": "LineString", "coordinates": [[694513.4753028771, 4375205.527279367], [694491.2531698057, 4375180.445135816]]}, "properties": {"highway": "footway"}}, {"type": "Feature", "geometry": {"type": "LineString", "coordinates": [[694513.4753028771, 4375205.527279367], [694491.1057756419, 4375205.142838014]]}, "properties": {"highway": "footway"}}, {"type": "Feature", "geometry": {"type": "LineString", "coordinates": [[694513.5593835324, 4375224.7773897275], [694490.9837759614, 4375224.720968554]]}, "properties": {"highway": "footway"}}, {"type": "Feature", "geometry": {"type": "LineString", "coordinates": [[694469.0426013063, 4375156.9516209895], [694491.2531698057, 4375180.445135816]]}, "properties": {"highway": "footway"}}, {"type": "Feature", "geometry": {"type": "LineString", "coordinates": [[694469.0426013063, 4375156.9516209895], [694468.6745053519, 4375183.58745336], [694468.5224127711, 4375194.434922023]]}, "properties": {"highway": "footway"}}, {"type": "Feature", "geometry": {"type": "LineString", "coordinates": [[694469.0426013063, 4375156.9516209895], [694469.0672835736, 4375154.941920365], [694469.1146054956, 4375147.579337723]]}, "properties": {"highway": "footway"}}, {"type": "Feature", "geometry": {"type": "LineString", "coordinates": [[694469.0426013063, 4375156.9516209895], [694464.0925885504, 4375160.481370094], [694453.1337397719, 4375176.466310883]]}, "properties": {"highway": "footway"}}, {"type": "Feature", "geometry": {"type": "LineString", "coordinates": [[694365.0066433235, 4375274.613219742], [694365.1003137446, 4375259.577049423]]}, "properties": {"highway": "residential"}}, {"type": "Feature", "geometry": {"type": "LineString", "coordinates": [[694491.4379556492, 4375148.09582586], [694491.2531698057, 4375180.445135816]]}, "properties": {"highway": "footway"}}, {"type": "Feature", "geometry": {"type": "LineString", "coordinates": [[694491.4379556492, 4375148.09582586], [694491.6327721238, 4375115.346926852]]}, "properties": {"highway": "footway"}}, {"type": "Feature", "geometry": {"type": "LineString", "coordinates": [[694491.4379556492, 4375148.09582586], [694514.2270315989, 4375148.568548934]]}, "properties": {"highway": "footway"}}, {"type": "Feature", "geometry": {"type": "LineString", "coordinates": [[694491.4379556492, 4375148.09582586], [694473.7936946384, 4375147.641369356], [694469.1146054956, 4375147.579337723]]}, "properties": {"highway": "footway"}}, {"type": "Feature", "geometry": {"type": "LineString", "coordinates": [[694445.169074245, 4375063.677172575], [694431.0335284525, 4375080.071040942]]}, "properties": {"highway": "footway"}}, {"type": "Feature", "geometry": {"type": "LineString", "coordinates": [[694445.169074245, 4375063.677172575], [694457.9338912636, 4375049.103715438]]}, "properties": {"highway": "footway"}}, {"type": "Feature", "geometry": {"type": "LineString", "coordinates": [[694445.169074245, 4375063.677172575], [694469.5775226539, 4375090.457877826]]}, "properties": {"highway": "footway"}}, {"type": "Feature", "geometry": {"type": "LineString", "coordinates": [[694445.169074245, 4375063.677172575], [694432.6655173445, 4375049.013165646]]}, "properties": {"highway": "footway"}}, {"type": "Feature", "geometry": {"type": "LineString", "coordinates": [[694491.7751241599, 4375090.849023061], [694514.6366032612, 4375090.501656893]]}, "properties": {"highway": "footway"}}, {"type": "Feature", "geometry": {"type": "LineString", "coordinates": [[694491.7751241599, 4375090.849023061], [694469.5775226539, 4375090.457877826]]}, "properties": {"highway": "footway"}}, {"type": "Feature", "geometry": {"type": "LineString", "coordinates": [[694491.7751241599, 4375090.849023061], [694491.6327721238, 4375115.346926852]]}, "properties": {"highway": "footway"}}, {"type": "Feature", "geometry": {"type": "LineString", "coordinates": [[694491.7751241599, 4375090.849023061], [694491.9202119774, 4375066.584430656]]}, "properties": {"highway": "footway"}}, {"type": "Feature", "geometry": {"type": "LineString", "coordinates": [[694365.9183778939, 4375134.835624816], [694366.3244344188, 4375071.381940893]]}, "properties": {"highway": "residential"}}, {"type": "Feature", "geometry": {"type": "LineString", "coordinates": [[694365.9183778939, 4375134.835624816], [694365.6000460268, 4375183.830547948]]}, "properties": {"highway": "residential"}}, {"type": "Feature", "geometry": {"type": "LineString", "coordinates": [[694365.9183778939, 4375134.835624816], [694357.0500385402, 4375134.7351025585]]}, "properties": {"highway": "service"}}, {"type": "Feature", "geometry": {"type": "LineString", "coordinates": [[694268.0915083326, 4375133.723532686], [694357.0500385402, 4375134.7351025585]]}, "properties": {"highway": "service"}}, {"type": "Feature", "geometry": {"type": "LineString", "coordinates": [[694453.1337397719, 4375176.466310883], [694464.0925885504, 4375160.481370094], [694469.0426013063, 4375156.9516209895]]}, "properties": {"highway": "footway"}}, {"type": "Feature", "geometry": {"type": "LineString", "coordinates": [[694453.1337397719, 4375176.466310883], [694456.1978427051, 4375179.164484225], [694458.5364024164, 4375183.343840593], [694458.6637098037, 4375187.523174951], [694457.2544604102, 4375190.875325576], [694454.8691489422, 4375194.036352664]]}, "properties": {"highway": "footway"}}, {"type": "Feature", "geometry": {"type": "LineString", "coordinates": [[694453.1337397719, 4375176.466310883], [694450.8932500518, 4375175.232707329], [694447.5221047171, 4375174.481609318], [694442.3937164563, 4375174.152850079], [694429.4371445858, 4375174.105032473]]}, "properties": {"highway": "footway"}}, {"type": "Feature", "geometry": {"type": "LineString", "coordinates": [[694431.0335284525, 4375080.071040942], [694445.169074245, 4375063.677172575]]}, "properties": {"highway": "footway"}}, {"type": "Feature", "geometry": {"type": "LineString", "coordinates": [[694431.0335284525, 4375080.071040942], [694434.3404061896, 4375084.752300599]]}, "properties": {"highway": "footway"}}, {"type": "Feature", "geometry": {"type": "LineString", "coordinates": [[694431.0335284525, 4375080.071040942], [694430.1615063981, 4375077.450158776], [694430.7385471152, 4375048.998080817]]}, "properties": {"highway": "footway"}}, {"type": "Feature", "geometry": {"type": "LineString", "coordinates": [[694374.2439113692, 4375048.967503817], [694382.8027927687, 4375049.060268089]]}, "properties": {"highway": "footway"}}, {"type": "Feature", "geometry": {"type": "LineString", "coordinates": [[694374.2439113692, 4375048.967503817], [694374.1643532048, 4375057.61765187]]}, "properties": {"highway": "footway"}}, {"type": "Feature", "geometry": {"type": "LineString", "coordinates": [[694374.2439113692, 4375048.967503817], [694373.9141546225, 4375039.485178752]]}, "properties": {"highway": "footway"}}, {"type": "Feature", "geometry": {"type": "LineString", "coordinates": [[694491.965270095, 4375059.654954078], [694491.9202119774, 4375066.584430656]]}, "properties": {"highway": "footway"}}, {"type": "Feature", "geometry": {"type": "LineString", "coordinates": [[694462.2604882498, 4375049.15688071], [694457.9338912636, 4375049.103715438]]}, "properties": {"highway": "footway"}}, {"type": "Feature", "geometry": {"type": "LineString", "coordinates": [[694404.8179333229, 4374968.334081184], [694407.3549498622, 4374970.097130951], [694409.2833517175, 4374972.111457136], [694410.1301565382, 4374974.709488465], [694409.5372531358, 4374980.159110942], [694407.5342509109, 4374993.447992868], [694407.0153255274, 4375001.776118213], [694407.6602867725, 4375012.410357094], [694408.9386231613, 4375022.149752149], [694409.8258965292, 4375029.302562546], [694408.5337277917, 4375032.446634259], [694405.5938260878, 4375034.049911579], [694392.4991421264, 4375036.40886294]]}, "properties": {"highway": "service"}}, {"type": "Feature", "geometry": {"type": "LineString", "coordinates": [[694366.5382767543, 4375039.566519122], [694366.3244344188, 4375071.381940893]]}, "properties": {"highway": "residential"}}, {"type": "Feature", "geometry": {"type": "LineString", "coordinates": [[694366.5382767543, 4375039.566519122], [694373.9141546225, 4375039.485178752]]}, "properties": {"highway": "service"}}, {"type": "Feature", "geometry": {"type": "LineString", "coordinates": [[694366.5382767543, 4375039.566519122], [694366.704546409, 4375013.414338106], [694366.8897334039, 4374984.452629997]]}, "properties": {"highway": "residential"}}, {"type": "Feature", "geometry": {"type": "LineString", "coordinates": [[694418.272746538, 4374968.427671056], [694416.9295906068, 4374973.258685144], [694414.97270681, 4374983.6831862405], [694413.9585322172, 4374992.887411204], [694413.6235381073, 4375003.141621799], [694414.4506510779, 4375014.402414249], [694415.2732964614, 4375019.332254709], [694421.1455239621, 4375034.24060669], [694427.7539231153, 4375048.956428917]]}, "properties": {"highway": "footway"}}, {"type": "Feature", "geometry": {"type": "LineString", "coordinates": [[694427.7539231153, 4375048.956428917], [694430.7385471152, 4375048.998080817]]}, "properties": {"highway": "footway"}}, {"type": "Feature", "geometry": {"type": "LineString", "coordinates": [[694427.7539231153, 4375048.956428917], [694382.8027927687, 4375049.060268089]]}, "properties": {"highway": "footway"}}, {"type": "Feature", "geometry": {"type": "LineString", "coordinates": [[694427.7539231153, 4375048.956428917], [694421.1455239621, 4375034.24060669], [694415.2732964614, 4375019.332254709], [694414.4506510779, 4375014.402414249], [694413.6235381073, 4375003.141621799], [694413.9585322172, 4374992.887411204], [694414.97270681, 4374983.6831862405], [694416.9295906068, 4374973.258685144], [694418.272746538, 4374968.427671056]]}, "properties": {"highway": "footway"}}, {"type": "Feature", "geometry": {"type": "LineString", "coordinates": [[694392.4991421264, 4375036.40886294], [694377.3906287046, 4375039.128212182], [694375.2320039556, 4375039.429419127], [694373.9141546225, 4375039.485178752]]}, "properties": {"highway": "service"}}, {"type": "Feature", "geometry": {"type": "LineString", "coordinates": [[694392.4991421264, 4375036.40886294], [694405.5938260878, 4375034.049911579], [694408.5337277917, 4375032.446634259], [694409.8258965292, 4375029.302562546], [694408.9386231613, 4375022.149752149], [694407.6602867725, 4375012.410357094], [694407.0153255274, 4375001.776118213], [694407.5342509109, 4374993.447992868], [694409.5372531358, 4374980.159110942], [694410.1301565382, 4374974.709488465], [694409.2833517175, 4374972.111457136], [694407.3549498622, 4374970.097130951], [694404.8179333229, 4374968.334081184]]}, "properties": {"highway": "service"}}, {"type": "Feature", "geometry": {"type": "LineString", "coordinates": [[694392.4991421264, 4375036.40886294], [694390.0558933662, 4375025.773890206], [694388.743309693, 4375014.656404439], [694387.8698351532, 4374996.674878424], [694389.0584370015, 4374980.866525626], [694391.6811721632, 4374966.882373915]]}, "properties": {"highway": "service"}}, {"type": "Feature", "geometry": {"type": "LineString", "coordinates": [[694391.6811721632, 4374966.882373915], [694389.0584370015, 4374980.866525626], [694387.8698351532, 4374996.674878424], [694388.743309693, 4375014.656404439], [694390.0558933662, 4375025.773890206], [694392.4991421264, 4375036.40886294]]}, "properties": {"highway": "service"}}, {"type": "Feature", "geometry": {"type": "LineString", "coordinates": [[694373.9141546225, 4375039.485178752], [694366.5382767543, 4375039.566519122]]}, "properties": {"highway": "service"}}, {"type": "Feature", "geometry": {"type": "LineString", "coordinates": [[694373.9141546225, 4375039.485178752], [694374.2439113692, 4375048.967503817]]}, "properties": {"highway": "footway"}}, {"type": "Feature", "geometry": {"type": "LineString", "coordinates": [[694373.9141546225, 4375039.485178752], [694375.2320039556, 4375039.429419127], [694377.3906287046, 4375039.128212182], [694392.4991421264, 4375036.40886294]]}, "properties": {"highway": "service"}}, {"type": "Feature", "geometry": {"type": "LineString", "coordinates": [[694373.9141546225, 4375039.485178752], [694374.0639215718, 4375032.836006152], [694374.7303269142, 4374970.321832905]]}, "properties": {"highway": "footway"}}, {"type": "Feature", "geometry": {"type": "LineString", "coordinates": [[694373.7223354273, 4375146.826954949], [694387.5707034107, 4375146.99703456]]}, "properties": {"highway": "footway"}}, {"type": "Feature", "geometry": {"type": "LineString", "coordinates": [[694373.7223354273, 4375146.826954949], [694373.7620522714, 4375173.3397317855]]}, "properties": {"highway": "footway"}}, {"type": "Feature", "geometry": {"type": "LineString", "coordinates": [[694373.7223354273, 4375146.826954949], [694374.1643532048, 4375057.61765187]]}, "properties": {"highway": "footway"}}, {"type": "Feature", "geometry": {"type": "LineString", "coordinates": [[694373.7620522714, 4375173.3397317855], [694407.6419757137, 4375173.801906331]]}, "properties": {"highway": "footway"}}, {"type": "Feature", "geometry": {"type": "LineString", "coordinates": [[694373.7620522714, 4375173.3397317855], [694373.4181782561, 4375183.949136155]]}, "properties": {"highway": "footway"}}, {"type": "Feature", "geometry": {"type": "LineString", "coordinates": [[694373.7620522714, 4375173.3397317855], [694373.7223354273, 4375146.826954949]]}, "properties": {"highway": "footway"}}, {"type": "Feature", "geometry": {"type": "LineString", "coordinates": [[694373.4181782561, 4375183.949136155], [694389.3559107567, 4375184.5160031365]]}, "properties": {"highway": "service"}}, {"type": "Feature", "geometry": {"type": "LineString", "coordinates": [[694373.4181782561, 4375183.949136155], [694365.6000460268, 4375183.830547948]]}, "properties": {"highway": "service"}}, {"type": "Feature", "geometry": {"type": "LineString", "coordinates": [[694373.4181782561, 4375183.949136155], [694373.7620522714, 4375173.3397317855]]}, "properties": {"highway": "footway"}}, {"type": "Feature", "geometry": {"type": "LineString", "coordinates": [[694373.4181782561, 4375183.949136155], [694373.29314679, 4375187.899994468], [694373.2473719302, 4375196.917515216]]}, "properties": {"highway": "footway"}}, {"type": "Feature", "geometry": {"type": "LineString", "coordinates": [[694372.8341187065, 4375274.698727466], [694372.8985990032, 4375262.5384684]]}, "properties": {"highway": "footway"}}, {"type": "Feature", "geometry": {"type": "LineString", "coordinates": [[694239.3232556692, 4375070.13746929], [694354.135219653, 4375071.264675407]]}, "properties": {"highway": "residential"}}, {"type": "Feature", "geometry": {"type": "LineString", "coordinates": [[694239.3232556692, 4375070.13746929], [694228.4958917656, 4375070.954221822]]}, "properties": {"highway": "residential"}}, {"type": "Feature", "geometry": {"type": "LineString", "coordinates": [[694239.3232556692, 4375070.13746929], [694239.1073391265, 4375063.312523239]]}, "properties": {"highway": "footway"}}, {"type": "Feature", "geometry": {"type": "LineString", "coordinates": [[694239.3232556692, 4375070.13746929], [694239.5546612786, 4375077.373752893]]}, "properties": {"highway": "footway"}}, {"type": "Feature", "geometry": {"type": "LineString", "coordinates": [[694407.6423849578, 4375179.266432481], [694407.6419757137, 4375173.801906331]]}, "properties": {"highway": "service"}}, {"type": "Feature", "geometry": {"type": "LineString", "coordinates": [[694407.6423849578, 4375179.266432481], [694414.9397630697, 4375178.1946676895], [694419.9347522659, 4375178.353456871], [694429.4391130037, 4375178.136829085]]}, "properties": {"highway": "service"}}, {"type": "Feature", "geometry": {"type": "LineString", "coordinates": [[694407.6652042826, 4375172.192012549], [694407.6419757137, 4375173.801906331]]}, "properties": {"highway": "service"}}, {"type": "Feature", "geometry": {"type": "LineString", "coordinates": [[694407.6419757137, 4375173.801906331], [694429.4371445858, 4375174.105032473]]}, "properties": {"highway": "footway"}}, {"type": "Feature", "geometry": {"type": "LineString", "coordinates": [[694407.6419757137, 4375173.801906331], [694373.7620522714, 4375173.3397317855]]}, "properties": {"highway": "footway"}}, {"type": "Feature", "geometry": {"type": "LineString", "coordinates": [[694407.6419757137, 4375173.801906331], [694407.6652042826, 4375172.192012549]]}, "properties": {"highway": "service"}}, {"type": "Feature", "geometry": {"type": "LineString", "coordinates": [[694407.6419757137, 4375173.801906331], [694407.6423849578, 4375179.266432481]]}, "properties": {"highway": "service"}}, {"type": "Feature", "geometry": {"type": "LineString", "coordinates": [[694429.4391130037, 4375178.136829085], [694429.4371445858, 4375174.105032473]]}, "properties": {"highway": "service"}}, {"type": "Feature", "geometry": {"type": "LineString", "coordinates": [[694429.4391130037, 4375178.136829085], [694441.1199622845, 4375178.6190814655], [694448.4381273492, 4375179.802538954], [694452.9568949959, 4375185.902600048], [694451.4813705576, 4375191.207873404]]}, "properties": {"highway": "service"}}, {"type": "Feature", "geometry": {"type": "LineString", "coordinates": [[694429.393261279, 4375172.426812145], [694429.4371445858, 4375174.105032473]]}, "properties": {"highway": "service"}}, {"type": "Feature", "geometry": {"type": "LineString", "coordinates": [[694429.4371445858, 4375174.105032473], [694407.6419757137, 4375173.801906331]]}, "properties": {"highway": "footway"}}, {"type": "Feature", "geometry": {"type": "LineString", "coordinates": [[694429.4371445858, 4375174.105032473], [694429.393261279, 4375172.426812145]]}, "properties": {"highway": "service"}}, {"type": "Feature", "geometry": {"type": "LineString", "coordinates": [[694429.4371445858, 4375174.105032473], [694429.4391130037, 4375178.136829085]]}, "properties": {"highway": "service"}}, {"type": "Feature", "geometry": {"type": "LineString", "coordinates": [[694429.4371445858, 4375174.105032473], [694442.3937164563, 4375174.152850079], [694447.5221047171, 4375174.481609318], [694450.8932500518, 4375175.232707329], [694453.1337397719, 4375176.466310883]]}, "properties": {"highway": "footway"}}, {"type": "Feature", "geometry": {"type": "LineString", "coordinates": [[694387.5707034107, 4375146.99703456], [694373.7223354273, 4375146.826954949]]}, "properties": {"highway": "footway"}}, {"type": "Feature", "geometry": {"type": "LineString", "coordinates": [[694469.1146054956, 4375147.579337723], [694469.1716411456, 4375140.1725722505]]}, "properties": {"highway": "footway"}}, {"type": "Feature", "geometry": {"type": "LineString", "coordinates": [[694469.1146054956, 4375147.579337723], [694453.0283836169, 4375147.097434636]]}, "properties": {"highway": "footway"}}, {"type": "Feature", "geometry": {"type": "LineString", "coordinates": [[694469.1146054956, 4375147.579337723], [694469.0672835736, 4375154.941920365], [694469.0426013063, 4375156.9516209895]]}, "properties": {"highway": "footway"}}, {"type": "Feature", "geometry": {"type": "LineString", "coordinates": [[694469.1146054956, 4375147.579337723], [694473.7936946384, 4375147.641369356], [694491.4379556492, 4375148.09582586]]}, "properties": {"highway": "footway"}}, {"type": "Feature", "geometry": {"type": "LineString", "coordinates": [[694434.3404061896, 4375084.752300599], [694431.0335284525, 4375080.071040942]]}, "properties": {"highway": "footway"}}, {"type": "Feature", "geometry": {"type": "LineString", "coordinates": [[694434.3404061896, 4375084.752300599], [694428.9757851094, 4375091.77028145]]}, "properties": {"highway": "footway"}}, {"type": "Feature", "geometry": {"type": "LineString", "coordinates": [[694434.3404061896, 4375084.752300599], [694439.6134733676, 4375090.626948867], [694469.5775226539, 4375090.457877826]]}, "properties": {"highway": "footway"}}, {"type": "Feature", "geometry": {"type": "LineString", "coordinates": [[694374.1643532048, 4375057.61765187], [694382.8027927687, 4375049.060268089]]}, "properties": {"highway": "footway"}}, {"type": "Feature", "geometry": {"type": "LineString", "coordinates": [[694374.1643532048, 4375057.61765187], [694373.7223354273, 4375146.826954949]]}, "properties": {"highway": "footway"}}, {"type": "Feature", "geometry": {"type": "LineString", "coordinates": [[694374.1643532048, 4375057.61765187], [694374.2439113692, 4375048.967503817]]}, "properties": {"highway": "footway"}}, {"type": "Feature", "geometry": {"type": "LineString", "coordinates": [[694382.8027927687, 4375049.060268089], [694427.7539231153, 4375048.956428917]]}, "properties": {"highway": "footway"}}, {"type": "Feature", "geometry": {"type": "LineString", "coordinates": [[694382.8027927687, 4375049.060268089], [694374.2439113692, 4375048.967503817]]}, "properties": {"highway": "footway"}}, {"type": "Feature", "geometry": {"type": "LineString", "coordinates": [[694382.8027927687, 4375049.060268089], [694374.1643532048, 4375057.61765187]]}, "properties": {"highway": "footway"}}, {"type": "Feature", "geometry": {"type": "LineString", "coordinates": [[694304.9160568067, 4375196.145856993], [694304.0296563457, 4375241.050332046]]}, "properties": {"highway": "service"}}, {"type": "Feature", "geometry": {"type": "LineString", "coordinates": [[694303.9007576192, 4375247.555640837], [694297.6642753088, 4375247.49903791]]}, "properties": {"highway": "residential"}}, {"type": "Feature", "geometry": {"type": "LineString", "coordinates": [[694303.9007576192, 4375247.555640837], [694357.835911131, 4375248.032431304]]}, "properties": {"highway": "residential"}}, {"type": "Feature", "geometry": {"type": "LineString", "coordinates": [[694303.9007576192, 4375247.555640837], [694304.0296563457, 4375241.050332046]]}, "properties": {"highway": "service"}}, {"type": "Feature", "geometry": {"type": "LineString", "coordinates": [[694297.6642753088, 4375247.49903791], [694238.4215858311, 4375246.978318242]]}, "properties": {"highway": "residential"}}, {"type": "Feature", "geometry": {"type": "LineString", "coordinates": [[694297.6642753088, 4375247.49903791], [694303.9007576192, 4375247.555640837]]}, "properties": {"highway": "residential"}}, {"type": "Feature", "geometry": {"type": "LineString", "coordinates": [[694297.6642753088, 4375247.49903791], [694297.5899590936, 4375254.572160086]]}, "properties": {"highway": "service"}}, {"type": "Feature", "geometry": {"type": "LineString", "coordinates": [[694430.7385471152, 4375048.998080817], [694432.6655173445, 4375049.013165646]]}, "properties": {"highway": "footway"}}, {"type": "Feature", "geometry": {"type": "LineString", "coordinates": [[694430.7385471152, 4375048.998080817], [694427.7539231153, 4375048.956428917]]}, "properties": {"highway": "footway"}}, {"type": "Feature", "geometry": {"type": "LineString", "coordinates": [[694430.7385471152, 4375048.998080817], [694430.1615063981, 4375077.450158776], [694431.0335284525, 4375080.071040942]]}, "properties": {"highway": "footway"}}, {"type": "Feature", "geometry": {"type": "LineString", "coordinates": [[694238.4215858311, 4375246.978318242], [694228.1163046854, 4375246.886300509]]}, "properties": {"highway": "residential"}}, {"type": "Feature", "geometry": {"type": "LineString", "coordinates": [[694238.4215858311, 4375246.978318242], [694297.6642753088, 4375247.49903791]]}, "properties": {"highway": "residential"}}, {"type": "Feature", "geometry": {"type": "LineString", "coordinates": [[694238.4215858311, 4375246.978318242], [694238.3956754305, 4375242.868179403], [694238.4275421884, 4375240.569886896]]}, "properties": {"highway": "footway"}}, {"type": "Feature", "geometry": {"type": "LineString", "coordinates": [[694238.4215858311, 4375246.978318242], [694238.3833322707, 4375251.930958002], [694238.3495153321, 4375254.306948693]]}, "properties": {"highway": "footway"}}, {"type": "Feature", "geometry": {"type": "LineString", "coordinates": [[694234.5469062459, 4375257.721242977], [694235.1282084704, 4375255.814367784], [694236.5973190679, 4375254.5295364065], [694238.3495153321, 4375254.306948693]]}, "properties": {"highway": "footway"}}, {"type": "Feature", "geometry": {"type": "LineString", "coordinates": [[694238.3495153321, 4375254.306948693], [694297.5899590936, 4375254.572160086]]}, "properties": {"highway": "footway"}}, {"type": "Feature", "geometry": {"type": "LineString", "coordinates": [[694238.3495153321, 4375254.306948693], [694238.3833322707, 4375251.930958002], [694238.4215858311, 4375246.978318242]]}, "properties": {"highway": "footway"}}, {"type": "Feature", "geometry": {"type": "LineString", "coordinates": [[694238.3495153321, 4375254.306948693], [694236.5973190679, 4375254.5295364065], [694235.1282084704, 4375255.814367784], [694234.5469062459, 4375257.721242977]]}, "properties": {"highway": "footway"}}, {"type": "Feature", "geometry": {"type": "LineString", "coordinates": [[694297.5899590936, 4375254.572160086], [694297.5458948143, 4375259.069280097]]}, "properties": {"highway": "service"}}, {"type": "Feature", "geometry": {"type": "LineString", "coordinates": [[694297.5899590936, 4375254.572160086], [694238.3495153321, 4375254.306948693]]}, "properties": {"highway": "footway"}}, {"type": "Feature", "geometry": {"type": "LineString", "coordinates": [[694356.0526959309, 4375299.856113012], [694356.3034144375, 4375259.378352597]]}, "properties": {"highway": "footway"}}, {"type": "Feature", "geometry": {"type": "LineString", "coordinates": [[694306.3416659101, 4375280.90379658], [694306.1988453898, 4375259.175442441]]}, "properties": {"highway": "footway"}}, {"type": "Feature", "geometry": {"type": "LineString", "coordinates": [[694306.1988453898, 4375259.175442441], [694306.3416659101, 4375280.90379658]]}, "properties": {"highway": "footway"}}, {"type": "Feature", "geometry": {"type": "LineString", "coordinates": [[694306.1988453898, 4375259.175442441], [694297.5458948143, 4375259.069280097]]}, "properties": {"highway": "footway"}}, {"type": "Feature", "geometry": {"type": "LineString", "coordinates": [[694306.1988453898, 4375259.175442441], [694327.844281076, 4375259.263510742]]}, "properties": {"highway": "footway"}}, {"type": "Feature", "geometry": {"type": "LineString", "coordinates": [[694327.4332255777, 4375282.488478101], [694327.844281076, 4375259.263510742]]}, "properties": {"highway": "footway"}}, {"type": "Feature", "geometry": {"type": "LineString", "coordinates": [[694327.844281076, 4375259.263510742], [694327.4332255777, 4375282.488478101]]}, "properties": {"highway": "footway"}}, {"type": "Feature", "geometry": {"type": "LineString", "coordinates": [[694327.844281076, 4375259.263510742], [694306.1988453898, 4375259.175442441]]}, "properties": {"highway": "footway"}}, {"type": "Feature", "geometry": {"type": "LineString", "coordinates": [[694327.844281076, 4375259.263510742], [694356.3034144375, 4375259.378352597]]}, "properties": {"highway": "footway"}}, {"type": "Feature", "geometry": {"type": "LineString", "coordinates": [[694365.1003137446, 4375259.577049423], [694365.1821708495, 4375248.094738709]]}, "properties": {"highway": "residential"}}, {"type": "Feature", "geometry": {"type": "LineString", "coordinates": [[694365.1003137446, 4375259.577049423], [694365.0066433235, 4375274.613219742]]}, "properties": {"highway": "residential"}}, {"type": "Feature", "geometry": {"type": "LineString", "coordinates": [[694365.1003137446, 4375259.577049423], [694372.91725445, 4375259.7400389]]}, "properties": {"highway": "footway"}}, {"type": "Feature", "geometry": {"type": "LineString", "coordinates": [[694365.1003137446, 4375259.577049423], [694358.9345782526, 4375259.444426101], [694356.3034144375, 4375259.378352597]]}, "properties": {"highway": "footway"}}, {"type": "Feature", "geometry": {"type": "LineString", "coordinates": [[694372.91725445, 4375259.7400389], [694372.8985990032, 4375262.5384684]]}, "properties": {"highway": "footway"}}, {"type": "Feature", "geometry": {"type": "LineString", "coordinates": [[694372.91725445, 4375259.7400389], [694373.1169036576, 4375222.326453327]]}, "properties": {"highway": "footway"}}, {"type": "Feature", "geometry": {"type": "LineString", "coordinates": [[694372.91725445, 4375259.7400389], [694365.1003137446, 4375259.577049423]]}, "properties": {"highway": "footway"}}, {"type": "Feature", "geometry": {"type": "LineString", "coordinates": [[694297.5458948143, 4375259.069280097], [694306.1988453898, 4375259.175442441]]}, "properties": {"highway": "footway"}}, {"type": "Feature", "geometry": {"type": "LineString", "coordinates": [[694297.5458948143, 4375259.069280097], [694298.3535014767, 4375310.524830243], [694299.1869999813, 4375312.96702268], [694300.7667373996, 4375314.472770524], [694302.6413314708, 4375315.885960578], [694305.6371150448, 4375316.849709705], [694310.0264538552, 4375317.481924602]]}, "properties": {"highway": "service"}}, {"type": "Feature", "geometry": {"type": "LineString", "coordinates": [[694356.3034144375, 4375259.378352597], [694327.844281076, 4375259.263510742]]}, "properties": {"highway": "footway"}}, {"type": "Feature", "geometry": {"type": "LineString", "coordinates": [[694356.3034144375, 4375259.378352597], [694356.0526959309, 4375299.856113012]]}, "properties": {"highway": "footway"}}, {"type": "Feature", "geometry": {"type": "LineString", "coordinates": [[694356.3034144375, 4375259.378352597], [694358.9345782526, 4375259.444426101], [694365.1003137446, 4375259.577049423]]}, "properties": {"highway": "footway"}}, {"type": "Feature", "geometry": {"type": "LineString", "coordinates": [[694356.3034144375, 4375259.378352597], [694356.3266499899, 4375255.369404172], [694357.6496907123, 4375253.392308743], [694357.835911131, 4375248.032431304]]}, "properties": {"highway": "footway"}}, {"type": "Feature", "geometry": {"type": "LineString", "coordinates": [[694357.835911131, 4375248.032431304], [694303.9007576192, 4375247.555640837]]}, "properties": {"highway": "residential"}}, {"type": "Feature", "geometry": {"type": "LineString", "coordinates": [[694357.835911131, 4375248.032431304], [694365.1821708495, 4375248.094738709]]}, "properties": {"highway": "residential"}}, {"type": "Feature", "geometry": {"type": "LineString", "coordinates": [[694357.835911131, 4375248.032431304], [694358.0249188275, 4375242.561556537], [694356.3580329563, 4375241.442344774]]}, "properties": {"highway": "footway"}}, {"type": "Feature", "geometry": {"type": "LineString", "coordinates": [[694357.835911131, 4375248.032431304], [694357.6496907123, 4375253.392308743], [694356.3266499899, 4375255.369404172], [694356.3034144375, 4375259.378352597]]}, "properties": {"highway": "footway"}}, {"type": "Feature", "geometry": {"type": "LineString", "coordinates": [[694354.135219653, 4375071.264675407], [694366.3244344188, 4375071.381940893]]}, "properties": {"highway": "residential"}}, {"type": "Feature", "geometry": {"type": "LineString", "coordinates": [[694354.135219653, 4375071.264675407], [694239.3232556692, 4375070.13746929]]}, "properties": {"highway": "residential"}}, {"type": "Feature", "geometry": {"type": "LineString", "coordinates": [[694354.135219653, 4375071.264675407], [694354.1598810105, 4375066.855921756], [694354.1640308973, 4375064.634679424]]}, "properties": {"highway": "footway"}}, {"type": "Feature", "geometry": {"type": "LineString", "coordinates": [[694354.135219653, 4375071.264675407], [694354.1446331489, 4375076.02970016], [694354.0891690485, 4375078.238547304]]}, "properties": {"highway": "footway"}}, {"type": "Feature", "geometry": {"type": "LineString", "coordinates": [[694354.1640308973, 4375064.634679424], [694239.1073391265, 4375063.312523239]]}, "properties": {"highway": "footway"}}, {"type": "Feature", "geometry": {"type": "LineString", "coordinates": [[694354.1640308973, 4375064.634679424], [694354.1598810105, 4375066.855921756], [694354.135219653, 4375071.264675407]]}, "properties": {"highway": "footway"}}, {"type": "Feature", "geometry": {"type": "LineString", "coordinates": [[694354.1640308973, 4375064.634679424], [694355.9445380403, 4375064.6571744885], [694357.0744071391, 4375063.863647478], [694357.3455535119, 4375062.659822149], [694358.1709559524, 4374991.752955959], [694359.5318175752, 4374989.299219164], [694358.6428496311, 4374984.267761336]]}, "properties": {"highway": "footway"}}, {"type": "Feature", "geometry": {"type": "LineString", "coordinates": [[694354.0891690485, 4375078.238547304], [694239.5546612786, 4375077.373752893]]}, "properties": {"highway": "footway"}}, {"type": "Feature", "geometry": {"type": "LineString", "coordinates": [[694354.0891690485, 4375078.238547304], [694354.1446331489, 4375076.02970016], [694354.135219653, 4375071.264675407]]}, "properties": {"highway": "footway"}}, {"type": "Feature", "geometry": {"type": "LineString", "coordinates": [[694354.0891690485, 4375078.238547304], [694355.2075673286, 4375078.2444168795], [694356.6917279672, 4375079.103582736], [694357.4060963788, 4375080.465435514], [694357.0500385402, 4375134.7351025585]]}, "properties": {"highway": "footway"}}, {"type": "Feature", "geometry": {"type": "LineString", "coordinates": [[694357.0500385402, 4375134.7351025585], [694268.0915083326, 4375133.723532686]]}, "properties": {"highway": "service"}}, {"type": "Feature", "geometry": {"type": "LineString", "coordinates": [[694357.0500385402, 4375134.7351025585], [694365.9183778939, 4375134.835624816]]}, "properties": {"highway": "service"}}, {"type": "Feature", "geometry": {"type": "LineString", "coordinates": [[694357.0500385402, 4375134.7351025585], [694356.3580329563, 4375241.442344774]]}, "properties": {"highway": "footway"}}, {"type": "Feature", "geometry": {"type": "LineString", "coordinates": [[694357.0500385402, 4375134.7351025585], [694357.4060963788, 4375080.465435514], [694356.6917279672, 4375079.103582736], [694355.2075673286, 4375078.2444168795], [694354.0891690485, 4375078.238547304]]}, "properties": {"highway": "footway"}}, {"type": "Feature", "geometry": {"type": "LineString", "coordinates": [[694356.3580329563, 4375241.442344774], [694357.0500385402, 4375134.7351025585]]}, "properties": {"highway": "footway"}}, {"type": "Feature", "geometry": {"type": "LineString", "coordinates": [[694356.3580329563, 4375241.442344774], [694304.0296563457, 4375241.050332046]]}, "properties": {"highway": "footway"}}, {"type": "Feature", "geometry": {"type": "LineString", "coordinates": [[694356.3580329563, 4375241.442344774], [694358.0249188275, 4375242.561556537], [694357.835911131, 4375248.032431304]]}, "properties": {"highway": "footway"}}, {"type": "Feature", "geometry": {"type": "LineString", "coordinates": [[694238.4275421884, 4375240.569886896], [694304.0296563457, 4375241.050332046]]}, "properties": {"highway": "footway"}}, {"type": "Feature", "geometry": {"type": "LineString", "coordinates": [[694238.4275421884, 4375240.569886896], [694238.3956754305, 4375242.868179403], [694238.4215858311, 4375246.978318242]]}, "properties": {"highway": "footway"}}, {"type": "Feature", "geometry": {"type": "LineString", "coordinates": [[694238.4275421884, 4375240.569886896], [694236.4546386433, 4375239.987251637], [694235.1456078565, 4375238.321711543], [694234.8223874383, 4375236.458776894]]}, "properties": {"highway": "footway"}}, {"type": "Feature", "geometry": {"type": "LineString", "coordinates": [[694234.8223874383, 4375236.458776894], [694235.1456078565, 4375238.321711543], [694236.4546386433, 4375239.987251637], [694238.4275421884, 4375240.569886896]]}, "properties": {"highway": "footway"}}, {"type": "Feature", "geometry": {"type": "LineString", "coordinates": [[694235.5070280145, 4375080.948502959], [694236.5821270547, 4375078.565323526], [694237.7394485532, 4375077.705828573], [694239.5546612786, 4375077.373752893]]}, "properties": {"highway": "footway"}}, {"type": "Feature", "geometry": {"type": "LineString", "coordinates": [[694239.5546612786, 4375077.373752893], [694239.3232556692, 4375070.13746929]]}, "properties": {"highway": "footway"}}, {"type": "Feature", "geometry": {"type": "LineString", "coordinates": [[694239.5546612786, 4375077.373752893], [694354.0891690485, 4375078.238547304]]}, "properties": {"highway": "footway"}}, {"type": "Feature", "geometry": {"type": "LineString", "coordinates": [[694239.5546612786, 4375077.373752893], [694237.7394485532, 4375077.705828573], [694236.5821270547, 4375078.565323526], [694235.5070280145, 4375080.948502959]]}, "properties": {"highway": "footway"}}, {"type": "Feature", "geometry": {"type": "LineString", "coordinates": [[694358.6428496311, 4374984.267761336], [694359.5318175752, 4374989.299219164], [694358.1709559524, 4374991.752955959], [694357.3455535119, 4375062.659822149], [694357.0744071391, 4375063.863647478], [694355.9445380403, 4375064.6571744885], [694354.1640308973, 4375064.634679424]]}, "properties": {"highway": "footway"}}, {"type": "Feature", "geometry": {"type": "LineString", "coordinates": [[694235.5028216267, 4375060.201040253], [694235.9115197937, 4375061.744023998], [694236.8941803781, 4375062.70164819], [694239.1073391265, 4375063.312523239]]}, "properties": {"highway": "footway"}}, {"type": "Feature", "geometry": {"type": "LineString", "coordinates": [[694239.1073391265, 4375063.312523239], [694239.3232556692, 4375070.13746929]]}, "properties": {"highway": "footway"}}, {"type": "Feature", "geometry": {"type": "LineString", "coordinates": [[694239.1073391265, 4375063.312523239], [694354.1640308973, 4375064.634679424]]}, "properties": {"highway": "footway"}}, {"type": "Feature", "geometry": {"type": "LineString", "coordinates": [[694239.1073391265, 4375063.312523239], [694236.8941803781, 4375062.70164819], [694235.9115197937, 4375061.744023998], [694235.5028216267, 4375060.201040253]]}, "properties": {"highway": "footway"}}, {"type": "Feature", "geometry": {"type": "LineString", "coordinates": [[694374.7303269142, 4374970.321832905], [694374.0639215718, 4375032.836006152], [694373.9141546225, 4375039.485178752]]}, "properties": {"highway": "footway"}}, {"type": "Feature", "geometry": {"type": "LineString", "coordinates": [[694304.0296563457, 4375241.050332046], [694303.9007576192, 4375247.555640837]]}, "properties": {"highway": "service"}}, {"type": "Feature", "geometry": {"type": "LineString", "coordinates": [[694304.0296563457, 4375241.050332046], [694304.9160568067, 4375196.145856993]]}, "properties": {"highway": "service"}}, {"type": "Feature", "geometry": {"type": "LineString", "coordinates": [[694304.0296563457, 4375241.050332046], [694356.3580329563, 4375241.442344774]]}, "properties": {"highway": "footway"}}, {"type": "Feature", "geometry": {"type": "LineString", "coordinates": [[694304.0296563457, 4375241.050332046], [694238.4275421884, 4375240.569886896]]}, "properties": {"highway": "footway"}}, {"type": "Feature", "geometry": {"type": "LineString", "coordinates": [[694451.4813705576, 4375191.207873404], [694454.8691489422, 4375194.036352664]]}, "properties": {"highway": "footway"}}, {"type": "Feature", "geometry": {"type": "LineString", "coordinates": [[694451.4813705576, 4375191.207873404], [694443.8451204741, 4375193.781607145], [694398.5729455238, 4375192.65549622]]}, "properties": {"highway": "service"}}, {"type": "Feature", "geometry": {"type": "LineString", "coordinates": [[694398.5729455238, 4375192.65549622], [694398.4785837126, 4375197.44013073]]}, "properties": {"highway": "service"}}, {"type": "Feature", "geometry": {"type": "LineString", "coordinates": [[694398.5729455238, 4375192.65549622], [694393.916362589, 4375190.328298892], [694389.3559107567, 4375184.5160031365]]}, "properties": {"highway": "service"}}, {"type": "Feature", "geometry": {"type": "LineString", "coordinates": [[694467.9346646448, 4375241.112913511], [694467.9135595275, 4375243.322625719]]}, "properties": {"highway": "footway"}}, {"type": "Feature", "geometry": {"type": "LineString", "coordinates": [[694467.9346646448, 4375241.112913511], [694468.4178712327, 4375202.362511557]]}, "properties": {"highway": "footway"}}, {"type": "Feature", "geometry": {"type": "LineString", "coordinates": [[694467.9346646448, 4375241.112913511], [694441.0870033747, 4375240.893762536], [694439.6163641689, 4375240.867923255], [694439.636766101, 4375239.713334458], [694437.9594814407, 4375239.693410836]]}, "properties": {"highway": "footway"}}, {"type": "Feature", "geometry": {"type": "LineString", "coordinates": [[694467.9135595275, 4375243.322625719], [694467.5443731083, 4375271.713300267]]}, "properties": {"highway": "footway"}}, {"type": "Feature", "geometry": {"type": "LineString", "coordinates": [[694467.9135595275, 4375243.322625719], [694467.9346646448, 4375241.112913511]]}, "properties": {"highway": "footway"}}, {"type": "Feature", "geometry": {"type": "LineString", "coordinates": [[694467.9135595275, 4375243.322625719], [694437.3613117879, 4375267.956153082]]}, "properties": {"highway": "footway"}}, {"type": "Feature", "geometry": {"type": "LineString", "coordinates": [[694467.9135595275, 4375243.322625719], [694490.9837759614, 4375224.720968554]]}, "properties": {"highway": "footway"}}, {"type": "Feature", "geometry": {"type": "LineString", "coordinates": [[694437.3613117879, 4375267.956153082], [694467.9135595275, 4375243.322625719]]}, "properties": {"highway": "footway"}}, {"type": "Feature", "geometry": {"type": "LineString", "coordinates": [[694437.3613117879, 4375267.956153082], [694437.3273669954, 4375260.40271445]]}, "properties": {"highway": "footway"}}, {"type": "Feature", "geometry": {"type": "LineString", "coordinates": [[694467.5443731083, 4375271.713300267], [694467.9135595275, 4375243.322625719]]}, "properties": {"highway": "footway"}}, {"type": "Feature", "geometry": {"type": "LineString", "coordinates": [[694437.3273669954, 4375260.40271445], [694437.3613117879, 4375267.956153082]]}, "properties": {"highway": "footway"}}, {"type": "Feature", "geometry": {"type": "LineString", "coordinates": [[694390.0416869295, 4375280.195570575], [694390.0017596004, 4375262.601491817]]}, "properties": {"highway": "footway"}}, {"type": "Feature", "geometry": {"type": "LineString", "coordinates": [[694390.0017596004, 4375262.601491817], [694390.0416869295, 4375280.195570575]]}, "properties": {"highway": "footway"}}, {"type": "Feature", "geometry": {"type": "LineString", "coordinates": [[694390.0017596004, 4375262.601491817], [694403.9470155756, 4375262.674086312]]}, "properties": {"highway": "footway"}}, {"type": "Feature", "geometry": {"type": "LineString", "coordinates": [[694390.0017596004, 4375262.601491817], [694372.8985990032, 4375262.5384684]]}, "properties": {"highway": "footway"}}, {"type": "Feature", "geometry": {"type": "LineString", "coordinates": [[694403.9470155756, 4375262.674086312], [694390.0017596004, 4375262.601491817]]}, "properties": {"highway": "footway"}}, {"type": "Feature", "geometry": {"type": "LineString", "coordinates": [[694372.8985990032, 4375262.5384684], [694372.8341187065, 4375274.698727466]]}, "properties": {"highway": "footway"}}, {"type": "Feature", "geometry": {"type": "LineString", "coordinates": [[694372.8985990032, 4375262.5384684], [694372.91725445, 4375259.7400389]]}, "properties": {"highway": "footway"}}, {"type": "Feature", "geometry": {"type": "LineString", "coordinates": [[694372.8985990032, 4375262.5384684], [694390.0017596004, 4375262.601491817]]}, "properties": {"highway": "footway"}}, {"type": "Feature", "geometry": {"type": "LineString", "coordinates": [[694373.1169036576, 4375222.326453327], [694372.91725445, 4375259.7400389]]}, "properties": {"highway": "footway"}}, {"type": "Feature", "geometry": {"type": "LineString", "coordinates": [[694373.1169036576, 4375222.326453327], [694373.2473719302, 4375196.917515216]]}, "properties": {"highway": "footway"}}, {"type": "Feature", "geometry": {"type": "LineString", "coordinates": [[694373.1169036576, 4375222.326453327], [694408.2797582906, 4375222.7431159085], [694408.2552549612, 4375221.320837644]]}, "properties": {"highway": "footway"}}, {"type": "Feature", "geometry": {"type": "LineString", "coordinates": [[694408.2552549612, 4375221.320837644], [694408.2797582906, 4375222.7431159085], [694373.1169036576, 4375222.326453327]]}, "properties": {"highway": "footway"}}, {"type": "Feature", "geometry": {"type": "LineString", "coordinates": [[694448.9544028647, 4375202.062316623], [694452.7991113402, 4375202.114482082]]}, "properties": {"highway": "footway"}}, {"type": "Feature", "geometry": {"type": "LineString", "coordinates": [[694448.9544028647, 4375202.062316623], [694449.431365517, 4375196.776382719], [694454.8691489422, 4375194.036352664]]}, "properties": {"highway": "footway"}}, {"type": "Feature", "geometry": {"type": "LineString", "coordinates": [[694448.9544028647, 4375202.062316623], [694414.4055731292, 4375201.516511234], [694413.2076507807, 4375198.854123497], [694410.467883163, 4375197.630203914], [694398.4785837126, 4375197.44013073]]}, "properties": {"highway": "footway"}}, {"type": "Feature", "geometry": {"type": "LineString", "coordinates": [[694461.9538798224, 4375194.236565648], [694461.9114427798, 4375198.322781501]]}, "properties": {"highway": "footway"}}, {"type": "Feature", "geometry": {"type": "LineString", "coordinates": [[694461.9538798224, 4375194.236565648], [694468.5224127711, 4375194.434922023]]}, "properties": {"highway": "footway"}}, {"type": "Feature", "geometry": {"type": "LineString", "coordinates": [[694461.9538798224, 4375194.236565648], [694454.8691489422, 4375194.036352664]]}, "properties": {"highway": "footway"}}, {"type": "Feature", "geometry": {"type": "LineString", "coordinates": [[694468.5224127711, 4375194.434922023], [694468.4178712327, 4375202.362511557]]}, "properties": {"highway": "footway"}}, {"type": "Feature", "geometry": {"type": "LineString", "coordinates": [[694468.5224127711, 4375194.434922023], [694461.9538798224, 4375194.236565648]]}, "properties": {"highway": "footway"}}, {"type": "Feature", "geometry": {"type": "LineString", "coordinates": [[694468.5224127711, 4375194.434922023], [694468.6745053519, 4375183.58745336], [694469.0426013063, 4375156.9516209895]]}, "properties": {"highway": "footway"}}, {"type": "Feature", "geometry": {"type": "LineString", "coordinates": [[694454.8691489422, 4375194.036352664], [694461.9538798224, 4375194.236565648]]}, "properties": {"highway": "footway"}}, {"type": "Feature", "geometry": {"type": "LineString", "coordinates": [[694454.8691489422, 4375194.036352664], [694451.4813705576, 4375191.207873404]]}, "properties": {"highway": "footway"}}, {"type": "Feature", "geometry": {"type": "LineString", "coordinates": [[694454.8691489422, 4375194.036352664], [694449.431365517, 4375196.776382719], [694448.9544028647, 4375202.062316623]]}, "properties": {"highway": "footway"}}, {"type": "Feature", "geometry": {"type": "LineString", "coordinates": [[694454.8691489422, 4375194.036352664], [694457.2544604102, 4375190.875325576], [694458.6637098037, 4375187.523174951], [694458.5364024164, 4375183.343840593], [694456.1978427051, 4375179.164484225], [694453.1337397719, 4375176.466310883]]}, "properties": {"highway": "footway"}}, {"type": "Feature", "geometry": {"type": "LineString", "coordinates": [[694452.7991113402, 4375202.114482082], [694448.9544028647, 4375202.062316623]]}, "properties": {"highway": "footway"}}, {"type": "Feature", "geometry": {"type": "LineString", "coordinates": [[694468.4178712327, 4375202.362511557], [694491.2531698057, 4375180.445135816]]}, "properties": {"highway": "footway"}}, {"type": "Feature", "geometry": {"type": "LineString", "coordinates": [[694468.4178712327, 4375202.362511557], [694467.9346646448, 4375241.112913511]]}, "properties": {"highway": "footway"}}, {"type": "Feature", "geometry": {"type": "LineString", "coordinates": [[694468.4178712327, 4375202.362511557], [694468.5224127711, 4375194.434922023]]}, "properties": {"highway": "footway"}}, {"type": "Feature", "geometry": {"type": "LineString", "coordinates": [[694468.4178712327, 4375202.362511557], [694491.1057756419, 4375205.142838014]]}, "properties": {"highway": "footway"}}, {"type": "Feature", "geometry": {"type": "LineString", "coordinates": [[694468.4178712327, 4375202.362511557], [694464.0830398874, 4375202.298023901]]}, "properties": {"highway": "footway"}}, {"type": "Feature", "geometry": {"type": "LineString", "coordinates": [[694468.4178712327, 4375202.362511557], [694490.9837759614, 4375224.720968554]]}, "properties": {"highway": "footway"}}, {"type": "Feature", "geometry": {"type": "LineString", "coordinates": [[694464.0830398874, 4375202.298023901], [694468.4178712327, 4375202.362511557]]}, "properties": {"highway": "footway"}}, {"type": "Feature", "geometry": {"type": "LineString", "coordinates": [[694461.9114427798, 4375198.322781501], [694461.9538798224, 4375194.236565648]]}, "properties": {"highway": "footway"}}, {"type": "Feature", "geometry": {"type": "LineString", "coordinates": [[694435.0187549538, 4375237.564786651], [694434.9405363913, 4375239.650889391], [694437.9594814407, 4375239.693410836]]}, "properties": {"highway": "footway"}}, {"type": "Feature", "geometry": {"type": "LineString", "coordinates": [[694435.0187549538, 4375237.564786651], [694437.9944289562, 4375237.617327761], [694437.9594814407, 4375239.693410836]]}, "properties": {"highway": "footway"}}, {"type": "Feature", "geometry": {"type": "LineString", "coordinates": [[694435.0187549538, 4375237.564786651], [694427.699950503, 4375237.436462933], [694427.6630539115, 4375239.590244119], [694425.6764986049, 4375239.551447303], [694425.6569352493, 4375240.672736843], [694424.6248246387, 4375240.657916492]]}, "properties": {"highway": "footway"}}, {"type": "Feature", "geometry": {"type": "LineString", "coordinates": [[694437.9594814407, 4375239.693410836], [694434.9405363913, 4375239.650889391], [694435.0187549538, 4375237.564786651]]}, "properties": {"highway": "footway"}}, {"type": "Feature", "geometry": {"type": "LineString", "coordinates": [[694437.9594814407, 4375239.693410836], [694437.9944289562, 4375237.617327761], [694435.0187549538, 4375237.564786651]]}, "properties": {"highway": "footway"}}, {"type": "Feature", "geometry": {"type": "LineString", "coordinates": [[694437.9594814407, 4375239.693410836], [694439.636766101, 4375239.713334458], [694439.6163641689, 4375240.867923255], [694441.0870033747, 4375240.893762536], [694467.9346646448, 4375241.112913511]]}, "properties": {"highway": "footway"}}, {"type": "Feature", "geometry": {"type": "LineString", "coordinates": [[694424.6248246387, 4375240.657916492], [694425.6569352493, 4375240.672736843], [694425.6764986049, 4375239.551447303], [694427.6630539115, 4375239.590244119], [694427.699950503, 4375237.436462933], [694435.0187549538, 4375237.564786651]]}, "properties": {"highway": "footway"}}, {"type": "Feature", "geometry": {"type": "LineString", "coordinates": [[694373.2473719302, 4375196.917515216], [694373.1169036576, 4375222.326453327]]}, "properties": {"highway": "footway"}}, {"type": "Feature", "geometry": {"type": "LineString", "coordinates": [[694373.2473719302, 4375196.917515216], [694398.4785837126, 4375197.44013073]]}, "properties": {"highway": "footway"}}, {"type": "Feature", "geometry": {"type": "LineString", "coordinates": [[694373.2473719302, 4375196.917515216], [694373.29314679, 4375187.899994468], [694373.4181782561, 4375183.949136155]]}, "properties": {"highway": "footway"}}, {"type": "Feature", "geometry": {"type": "LineString", "coordinates": [[694398.4785837126, 4375197.44013073], [694373.2473719302, 4375196.917515216]]}, "properties": {"highway": "footway"}}, {"type": "Feature", "geometry": {"type": "LineString", "coordinates": [[694398.4785837126, 4375197.44013073], [694398.0941653015, 4375216.856162505]]}, "properties": {"highway": "service"}}, {"type": "Feature", "geometry": {"type": "LineString", "coordinates": [[694398.4785837126, 4375197.44013073], [694398.5729455238, 4375192.65549622]]}, "properties": {"highway": "service"}}, {"type": "Feature", "geometry": {"type": "LineString", "coordinates": [[694398.4785837126, 4375197.44013073], [694410.467883163, 4375197.630203914], [694413.2076507807, 4375198.854123497], [694414.4055731292, 4375201.516511234], [694448.9544028647, 4375202.062316623]]}, "properties": {"highway": "footway"}}, {"type": "Feature", "geometry": {"type": "LineString", "coordinates": [[694398.0941653015, 4375216.856162505], [694398.4785837126, 4375197.44013073]]}, "properties": {"highway": "service"}}, {"type": "Feature", "geometry": {"type": "LineString", "coordinates": [[694490.7033783762, 4375272.173058185], [694490.9837759614, 4375224.720968554]]}, "properties": {"highway": "footway"}}, {"type": "Feature", "geometry": {"type": "LineString", "coordinates": [[694543.3773074031, 4375273.87451986], [694536.0888366346, 4375269.459647502], [694493.8993800676, 4375229.903339019], [694490.9837759614, 4375224.720968554]]}, "properties": {"highway": "path"}}]}