{"type": "FeatureCollection", "features": [{"type": "Feature", "geometry": {"type": "LineString", "coordinates": [[693357.00383616, 4375558.396436993], [693356.9822293555, 4375567.525566824]]}, "properties": {"highway": "residential"}}, {"type": "Feature", "geometry": {"type": "LineString", "coordinates": [[693357.00383616, 4375558.396436993], [693357.4933507467, 4375549.134611496]]}, "properties": {"highway": "service"}}, {"type": "Feature", "geometry": {"type": "LineString", "coordinates": [[693357.00383616, 4375558.396436993], [693351.1714825757, 4375558.3617839245]]}, "properties": {"highway": "tertiary"}}, {"type": "Feature", "geometry": {"type": "LineString", "coordinates": [[693357.00383616, 4375558.396436993], [693367.662554398, 4375558.440620134]]}, "properties": {"highway": "tertiary"}}, {"type": "Feature", "geometry": {"type": "LineString", "coordinates": [[693420.578495344, 4375537.971717077], [693423.6985068053, 4375544.63594567]]}, "properties": {"highway": "service"}}, {"type": "Feature", "geometry": {"type": "LineString", "coordinates": [[693420.578495344, 4375537.971717077], [693396.7583334069, 4375549.893616237]]}, "properties": {"highway": "tertiary"}}, {"type": "Feature", "geometry": {"type": "LineString", "coordinates": [[693420.578495344, 4375537.971717077], [693451.1264661899, 4375523.3081133915]]}, "properties": {"highway": "tertiary"}}, {"type": "Feature", "geometry": {"type": "LineString", "coordinates": [[693497.0741592844, 4375357.956800454], [693488.0372097276, 4375357.730867876]]}, "properties": {"highway": "service"}}, {"type": "Feature", "geometry": {"type": "LineString", "coordinates": [[693496.2583974352, 4375443.924192107], [693487.8386772034, 4375444.4800454015]]}, "properties": {"highway": "service"}}, {"type": "Feature", "geometry": {"type": "LineString", "coordinates": [[693434.3498261832, 4375444.8089511385], [693369.4987285951, 4375445.009815656]]}, "properties": {"highway": "service"}}, {"type": "Feature", "geometry": {"type": "LineString", "coordinates": [[693434.3498261832, 4375444.8089511385], [693434.4820209708, 4375463.615828651]]}, "properties": {"highway": "service"}}, {"type": "Feature", "geometry": {"type": "LineString", "coordinates": [[693434.3498261832, 4375444.8089511385], [693434.2126368308, 4375425.513256494]]}, "properties": {"highway": "service"}}, {"type": "Feature", "geometry": {"type": "LineString", "coordinates": [[693434.3498261832, 4375444.8089511385], [693475.9718562068, 4375445.260717627]]}, "properties": {"highway": "service"}}, {"type": "Feature", "geometry": {"type": "LineString", "coordinates": [[693369.7306909654, 4375479.113036972], [693369.6271969934, 4375463.62777616]]}, "properties": {"highway": "service"}}, {"type": "Feature", "geometry": {"type": "LineString", "coordinates": [[693369.7306909654, 4375479.113036972], [693369.8222307713, 4375483.369172543]]}, "properties": {"highway": "service"}}, {"type": "Feature", "geometry": {"type": "LineString", "coordinates": [[693369.7306909654, 4375479.113036972], [693363.2040343496, 4375478.972177424]]}, "properties": {"highway": "footway"}}, {"type": "Feature", "geometry": {"type": "LineString", "coordinates": [[693433.9379660903, 4375386.932968649], [693434.0818198011, 4375406.650881469]]}, "properties": {"highway": "service"}}, {"type": "Feature", "geometry": {"type": "LineString", "coordinates": [[693433.9379660903, 4375386.932968649], [693433.8822531577, 4375379.179129316]]}, "properties": {"highway": "service"}}, {"type": "Feature", "geometry": {"type": "LineString", "coordinates": [[693433.9379660903, 4375386.932968649], [693367.2965338656, 4375387.488974094]]}, "properties": {"highway": "service"}}, {"type": "Feature", "geometry": {"type": "LineString", "coordinates": [[693369.4881842341, 4375443.365767567], [693368.7991603969, 4375426.866279249]]}, "properties": {"highway": "service"}}, {"type": "Feature", "geometry": {"type": "LineString", "coordinates": [[693369.4881842341, 4375443.365767567], [693369.4987285951, 4375445.009815656]]}, "properties": {"highway": "service"}}, {"type": "Feature", "geometry": {"type": "LineString", "coordinates": [[693369.4881842341, 4375443.365767567], [693362.9498485678, 4375443.346791463]]}, "properties": {"highway": "footway"}}, {"type": "Feature", "geometry": {"type": "LineString", "coordinates": [[693367.2965338656, 4375387.488974094], [693433.9379660903, 4375386.932968649]]}, "properties": {"highway": "service"}}, {"type": "Feature", "geometry": {"type": "LineString", "coordinates": [[693367.2965338656, 4375387.488974094], [693366.8830494494, 4375407.1374168005]]}, "properties": {"highway": "service"}}, {"type": "Feature", "geometry": {"type": "LineString", "coordinates": [[693367.2965338656, 4375387.488974094], [693366.5986646034, 4375384.084009123]]}, "properties": {"highway": "service"}}, {"type": "Feature", "geometry": {"type": "LineString", "coordinates": [[693365.461925891, 4375537.36073745], [693365.7203933002, 4375522.195505835]]}, "properties": {"highway": "service"}}, {"type": "Feature", "geometry": {"type": "LineString", "coordinates": [[693365.461925891, 4375537.36073745], [693294.345753698, 4375537.31679286]]}, "properties": {"highway": "service"}}, {"type": "Feature", "geometry": {"type": "LineString", "coordinates": [[693365.461925891, 4375537.36073745], [693361.0108272334, 4375540.237213502], [693358.9788808527, 4375542.707655103], [693357.6458903735, 4375546.12851951], [693357.4933507467, 4375549.134611496]]}, "properties": {"highway": "service"}}, {"type": "Feature", "geometry": {"type": "LineString", "coordinates": [[693365.461925891, 4375537.36073745], [693368.2488663874, 4375540.829008771], [693372.6309173496, 4375548.635413654]]}, "properties": {"highway": "service"}}, {"type": "Feature", "geometry": {"type": "LineString", "coordinates": [[693365.7203933002, 4375522.195505835], [693365.461925891, 4375537.36073745]]}, "properties": {"highway": "service"}}, {"type": "Feature", "geometry": {"type": "LineString", "coordinates": [[693365.7203933002, 4375522.195505835], [693404.9397501886, 4375522.720163791], [693434.8020927956, 4375509.672038912], [693434.7527689274, 4375502.35151722]]}, "properties": {"highway": "service"}}, {"type": "Feature", "geometry": {"type": "LineString", "coordinates": [[693365.7203933002, 4375522.195505835], [693365.9383798072, 4375513.471122365], [693370.2979551117, 4375505.30559397], [693370.2441421137, 4375502.982958665]]}, "properties": {"highway": "service"}}, {"type": "Feature", "geometry": {"type": "LineString", "coordinates": [[693433.7397810223, 4375359.061412392], [693433.8822531577, 4375379.179129316]]}, "properties": {"highway": "service"}}, {"type": "Feature", "geometry": {"type": "LineString", "coordinates": [[693433.7397810223, 4375359.061412392], [693475.122368616, 4375357.408002548]]}, "properties": {"highway": "service"}}, {"type": "Feature", "geometry": {"type": "LineString", "coordinates": [[693433.7397810223, 4375359.061412392], [693433.6757302103, 4375354.39501566], [693433.6075560007, 4375341.287456863], [693433.5892644797, 4375337.888362801]]}, "properties": {"highway": "service"}}, {"type": "Feature", "geometry": {"type": "LineString", "coordinates": [[693474.9478506866, 4375305.191231074], [693474.9449465733, 4375319.074483032]]}, "properties": {"highway": "service"}}, {"type": "Feature", "geometry": {"type": "LineString", "coordinates": [[693433.3622323477, 4375305.662279018], [693433.445673229, 4375317.470739747]]}, "properties": {"highway": "service"}}, {"type": "Feature", "geometry": {"type": "LineString", "coordinates": [[693362.4366504526, 4375302.035156627], [693362.3702830152, 4375342.228464516]]}, "properties": {"highway": "service"}}, {"type": "Feature", "geometry": {"type": "LineString", "coordinates": [[693474.9449465733, 4375319.074483032], [693474.9478506866, 4375305.191231074]]}, "properties": {"highway": "service"}}, {"type": "Feature", "geometry": {"type": "LineString", "coordinates": [[693474.9449465733, 4375319.074483032], [693474.5642201806, 4375337.402061033]]}, "properties": {"highway": "service"}}, {"type": "Feature", "geometry": {"type": "LineString", "coordinates": [[693474.9449465733, 4375319.074483032], [693433.4642473294, 4375319.825815066]]}, "properties": {"highway": "service"}}, {"type": "Feature", "geometry": {"type": "LineString", "coordinates": [[693474.9449465733, 4375319.074483032], [693488.0351548747, 4375318.924141879]]}, "properties": {"highway": "service"}}, {"type": "Feature", "geometry": {"type": "LineString", "coordinates": [[693433.4642473294, 4375319.825815066], [693433.5892644797, 4375337.888362801]]}, "properties": {"highway": "service"}}, {"type": "Feature", "geometry": {"type": "LineString", "coordinates": [[693433.4642473294, 4375319.825815066], [693433.445673229, 4375317.470739747]]}, "properties": {"highway": "service"}}, {"type": "Feature", "geometry": {"type": "LineString", "coordinates": [[693433.4642473294, 4375319.825815066], [693474.9449465733, 4375319.074483032]]}, "properties": {"highway": "service"}}, {"type": "Feature", "geometry": {"type": "LineString", "coordinates": [[693474.5642201806, 4375337.402061033], [693433.5892644797, 4375337.888362801]]}, "properties": {"highway": "service"}}, {"type": "Feature", "geometry": {"type": "LineString", "coordinates": [[693474.5642201806, 4375337.402061033], [693474.9449465733, 4375319.074483032]]}, "properties": {"highway": "service"}}, {"type": "Feature", "geometry": {"type": "LineString", "coordinates": [[693474.5642201806, 4375337.402061033], [693475.122368616, 4375357.408002548]]}, "properties": {"highway": "service"}}, {"type": "Feature", "geometry": {"type": "LineString", "coordinates": [[693433.5892644797, 4375337.888362801], [693433.4642473294, 4375319.825815066]]}, "properties": {"highway": "service"}}, {"type": "Feature", "geometry": {"type": "LineString", "coordinates": [[693433.5892644797, 4375337.888362801], [693474.5642201806, 4375337.402061033]]}, "properties": {"highway": "service"}}, {"type": "Feature", "geometry": {"type": "LineString", "coordinates": [[693433.5892644797, 4375337.888362801], [693433.6075560007, 4375341.287456863], [693433.6757302103, 4375354.39501566], [693433.7397810223, 4375359.061412392]]}, "properties": {"highway": "service"}}, {"type": "Feature", "geometry": {"type": "LineString", "coordinates": [[693434.0818198011, 4375406.650881469], [693434.0959559266, 4375408.494939997]]}, "properties": {"highway": "service"}}, {"type": "Feature", "geometry": {"type": "LineString", "coordinates": [[693434.0818198011, 4375406.650881469], [693433.9379660903, 4375386.932968649]]}, "properties": {"highway": "service"}}, {"type": "Feature", "geometry": {"type": "LineString", "coordinates": [[693434.0818198011, 4375406.650881469], [693366.8830494494, 4375407.1374168005]]}, "properties": {"highway": "service"}}, {"type": "Feature", "geometry": {"type": "LineString", "coordinates": [[693366.8830494494, 4375407.1374168005], [693434.0818198011, 4375406.650881469]]}, "properties": {"highway": "service"}}, {"type": "Feature", "geometry": {"type": "LineString", "coordinates": [[693366.8830494494, 4375407.1374168005], [693367.2965338656, 4375387.488974094]]}, "properties": {"highway": "service"}}, {"type": "Feature", "geometry": {"type": "LineString", "coordinates": [[693366.8830494494, 4375407.1374168005], [693366.8919346732, 4375409.880981839]]}, "properties": {"highway": "service"}}, {"type": "Feature", "geometry": {"type": "LineString", "coordinates": [[693476.1537494811, 4375425.251059684], [693434.2126368308, 4375425.513256494]]}, "properties": {"highway": "service"}}, {"type": "Feature", "geometry": {"type": "LineString", "coordinates": [[693476.1537494811, 4375425.251059684], [693475.9832918049, 4375413.829149988]]}, "properties": {"highway": "service"}}, {"type": "Feature", "geometry": {"type": "LineString", "coordinates": [[693476.1537494811, 4375425.251059684], [693475.9718562068, 4375445.260717627]]}, "properties": {"highway": "service"}}, {"type": "Feature", "geometry": {"type": "LineString", "coordinates": [[693434.2126368308, 4375425.513256494], [693434.3498261832, 4375444.8089511385]]}, "properties": {"highway": "service"}}, {"type": "Feature", "geometry": {"type": "LineString", "coordinates": [[693434.2126368308, 4375425.513256494], [693434.0959559266, 4375408.494939997]]}, "properties": {"highway": "service"}}, {"type": "Feature", "geometry": {"type": "LineString", "coordinates": [[693434.2126368308, 4375425.513256494], [693476.1537494811, 4375425.251059684]]}, "properties": {"highway": "service"}}, {"type": "Feature", "geometry": {"type": "LineString", "coordinates": [[693434.2126368308, 4375425.513256494], [693368.7991603969, 4375426.866279249]]}, "properties": {"highway": "service"}}, {"type": "Feature", "geometry": {"type": "LineString", "coordinates": [[693368.7991603969, 4375426.866279249], [693434.2126368308, 4375425.513256494]]}, "properties": {"highway": "service"}}, {"type": "Feature", "geometry": {"type": "LineString", "coordinates": [[693368.7991603969, 4375426.866279249], [693369.4881842341, 4375443.365767567]]}, "properties": {"highway": "service"}}, {"type": "Feature", "geometry": {"type": "LineString", "coordinates": [[693368.7991603969, 4375426.866279249], [693366.8240227847, 4375422.58529508], [693366.8919346732, 4375409.880981839]]}, "properties": {"highway": "service"}}, {"type": "Feature", "geometry": {"type": "LineString", "coordinates": [[693369.4987285951, 4375445.009815656], [693434.3498261832, 4375444.8089511385]]}, "properties": {"highway": "service"}}, {"type": "Feature", "geometry": {"type": "LineString", "coordinates": [[693369.4987285951, 4375445.009815656], [693369.4881842341, 4375443.365767567]]}, "properties": {"highway": "service"}}, {"type": "Feature", "geometry": {"type": "LineString", "coordinates": [[693369.4987285951, 4375445.009815656], [693369.6271969934, 4375463.62777616]]}, "properties": {"highway": "service"}}, {"type": "Feature", "geometry": {"type": "LineString", "coordinates": [[693434.4820209708, 4375463.615828651], [693434.6119895766, 4375482.855810897]]}, "properties": {"highway": "service"}}, {"type": "Feature", "geometry": {"type": "LineString", "coordinates": [[693434.4820209708, 4375463.615828651], [693434.3498261832, 4375444.8089511385]]}, "properties": {"highway": "service"}}, {"type": "Feature", "geometry": {"type": "LineString", "coordinates": [[693434.4820209708, 4375463.615828651], [693369.6271969934, 4375463.62777616]]}, "properties": {"highway": "service"}}, {"type": "Feature", "geometry": {"type": "LineString", "coordinates": [[693369.6271969934, 4375463.62777616], [693434.4820209708, 4375463.615828651]]}, "properties": {"highway": "service"}}, {"type": "Feature", "geometry": {"type": "LineString", "coordinates": [[693369.6271969934, 4375463.62777616], [693369.4987285951, 4375445.009815656]]}, "properties": {"highway": "service"}}, {"type": "Feature", "geometry": {"type": "LineString", "coordinates": [[693369.6271969934, 4375463.62777616], [693369.7306909654, 4375479.113036972]]}, "properties": {"highway": "service"}}, {"type": "Feature", "geometry": {"type": "LineString", "coordinates": [[693434.6119895766, 4375482.855810897], [693434.7527689274, 4375502.35151722]]}, "properties": {"highway": "service"}}, {"type": "Feature", "geometry": {"type": "LineString", "coordinates": [[693434.6119895766, 4375482.855810897], [693434.4820209708, 4375463.615828651]]}, "properties": {"highway": "service"}}, {"type": "Feature", "geometry": {"type": "LineString", "coordinates": [[693434.6119895766, 4375482.855810897], [693369.8222307713, 4375483.369172543]]}, "properties": {"highway": "service"}}, {"type": "Feature", "geometry": {"type": "LineString", "coordinates": [[693369.8222307713, 4375483.369172543], [693434.6119895766, 4375482.855810897]]}, "properties": {"highway": "service"}}, {"type": "Feature", "geometry": {"type": "LineString", "coordinates": [[693369.8222307713, 4375483.369172543], [693369.7306909654, 4375479.113036972]]}, "properties": {"highway": "service"}}, {"type": "Feature", "geometry": {"type": "LineString", "coordinates": [[693369.8222307713, 4375483.369172543], [693370.2441421137, 4375502.982958665]]}, "properties": {"highway": "service"}}, {"type": "Feature", "geometry": {"type": "LineString", "coordinates": [[693434.7527689274, 4375502.35151722], [693434.6119895766, 4375482.855810897]]}, "properties": {"highway": "service"}}, {"type": "Feature", "geometry": {"type": "LineString", "coordinates": [[693434.7527689274, 4375502.35151722], [693370.2441421137, 4375502.982958665]]}, "properties": {"highway": "service"}}, {"type": "Feature", "geometry": {"type": "LineString", "coordinates": [[693434.7527689274, 4375502.35151722], [693434.8020927956, 4375509.672038912], [693404.9397501886, 4375522.720163791], [693365.7203933002, 4375522.195505835]]}, "properties": {"highway": "service"}}, {"type": "Feature", "geometry": {"type": "LineString", "coordinates": [[693370.2441421137, 4375502.982958665], [693434.7527689274, 4375502.35151722]]}, "properties": {"highway": "service"}}, {"type": "Feature", "geometry": {"type": "LineString", "coordinates": [[693370.2441421137, 4375502.982958665], [693369.8222307713, 4375483.369172543]]}, "properties": {"highway": "service"}}, {"type": "Feature", "geometry": {"type": "LineString", "coordinates": [[693370.2441421137, 4375502.982958665], [693370.2979551117, 4375505.30559397], [693365.9383798072, 4375513.471122365], [693365.7203933002, 4375522.195505835]]}, "properties": {"highway": "service"}}, {"type": "Feature", "geometry": {"type": "LineString", "coordinates": [[693497.1458532771, 4375510.975102671], [693488.5844797195, 4375511.005395764]]}, "properties": {"highway": "tertiary"}}, {"type": "Feature", "geometry": {"type": "LineString", "coordinates": [[693475.122368616, 4375357.408002548], [693433.7397810223, 4375359.061412392]]}, "properties": {"highway": "service"}}, {"type": "Feature", "geometry": {"type": "LineString", "coordinates": [[693475.122368616, 4375357.408002548], [693474.5642201806, 4375337.402061033]]}, "properties": {"highway": "service"}}, {"type": "Feature", "geometry": {"type": "LineString", "coordinates": [[693475.122368616, 4375357.408002548], [693475.4597048153, 4375379.363197243]]}, "properties": {"highway": "service"}}, {"type": "Feature", "geometry": {"type": "LineString", "coordinates": [[693475.122368616, 4375357.408002548], [693488.0372097276, 4375357.730867876]]}, "properties": {"highway": "service"}}, {"type": "Feature", "geometry": {"type": "LineString", "coordinates": [[693475.9718562068, 4375445.260717627], [693487.8386772034, 4375444.4800454015]]}, "properties": {"highway": "service"}}, {"type": "Feature", "geometry": {"type": "LineString", "coordinates": [[693475.9718562068, 4375445.260717627], [693434.3498261832, 4375444.8089511385]]}, "properties": {"highway": "service"}}, {"type": "Feature", "geometry": {"type": "LineString", "coordinates": [[693475.9718562068, 4375445.260717627], [693476.1537494811, 4375425.251059684]]}, "properties": {"highway": "service"}}, {"type": "Feature", "geometry": {"type": "LineString", "coordinates": [[693475.9718562068, 4375445.260717627], [693478.0937473814, 4375465.694490292]]}, "properties": {"highway": "service"}}, {"type": "Feature", "geometry": {"type": "LineString", "coordinates": [[693223.194804786, 4375557.275694382], [693261.3491584406, 4375557.717512641]]}, "properties": {"highway": "tertiary"}}, {"type": "Feature", "geometry": {"type": "LineString", "coordinates": [[693351.1714825757, 4375558.3617839245], [693357.00383616, 4375558.396436993]]}, "properties": {"highway": "tertiary"}}, {"type": "Feature", "geometry": {"type": "LineString", "coordinates": [[693351.1714825757, 4375558.3617839245], [693350.4204243209, 4375567.761461477]]}, "properties": {"highway": "footway"}}, {"type": "Feature", "geometry": {"type": "LineString", "coordinates": [[693351.1714825757, 4375558.3617839245], [693351.0926762699, 4375549.119079364]]}, "properties": {"highway": "footway"}}, {"type": "Feature", "geometry": {"type": "LineString", "coordinates": [[693351.1714825757, 4375558.3617839245], [693318.1288797697, 4375558.213813141], [693297.0524781351, 4375558.120511494]]}, "properties": {"highway": "tertiary"}}, {"type": "Feature", "geometry": {"type": "LineString", "coordinates": [[693367.662554398, 4375558.440620134], [693357.00383616, 4375558.396436993]]}, "properties": {"highway": "tertiary"}}, {"type": "Feature", "geometry": {"type": "LineString", "coordinates": [[693367.662554398, 4375558.440620134], [693367.4484150936, 4375549.105679476]]}, "properties": {"highway": "footway"}}, {"type": "Feature", "geometry": {"type": "LineString", "coordinates": [[693367.662554398, 4375558.440620134], [693367.7127680937, 4375565.383534196]]}, "properties": {"highway": "footway"}}, {"type": "Feature", "geometry": {"type": "LineString", "coordinates": [[693367.662554398, 4375558.440620134], [693373.1734466119, 4375558.256226744], [693380.6153291557, 4375556.198637334]]}, "properties": {"highway": "tertiary"}}, {"type": "Feature", "geometry": {"type": "LineString", "coordinates": [[693356.9822293555, 4375567.525566824], [693357.00383616, 4375558.396436993]]}, "properties": {"highway": "residential"}}, {"type": "Feature", "geometry": {"type": "LineString", "coordinates": [[693356.9822293555, 4375567.525566824], [693350.4204243209, 4375567.761461477]]}, "properties": {"highway": "footway"}}, {"type": "Feature", "geometry": {"type": "LineString", "coordinates": [[693356.9822293555, 4375567.525566824], [693357.5614283546, 4375592.896530438], [693357.5941856346, 4375604.326096743]]}, "properties": {"highway": "residential"}}, {"type": "Feature", "geometry": {"type": "LineString", "coordinates": [[693356.9822293555, 4375567.525566824], [693364.8099106732, 4375567.243560396], [693367.7127680937, 4375565.383534196]]}, "properties": {"highway": "footway"}}, {"type": "Feature", "geometry": {"type": "LineString", "coordinates": [[693497.838265577, 4375522.165720587], [693488.87195418, 4375522.2192079555]]}, "properties": {"highway": "footway"}}, {"type": "Feature", "geometry": {"type": "LineString", "coordinates": [[693488.5844797195, 4375511.005395764], [693497.1458532771, 4375510.975102671]]}, "properties": {"highway": "tertiary"}}, {"type": "Feature", "geometry": {"type": "LineString", "coordinates": [[693488.5844797195, 4375511.005395764], [693488.3771214955, 4375502.78127964]]}, "properties": {"highway": "footway"}}, {"type": "Feature", "geometry": {"type": "LineString", "coordinates": [[693488.5844797195, 4375511.005395764], [693488.87195418, 4375522.2192079555]]}, "properties": {"highway": "footway"}}, {"type": "Feature", "geometry": {"type": "LineString", "coordinates": [[693488.5844797195, 4375511.005395764], [693477.1141039493, 4375512.451265032], [693473.9271910419, 4375513.282338568], [693471.0348394612, 4375514.031923933], [693464.7808271528, 4375516.752205245], [693451.1264661899, 4375523.3081133915]]}, "properties": {"highway": "tertiary"}}, {"type": "Feature", "geometry": {"type": "LineString", "coordinates": [[693496.6311866222, 4375502.654448903], [693488.3771214955, 4375502.78127964]]}, "properties": {"highway": "footway"}}, {"type": "Feature", "geometry": {"type": "LineString", "coordinates": [[693428.6155155638, 4375555.132461496], [693423.6985068053, 4375544.63594567]]}, "properties": {"highway": "service"}}, {"type": "Feature", "geometry": {"type": "LineString", "coordinates": [[693428.6155155638, 4375555.132461496], [693428.3773804606, 4375580.494122081]]}, "properties": {"highway": "service"}}, {"type": "Feature", "geometry": {"type": "LineString", "coordinates": [[693428.6155155638, 4375555.132461496], [693438.8737631987, 4375551.234974733], [693453.7612083147, 4375545.598405227]]}, "properties": {"highway": "service"}}, {"type": "Feature", "geometry": {"type": "LineString", "coordinates": [[693479.6357857678, 4375607.39854614], [693479.6032371457, 4375550.887019572]]}, "properties": {"highway": "service"}}, {"type": "Feature", "geometry": {"type": "LineString", "coordinates": [[693453.7612083147, 4375545.598405227], [693473.5899423932, 4375535.031861517], [693477.7206970004, 4375535.335051217], [693479.7853437585, 4375538.441001381], [693479.6032371457, 4375550.887019572]]}, "properties": {"highway": "service"}}, {"type": "Feature", "geometry": {"type": "LineString", "coordinates": [[693453.7612083147, 4375545.598405227], [693461.7175636917, 4375550.495416552], [693479.6032371457, 4375550.887019572]]}, "properties": {"highway": "service"}}, {"type": "Feature", "geometry": {"type": "LineString", "coordinates": [[693453.7612083147, 4375545.598405227], [693438.8737631987, 4375551.234974733], [693428.6155155638, 4375555.132461496]]}, "properties": {"highway": "service"}}, {"type": "Feature", "geometry": {"type": "LineString", "coordinates": [[693479.6032371457, 4375550.887019572], [693479.6357857678, 4375607.39854614]]}, "properties": {"highway": "service"}}, {"type": "Feature", "geometry": {"type": "LineString", "coordinates": [[693479.6032371457, 4375550.887019572], [693479.7853437585, 4375538.441001381], [693477.7206970004, 4375535.335051217], [693473.5899423932, 4375535.031861517], [693453.7612083147, 4375545.598405227]]}, "properties": {"highway": "service"}}, {"type": "Feature", "geometry": {"type": "LineString", "coordinates": [[693396.7583334069, 4375549.893616237], [693399.1350283653, 4375557.383364518]]}, "properties": {"highway": "service"}}, {"type": "Feature", "geometry": {"type": "LineString", "coordinates": [[693396.7583334069, 4375549.893616237], [693420.578495344, 4375537.971717077]]}, "properties": {"highway": "tertiary"}}, {"type": "Feature", "geometry": {"type": "LineString", "coordinates": [[693396.7583334069, 4375549.893616237], [693388.4641055048, 4375554.040156163], [693380.6153291557, 4375556.198637334]]}, "properties": {"highway": "tertiary"}}, {"type": "Feature", "geometry": {"type": "LineString", "coordinates": [[693357.5941856346, 4375604.326096743], [693357.5614283546, 4375592.896530438], [693356.9822293555, 4375567.525566824]]}, "properties": {"highway": "residential"}}, {"type": "Feature", "geometry": {"type": "LineString", "coordinates": [[693428.3773804606, 4375580.494122081], [693428.6155155638, 4375555.132461496]]}, "properties": {"highway": "service"}}, {"type": "Feature", "geometry": {"type": "LineString", "coordinates": [[693399.7493358323, 4375576.180075012], [693399.7807207345, 4375559.432019104], [693399.1350283653, 4375557.383364518]]}, "properties": {"highway": "service"}}, {"type": "Feature", "geometry": {"type": "LineString", "coordinates": [[693372.6309173496, 4375548.635413654], [693380.6153291557, 4375556.198637334]]}, "properties": {"highway": "service"}}, {"type": "Feature", "geometry": {"type": "LineString", "coordinates": [[693372.6309173496, 4375548.635413654], [693376.1905769436, 4375548.035747104], [693416.1687576928, 4375527.832192365], [693443.9228609015, 4375515.486665852], [693446.9095175853, 4375514.061921525]]}, "properties": {"highway": "footway"}}, {"type": "Feature", "geometry": {"type": "LineString", "coordinates": [[693372.6309173496, 4375548.635413654], [693370.1685008793, 4375549.051471769], [693367.4484150936, 4375549.105679476]]}, "properties": {"highway": "footway"}}, {"type": "Feature", "geometry": {"type": "LineString", "coordinates": [[693380.6153291557, 4375556.198637334], [693373.1734466119, 4375558.256226744], [693367.662554398, 4375558.440620134]]}, "properties": {"highway": "tertiary"}}, {"type": "Feature", "geometry": {"type": "LineString", "coordinates": [[693380.6153291557, 4375556.198637334], [693388.4641055048, 4375554.040156163], [693396.7583334069, 4375549.893616237]]}, "properties": {"highway": "tertiary"}}, {"type": "Feature", "geometry": {"type": "LineString", "coordinates": [[693451.1264661899, 4375523.3081133915], [693420.578495344, 4375537.971717077]]}, "properties": {"highway": "tertiary"}}, {"type": "Feature", "geometry": {"type": "LineString", "coordinates": [[693451.1264661899, 4375523.3081133915], [693446.9095175853, 4375514.061921525]]}, "properties": {"highway": "service"}}, {"type": "Feature", "geometry": {"type": "LineString", "coordinates": [[693451.1264661899, 4375523.3081133915], [693464.7808271528, 4375516.752205245], [693471.0348394612, 4375514.031923933], [693473.9271910419, 4375513.282338568], [693477.1141039493, 4375512.451265032], [693488.5844797195, 4375511.005395764]]}, "properties": {"highway": "tertiary"}}, {"type": "Feature", "geometry": {"type": "LineString", "coordinates": [[693496.3608049934, 4375459.787069075], [693487.7918823202, 4375460.117057698]]}, "properties": {"highway": "service"}}, {"type": "Feature", "geometry": {"type": "LineString", "coordinates": [[693478.0937473814, 4375465.694490292], [693475.9718562068, 4375445.260717627]]}, "properties": {"highway": "service"}}, {"type": "Feature", "geometry": {"type": "LineString", "coordinates": [[693478.0937473814, 4375465.694490292], [693485.3374772858, 4375460.211188353], [693487.7918823202, 4375460.117057698]]}, "properties": {"highway": "service"}}, {"type": "Feature", "geometry": {"type": "LineString", "coordinates": [[693478.0937473814, 4375465.694490292], [693444.4281293551, 4375490.453775738], [693443.9975312436, 4375507.6805497715], [693445.1801882628, 4375510.275750102]]}, "properties": {"highway": "service"}}, {"type": "Feature", "geometry": {"type": "LineString", "coordinates": [[693478.0937473814, 4375465.694490292], [693480.2940208969, 4375470.947415741], [693480.6630526623, 4375482.68527816], [693478.939721806, 4375488.295485977], [693445.1801882628, 4375510.275750102]]}, "properties": {"highway": "service"}}, {"type": "Feature", "geometry": {"type": "LineString", "coordinates": [[693497.1730011036, 4375350.217927944], [693488.2250753823, 4375350.216354666]]}, "properties": {"highway": "footway"}}, {"type": "Feature", "geometry": {"type": "LineString", "coordinates": [[693365.5069308251, 4375380.258257557], [693366.5986646034, 4375384.084009123]]}, "properties": {"highway": "service"}}, {"type": "Feature", "geometry": {"type": "LineString", "coordinates": [[693365.5069308251, 4375380.258257557], [693364.4152015034, 4375377.809731088], [693362.1624109865, 4375375.687609291], [693359.5168739154, 4375375.166140218], [693339.3192261005, 4375375.350162065], [693333.2545645167, 4375373.588197117], [693326.2901081867, 4375370.648669145], [693321.6841304445, 4375370.078242451], [693317.7344214641, 4375371.134674912], [693315.3327329962, 4375374.973117692], [693316.0492122823, 4375378.667314226], [693320.0358366278, 4375380.610598011], [693337.8234201049, 4375380.466280038], [693365.5069308251, 4375380.258257557]]}, "properties": {"highway": "service"}}, {"type": "Feature", "geometry": {"type": "LineString", "coordinates": [[693366.8919346732, 4375409.880981839], [693366.8830494494, 4375407.1374168005]]}, "properties": {"highway": "service"}}, {"type": "Feature", "geometry": {"type": "LineString", "coordinates": [[693366.8919346732, 4375409.880981839], [693359.8129830786, 4375409.804076154]]}, "properties": {"highway": "footway"}}, {"type": "Feature", "geometry": {"type": "LineString", "coordinates": [[693366.8919346732, 4375409.880981839], [693366.8240227847, 4375422.58529508], [693368.7991603969, 4375426.866279249]]}, "properties": {"highway": "service"}}, {"type": "Feature", "geometry": {"type": "LineString", "coordinates": [[693366.8919346732, 4375409.880981839], [693371.0912656322, 4375409.852624136], [693372.490027939, 4375410.687252312]]}, "properties": {"highway": "footway"}}, {"type": "Feature", "geometry": {"type": "LineString", "coordinates": [[693366.5986646034, 4375384.084009123], [693365.5069308251, 4375380.258257557]]}, "properties": {"highway": "service"}}, {"type": "Feature", "geometry": {"type": "LineString", "coordinates": [[693366.5986646034, 4375384.084009123], [693367.2965338656, 4375387.488974094]]}, "properties": {"highway": "service"}}, {"type": "Feature", "geometry": {"type": "LineString", "coordinates": [[693366.5986646034, 4375384.084009123], [693377.6451017522, 4375382.394133914]]}, "properties": {"highway": "footway"}}, {"type": "Feature", "geometry": {"type": "LineString", "coordinates": [[693366.5986646034, 4375384.084009123], [693359.8736166079, 4375385.337638556], [693359.8129830786, 4375409.804076154]]}, "properties": {"highway": "footway"}}, {"type": "Feature", "geometry": {"type": "LineString", "coordinates": [[693294.345753698, 4375537.31679286], [693365.461925891, 4375537.36073745]]}, "properties": {"highway": "service"}}, {"type": "Feature", "geometry": {"type": "LineString", "coordinates": [[693294.345753698, 4375537.31679286], [693293.444214675, 4375480.750333143], [693281.6906582443, 4375461.842044169], [693281.8436443036, 4375414.031758001], [693291.9640223968, 4375401.534084279], [693293.1339195913, 4375377.772869231], [693291.9589418411, 4375374.178290837], [693287.9894902039, 4375371.202533107], [693280.6006871162, 4375371.129070161]]}, "properties": {"highway": "service"}}, {"type": "Feature", "geometry": {"type": "LineString", "coordinates": [[693294.345753698, 4375537.31679286], [693296.9796426265, 4375542.780410578], [693297.0052277525, 4375548.989666128]]}, "properties": {"highway": "service"}}, {"type": "Feature", "geometry": {"type": "LineString", "coordinates": [[693297.0524781351, 4375558.120511494], [693261.3491584406, 4375557.717512641]]}, "properties": {"highway": "tertiary"}}, {"type": "Feature", "geometry": {"type": "LineString", "coordinates": [[693297.0524781351, 4375558.120511494], [693297.0052277525, 4375548.989666128]]}, "properties": {"highway": "service"}}, {"type": "Feature", "geometry": {"type": "LineString", "coordinates": [[693297.0524781351, 4375558.120511494], [693318.1288797697, 4375558.213813141], [693351.1714825757, 4375558.3617839245]]}, "properties": {"highway": "tertiary"}}, {"type": "Feature", "geometry": {"type": "LineString", "coordinates": [[693224.6220321243, 4375370.542062475], [693280.6006871162, 4375371.129070161]]}, "properties": {"highway": "service"}}, {"type": "Feature", "geometry": {"type": "LineString", "coordinates": [[693280.6006871162, 4375371.129070161], [693224.6220321243, 4375370.542062475]]}, "properties": {"highway": "service"}}, {"type": "Feature", "geometry": {"type": "LineString", "coordinates": [[693280.6006871162, 4375371.129070161], [693280.0802357189, 4375382.32267607]]}, "properties": {"highway": "service"}}, {"type": "Feature", "geometry": {"type": "LineString", "coordinates": [[693280.6006871162, 4375371.129070161], [693287.9894902039, 4375371.202533107], [693291.9589418411, 4375374.178290837], [693293.1339195913, 4375377.772869231], [693291.9640223968, 4375401.534084279], [693281.8436443036, 4375414.031758001], [693281.6906582443, 4375461.842044169], [693293.444214675, 4375480.750333143], [693294.345753698, 4375537.31679286]]}, "properties": {"highway": "service"}}, {"type": "Feature", "geometry": {"type": "LineString", "coordinates": [[693275.8281292527, 4375396.177537218], [693253.0524117012, 4375395.553252766]]}, "properties": {"highway": "footway"}}, {"type": "Feature", "geometry": {"type": "LineString", "coordinates": [[693275.8281292527, 4375396.177537218], [693270.9934173796, 4375400.632737076], [693264.6758709832, 4375402.796261758], [693238.1224410024, 4375402.199857305], [693224.419410706, 4375401.746659254]]}, "properties": {"highway": "service"}}, {"type": "Feature", "geometry": {"type": "LineString", "coordinates": [[693433.8822531577, 4375379.179129316], [693433.9379660903, 4375386.932968649]]}, "properties": {"highway": "service"}}, {"type": "Feature", "geometry": {"type": "LineString", "coordinates": [[693433.8822531577, 4375379.179129316], [693433.7397810223, 4375359.061412392]]}, "properties": {"highway": "service"}}, {"type": "Feature", "geometry": {"type": "LineString", "coordinates": [[693433.8822531577, 4375379.179129316], [693442.0720948733, 4375379.2172271805]]}, "properties": {"highway": "service"}}, {"type": "Feature", "geometry": {"type": "LineString", "coordinates": [[693475.4597048153, 4375379.363197243], [693475.122368616, 4375357.408002548]]}, "properties": {"highway": "service"}}, {"type": "Feature", "geometry": {"type": "LineString", "coordinates": [[693475.4597048153, 4375379.363197243], [693475.9832918049, 4375413.829149988]]}, "properties": {"highway": "service"}}, {"type": "Feature", "geometry": {"type": "LineString", "coordinates": [[693475.4597048153, 4375379.363197243], [693442.0720948733, 4375379.2172271805]]}, "properties": {"highway": "service"}}, {"type": "Feature", "geometry": {"type": "LineString", "coordinates": [[693434.0959559266, 4375408.494939997], [693434.2126368308, 4375425.513256494]]}, "properties": {"highway": "service"}}, {"type": "Feature", "geometry": {"type": "LineString", "coordinates": [[693434.0959559266, 4375408.494939997], [693434.0818198011, 4375406.650881469]]}, "properties": {"highway": "service"}}, {"type": "Feature", "geometry": {"type": "LineString", "coordinates": [[693434.0959559266, 4375408.494939997], [693442.1803688844, 4375408.27495167]]}, "properties": {"highway": "service"}}, {"type": "Feature", "geometry": {"type": "LineString", "coordinates": [[693442.1803688844, 4375408.27495167], [693434.0959559266, 4375408.494939997]]}, "properties": {"highway": "service"}}, {"type": "Feature", "geometry": {"type": "LineString", "coordinates": [[693442.1803688844, 4375408.27495167], [693442.0720948733, 4375379.2172271805]]}, "properties": {"highway": "service"}}, {"type": "Feature", "geometry": {"type": "LineString", "coordinates": [[693442.1803688844, 4375408.27495167], [693442.1944748634, 4375414.594993042], [693475.9832918049, 4375413.829149988]]}, "properties": {"highway": "service"}}, {"type": "Feature", "geometry": {"type": "LineString", "coordinates": [[693475.9832918049, 4375413.829149988], [693475.4597048153, 4375379.363197243]]}, "properties": {"highway": "service"}}, {"type": "Feature", "geometry": {"type": "LineString", "coordinates": [[693475.9832918049, 4375413.829149988], [693476.1537494811, 4375425.251059684]]}, "properties": {"highway": "service"}}, {"type": "Feature", "geometry": {"type": "LineString", "coordinates": [[693475.9832918049, 4375413.829149988], [693442.1944748634, 4375414.594993042], [693442.1803688844, 4375408.27495167]]}, "properties": {"highway": "service"}}, {"type": "Feature", "geometry": {"type": "LineString", "coordinates": [[693442.0720948733, 4375379.2172271805], [693475.4597048153, 4375379.363197243]]}, "properties": {"highway": "service"}}, {"type": "Feature", "geometry": {"type": "LineString", "coordinates": [[693442.0720948733, 4375379.2172271805], [693433.8822531577, 4375379.179129316]]}, "properties": {"highway": "service"}}, {"type": "Feature", "geometry": {"type": "LineString", "coordinates": [[693442.0720948733, 4375379.2172271805], [693442.1803688844, 4375408.27495167]]}, "properties": {"highway": "service"}}, {"type": "Feature", "geometry": {"type": "LineString", "coordinates": [[693445.1801882628, 4375510.275750102], [693446.9095175853, 4375514.061921525]]}, "properties": {"highway": "service"}}, {"type": "Feature", "geometry": {"type": "LineString", "coordinates": [[693445.1801882628, 4375510.275750102], [693443.9975312436, 4375507.6805497715], [693444.4281293551, 4375490.453775738], [693478.0937473814, 4375465.694490292]]}, "properties": {"highway": "service"}}, {"type": "Feature", "geometry": {"type": "LineString", "coordinates": [[693445.1801882628, 4375510.275750102], [693478.939721806, 4375488.295485977], [693480.6630526623, 4375482.68527816], [693480.2940208969, 4375470.947415741], [693478.0937473814, 4375465.694490292]]}, "properties": {"highway": "service"}}, {"type": "Feature", "geometry": {"type": "LineString", "coordinates": [[693227.8736250754, 4375422.602316775], [693239.9550797234, 4375420.116200821]]}, "properties": {"highway": "service"}}, {"type": "Feature", "geometry": {"type": "LineString", "coordinates": [[693268.0183146318, 4375430.879577743], [693239.8842787009, 4375430.532462352]]}, "properties": {"highway": "footway"}}, {"type": "Feature", "geometry": {"type": "LineString", "coordinates": [[693268.0183146318, 4375430.879577743], [693267.5180914592, 4375457.456391413]]}, "properties": {"highway": "service"}}, {"type": "Feature", "geometry": {"type": "LineString", "coordinates": [[693239.8842787009, 4375430.532462352], [693268.0183146318, 4375430.879577743]]}, "properties": {"highway": "footway"}}, {"type": "Feature", "geometry": {"type": "LineString", "coordinates": [[693239.8842787009, 4375430.532462352], [693239.7097859452, 4375457.506137538]]}, "properties": {"highway": "footway"}}, {"type": "Feature", "geometry": {"type": "LineString", "coordinates": [[693239.8842787009, 4375430.532462352], [693239.9550797234, 4375420.116200821]]}, "properties": {"highway": "footway"}}, {"type": "Feature", "geometry": {"type": "LineString", "coordinates": [[693239.7097859452, 4375457.506137538], [693239.8842787009, 4375430.532462352]]}, "properties": {"highway": "footway"}}, {"type": "Feature", "geometry": {"type": "LineString", "coordinates": [[693239.7097859452, 4375457.506137538], [693230.2452724804, 4375457.525275461]]}, "properties": {"highway": "service"}}, {"type": "Feature", "geometry": {"type": "LineString", "coordinates": [[693362.3370888075, 4375361.464353814], [693362.3453877345, 4375356.65538144]]}, "properties": {"highway": "service"}}, {"type": "Feature", "geometry": {"type": "LineString", "coordinates": [[693267.5180914592, 4375457.456391413], [693267.4299665566, 4375462.363327434], [693266.6458957328, 4375464.820528733], [693264.4930272142, 4375466.965881701], [693260.7783018841, 4375467.917141501], [693237.4253254096, 4375467.334007926], [693228.6766287886, 4375463.839108415]]}, "properties": {"highway": "service"}}, {"type": "Feature", "geometry": {"type": "LineString", "coordinates": [[693267.5180914592, 4375457.456391413], [693255.795269328, 4375457.296929326], [693245.4287633828, 4375457.260205032], [693239.7097859452, 4375457.506137538]]}, "properties": {"highway": "service"}}, {"type": "Feature", "geometry": {"type": "LineString", "coordinates": [[693239.9550797234, 4375420.116200821], [693239.8842787009, 4375430.532462352]]}, "properties": {"highway": "footway"}}, {"type": "Feature", "geometry": {"type": "LineString", "coordinates": [[693239.9550797234, 4375420.116200821], [693265.3778898435, 4375419.818063093], [693267.4606478899, 4375420.82524563], [693268.1640881517, 4375423.319593771], [693268.0183146318, 4375430.879577743]]}, "properties": {"highway": "service"}}, {"type": "Feature", "geometry": {"type": "LineString", "coordinates": [[693488.3771214955, 4375502.78127964], [693496.6311866222, 4375502.654448903]]}, "properties": {"highway": "footway"}}, {"type": "Feature", "geometry": {"type": "LineString", "coordinates": [[693488.3771214955, 4375502.78127964], [693488.5844797195, 4375511.005395764]]}, "properties": {"highway": "footway"}}, {"type": "Feature", "geometry": {"type": "LineString", "coordinates": [[693488.3771214955, 4375502.78127964], [693487.6412961747, 4375501.241269835], [693486.2608776647, 4375499.674037764]]}, "properties": {"highway": "footway"}}, {"type": "Feature", "geometry": {"type": "LineString", "coordinates": [[693253.0524117012, 4375395.553252766], [693253.1913960691, 4375381.7178478725]]}, "properties": {"highway": "footway"}}, {"type": "Feature", "geometry": {"type": "LineString", "coordinates": [[693253.0524117012, 4375395.553252766], [693275.8281292527, 4375396.177537218]]}, "properties": {"highway": "footway"}}, {"type": "Feature", "geometry": {"type": "LineString", "coordinates": [[693253.0524117012, 4375395.553252766], [693237.3958742421, 4375395.117892802], [693234.1185209088, 4375395.780208348], [693231.1382460478, 4375397.29404718], [693228.7007636983, 4375398.088400882], [693226.5015272767, 4375398.300051703], [693224.4295963179, 4375398.237215554]]}, "properties": {"highway": "footway"}}, {"type": "Feature", "geometry": {"type": "LineString", "coordinates": [[693253.1913960691, 4375381.7178478725], [693253.0524117012, 4375395.553252766]]}, "properties": {"highway": "footway"}}, {"type": "Feature", "geometry": {"type": "LineString", "coordinates": [[693253.1913960691, 4375381.7178478725], [693280.0802357189, 4375382.32267607]]}, "properties": {"highway": "footway"}}, {"type": "Feature", "geometry": {"type": "LineString", "coordinates": [[693253.1913960691, 4375381.7178478725], [693224.5054938777, 4375381.068246492]]}, "properties": {"highway": "footway"}}, {"type": "Feature", "geometry": {"type": "LineString", "coordinates": [[693224.4295963179, 4375398.237215554], [693226.5015272767, 4375398.300051703], [693228.7007636983, 4375398.088400882], [693231.1382460478, 4375397.29404718], [693234.1185209088, 4375395.780208348], [693237.3958742421, 4375395.117892802], [693253.0524117012, 4375395.553252766]]}, "properties": {"highway": "footway"}}, {"type": "Feature", "geometry": {"type": "LineString", "coordinates": [[693280.0802357189, 4375382.32267607], [693253.1913960691, 4375381.7178478725]]}, "properties": {"highway": "footway"}}, {"type": "Feature", "geometry": {"type": "LineString", "coordinates": [[693280.0802357189, 4375382.32267607], [693279.8750499921, 4375386.749102708], [693278.3035787849, 4375392.829618079], [693275.8281292527, 4375396.177537218]]}, "properties": {"highway": "service"}}, {"type": "Feature", "geometry": {"type": "LineString", "coordinates": [[693224.5054938777, 4375381.068246492], [693253.1913960691, 4375381.7178478725]]}, "properties": {"highway": "footway"}}, {"type": "Feature", "geometry": {"type": "LineString", "coordinates": [[693488.0351548747, 4375318.924141879], [693474.9449465733, 4375319.074483032]]}, "properties": {"highway": "service"}}, {"type": "Feature", "geometry": {"type": "LineString", "coordinates": [[693488.0351548747, 4375318.924141879], [693497.5852873174, 4375318.9296619855]]}, "properties": {"highway": "service"}}, {"type": "Feature", "geometry": {"type": "LineString", "coordinates": [[693488.0351548747, 4375318.924141879], [693488.2897981221, 4375266.407110737]]}, "properties": {"highway": "footway"}}, {"type": "Feature", "geometry": {"type": "LineString", "coordinates": [[693488.0351548747, 4375318.924141879], [693488.2250753823, 4375350.216354666]]}, "properties": {"highway": "footway"}}, {"type": "Feature", "geometry": {"type": "LineString", "coordinates": [[693497.5852873174, 4375318.9296619855], [693488.0351548747, 4375318.924141879]]}, "properties": {"highway": "service"}}, {"type": "Feature", "geometry": {"type": "LineString", "coordinates": [[693488.2897981221, 4375266.407110737], [693488.0351548747, 4375318.924141879]]}, "properties": {"highway": "footway"}}, {"type": "Feature", "geometry": {"type": "LineString", "coordinates": [[693488.2250753823, 4375350.216354666], [693497.1730011036, 4375350.217927944]]}, "properties": {"highway": "footway"}}, {"type": "Feature", "geometry": {"type": "LineString", "coordinates": [[693488.2250753823, 4375350.216354666], [693488.0372097276, 4375357.730867876]]}, "properties": {"highway": "footway"}}, {"type": "Feature", "geometry": {"type": "LineString", "coordinates": [[693488.2250753823, 4375350.216354666], [693488.0351548747, 4375318.924141879]]}, "properties": {"highway": "footway"}}, {"type": "Feature", "geometry": {"type": "LineString", "coordinates": [[693488.0372097276, 4375357.730867876], [693497.0741592844, 4375357.956800454]]}, "properties": {"highway": "service"}}, {"type": "Feature", "geometry": {"type": "LineString", "coordinates": [[693488.0372097276, 4375357.730867876], [693475.122368616, 4375357.408002548]]}, "properties": {"highway": "service"}}, {"type": "Feature", "geometry": {"type": "LineString", "coordinates": [[693488.0372097276, 4375357.730867876], [693488.2250753823, 4375350.216354666]]}, "properties": {"highway": "footway"}}, {"type": "Feature", "geometry": {"type": "LineString", "coordinates": [[693488.0372097276, 4375357.730867876], [693487.9123358042, 4375362.725743757], [693487.86647079, 4375439.927008309], [693487.8386772034, 4375444.4800454015]]}, "properties": {"highway": "footway"}}, {"type": "Feature", "geometry": {"type": "LineString", "coordinates": [[693487.8386772034, 4375444.4800454015], [693496.2583974352, 4375443.924192107]]}, "properties": {"highway": "service"}}, {"type": "Feature", "geometry": {"type": "LineString", "coordinates": [[693487.8386772034, 4375444.4800454015], [693475.9718562068, 4375445.260717627]]}, "properties": {"highway": "service"}}, {"type": "Feature", "geometry": {"type": "LineString", "coordinates": [[693487.8386772034, 4375444.4800454015], [693487.86647079, 4375439.927008309], [693487.9123358042, 4375362.725743757], [693488.0372097276, 4375357.730867876]]}, "properties": {"highway": "footway"}}, {"type": "Feature", "geometry": {"type": "LineString", "coordinates": [[693487.8386772034, 4375444.4800454015], [693487.7881279826, 4375449.943260013], [693487.742296094, 4375455.217779334], [693487.7918823202, 4375460.117057698]]}, "properties": {"highway": "footway"}}, {"type": "Feature", "geometry": {"type": "LineString", "coordinates": [[693487.7918823202, 4375460.117057698], [693496.3608049934, 4375459.787069075]]}, "properties": {"highway": "service"}}, {"type": "Feature", "geometry": {"type": "LineString", "coordinates": [[693487.7918823202, 4375460.117057698], [693485.3374772858, 4375460.211188353], [693478.0937473814, 4375465.694490292]]}, "properties": {"highway": "service"}}, {"type": "Feature", "geometry": {"type": "LineString", "coordinates": [[693487.7918823202, 4375460.117057698], [693487.742296094, 4375455.217779334], [693487.7881279826, 4375449.943260013], [693487.8386772034, 4375444.4800454015]]}, "properties": {"highway": "footway"}}, {"type": "Feature", "geometry": {"type": "LineString", "coordinates": [[693487.7918823202, 4375460.117057698], [693487.6503364721, 4375467.155143683], [693487.6463636581, 4375495.532571033], [693487.2136477889, 4375497.698658728], [693486.2608776647, 4375499.674037764]]}, "properties": {"highway": "footway"}}, {"type": "Feature", "geometry": {"type": "LineString", "coordinates": [[693486.2608776647, 4375499.674037764], [693487.6412961747, 4375501.241269835], [693488.3771214955, 4375502.78127964]]}, "properties": {"highway": "footway"}}, {"type": "Feature", "geometry": {"type": "LineString", "coordinates": [[693486.2608776647, 4375499.674037764], [693487.2136477889, 4375497.698658728], [693487.6463636581, 4375495.532571033], [693487.6503364721, 4375467.155143683], [693487.7918823202, 4375460.117057698]]}, "properties": {"highway": "footway"}}, {"type": "Feature", "geometry": {"type": "LineString", "coordinates": [[693486.2608776647, 4375499.674037764], [693484.7797372787, 4375501.103087143], [693482.5200400358, 4375502.357178865], [693480.237332159, 4375502.8110161275], [693475.5193764616, 4375502.937412692], [693470.931501253, 4375503.366943943], [693467.4106369049, 4375504.478444999], [693457.7067570237, 4375508.911769394], [693446.9095175853, 4375514.061921525]]}, "properties": {"highway": "footway"}}, {"type": "Feature", "geometry": {"type": "LineString", "coordinates": [[693446.9095175853, 4375514.061921525], [693445.1801882628, 4375510.275750102]]}, "properties": {"highway": "service"}}, {"type": "Feature", "geometry": {"type": "LineString", "coordinates": [[693446.9095175853, 4375514.061921525], [693451.1264661899, 4375523.3081133915]]}, "properties": {"highway": "service"}}, {"type": "Feature", "geometry": {"type": "LineString", "coordinates": [[693446.9095175853, 4375514.061921525], [693457.7067570237, 4375508.911769394], [693467.4106369049, 4375504.478444999], [693470.931501253, 4375503.366943943], [693475.5193764616, 4375502.937412692], [693480.237332159, 4375502.8110161275], [693482.5200400358, 4375502.357178865], [693484.7797372787, 4375501.103087143], [693486.2608776647, 4375499.674037764]]}, "properties": {"highway": "footway"}}, {"type": "Feature", "geometry": {"type": "LineString", "coordinates": [[693446.9095175853, 4375514.061921525], [693443.9228609015, 4375515.486665852], [693416.1687576928, 4375527.832192365], [693376.1905769436, 4375548.035747104], [693372.6309173496, 4375548.635413654]]}, "properties": {"highway": "footway"}}, {"type": "Feature", "geometry": {"type": "LineString", "coordinates": [[693357.4933507467, 4375549.134611496], [693357.00383616, 4375558.396436993]]}, "properties": {"highway": "service"}}, {"type": "Feature", "geometry": {"type": "LineString", "coordinates": [[693357.4933507467, 4375549.134611496], [693351.0926762699, 4375549.119079364]]}, "properties": {"highway": "footway"}}, {"type": "Feature", "geometry": {"type": "LineString", "coordinates": [[693357.4933507467, 4375549.134611496], [693357.6458903735, 4375546.12851951], [693358.9788808527, 4375542.707655103], [693361.0108272334, 4375540.237213502], [693365.461925891, 4375537.36073745]]}, "properties": {"highway": "service"}}, {"type": "Feature", "geometry": {"type": "LineString", "coordinates": [[693357.4933507467, 4375549.134611496], [693363.5661841331, 4375549.186384134], [693367.4484150936, 4375549.105679476]]}, "properties": {"highway": "footway"}}, {"type": "Feature", "geometry": {"type": "LineString", "coordinates": [[693351.0926762699, 4375549.119079364], [693357.4933507467, 4375549.134611496]]}, "properties": {"highway": "footway"}}, {"type": "Feature", "geometry": {"type": "LineString", "coordinates": [[693351.0926762699, 4375549.119079364], [693351.1714825757, 4375558.3617839245]]}, "properties": {"highway": "footway"}}, {"type": "Feature", "geometry": {"type": "LineString", "coordinates": [[693351.0926762699, 4375549.119079364], [693302.664235678, 4375549.075481429], [693297.0052277525, 4375548.989666128]]}, "properties": {"highway": "footway"}}, {"type": "Feature", "geometry": {"type": "LineString", "coordinates": [[693297.0052277525, 4375548.989666128], [693297.0524781351, 4375558.120511494]]}, "properties": {"highway": "service"}}, {"type": "Feature", "geometry": {"type": "LineString", "coordinates": [[693297.0052277525, 4375548.989666128], [693296.9796426265, 4375542.780410578], [693294.345753698, 4375537.31679286]]}, "properties": {"highway": "service"}}, {"type": "Feature", "geometry": {"type": "LineString", "coordinates": [[693297.0052277525, 4375548.989666128], [693302.664235678, 4375549.075481429], [693351.0926762699, 4375549.119079364]]}, "properties": {"highway": "footway"}}, {"type": "Feature", "geometry": {"type": "LineString", "coordinates": [[693297.0052277525, 4375548.989666128], [693292.2839792138, 4375548.905063691], [693289.1886239426, 4375548.827752725], [693286.1018541837, 4375547.717739208], [693261.2674571265, 4375547.552891739]]}, "properties": {"highway": "footway"}}, {"type": "Feature", "geometry": {"type": "LineString", "coordinates": [[693225.6963958414, 4375547.020083271], [693226.6091985225, 4375547.331646907], [693261.2674571265, 4375547.552891739]]}, "properties": {"highway": "footway"}}, {"type": "Feature", "geometry": {"type": "LineString", "coordinates": [[693224.3008679759, 4375500.570584392], [693256.8031175621, 4375501.004526011]]}, "properties": {"highway": "service"}}, {"type": "Feature", "geometry": {"type": "LineString", "coordinates": [[693224.4674563259, 4375482.182146145], [693280.5873124187, 4375482.595022575], [693280.3692831383, 4375501.315382488], [693256.8031175621, 4375501.004526011]]}, "properties": {"highway": "service"}}, {"type": "Feature", "geometry": {"type": "LineString", "coordinates": [[693399.1350283653, 4375557.383364518], [693396.7583334069, 4375549.893616237]]}, "properties": {"highway": "service"}}, {"type": "Feature", "geometry": {"type": "LineString", "coordinates": [[693399.1350283653, 4375557.383364518], [693399.7807207345, 4375559.432019104], [693399.7493358323, 4375576.180075012]]}, "properties": {"highway": "service"}}, {"type": "Feature", "geometry": {"type": "LineString", "coordinates": [[693399.1350283653, 4375557.383364518], [693392.01931525, 4375561.192832406], [693386.1880699432, 4375563.523898435], [693380.2037250455, 4375565.095890342], [693367.7127680937, 4375565.383534196]]}, "properties": {"highway": "footway"}}, {"type": "Feature", "geometry": {"type": "LineString", "coordinates": [[693399.1350283653, 4375557.383364518], [693415.8166957316, 4375548.459565568], [693423.6985068053, 4375544.63594567]]}, "properties": {"highway": "footway"}}, {"type": "Feature", "geometry": {"type": "LineString", "coordinates": [[693495.6161475016, 4375607.598172546], [693495.8736534658, 4375600.052077391], [693493.2292647578, 4375565.077706402], [693491.7361553564, 4375531.198364294], [693491.398934361, 4375527.480306797], [693490.582421787, 4375524.350025989], [693488.87195418, 4375522.2192079555]]}, "properties": {"highway": "footway"}}, {"type": "Feature", "geometry": {"type": "LineString", "coordinates": [[693423.6985068053, 4375544.63594567], [693428.6155155638, 4375555.132461496]]}, "properties": {"highway": "service"}}, {"type": "Feature", "geometry": {"type": "LineString", "coordinates": [[693423.6985068053, 4375544.63594567], [693420.578495344, 4375537.971717077]]}, "properties": {"highway": "service"}}, {"type": "Feature", "geometry": {"type": "LineString", "coordinates": [[693423.6985068053, 4375544.63594567], [693415.8166957316, 4375548.459565568], [693399.1350283653, 4375557.383364518]]}, "properties": {"highway": "footway"}}, {"type": "Feature", "geometry": {"type": "LineString", "coordinates": [[693423.6985068053, 4375544.63594567], [693431.8155297928, 4375540.696039091], [693472.0854095598, 4375521.221985565], [693478.7942750669, 4375520.267934636], [693482.8382269532, 4375520.257969868], [693486.2819575215, 4375520.854973995], [693488.87195418, 4375522.2192079555]]}, "properties": {"highway": "footway"}}, {"type": "Feature", "geometry": {"type": "LineString", "coordinates": [[693367.4484150936, 4375549.105679476], [693367.662554398, 4375558.440620134]]}, "properties": {"highway": "footway"}}, {"type": "Feature", "geometry": {"type": "LineString", "coordinates": [[693367.4484150936, 4375549.105679476], [693370.1685008793, 4375549.051471769], [693372.6309173496, 4375548.635413654]]}, "properties": {"highway": "footway"}}, {"type": "Feature", "geometry": {"type": "LineString", "coordinates": [[693367.4484150936, 4375549.105679476], [693363.5661841331, 4375549.186384134], [693357.4933507467, 4375549.134611496]]}, "properties": {"highway": "footway"}}, {"type": "Feature", "geometry": {"type": "LineString", "coordinates": [[693367.7127680937, 4375565.383534196], [693367.662554398, 4375558.440620134]]}, "properties": {"highway": "footway"}}, {"type": "Feature", "geometry": {"type": "LineString", "coordinates": [[693367.7127680937, 4375565.383534196], [693364.8099106732, 4375567.243560396], [693356.9822293555, 4375567.525566824]]}, "properties": {"highway": "footway"}}, {"type": "Feature", "geometry": {"type": "LineString", "coordinates": [[693367.7127680937, 4375565.383534196], [693380.2037250455, 4375565.095890342], [693386.1880699432, 4375563.523898435], [693392.01931525, 4375561.192832406], [693399.1350283653, 4375557.383364518]]}, "properties": {"highway": "footway"}}, {"type": "Feature", "geometry": {"type": "LineString", "coordinates": [[693488.87195418, 4375522.2192079555], [693497.838265577, 4375522.165720587]]}, "properties": {"highway": "footway"}}, {"type": "Feature", "geometry": {"type": "LineString", "coordinates": [[693488.87195418, 4375522.2192079555], [693488.5844797195, 4375511.005395764]]}, "properties": {"highway": "footway"}}, {"type": "Feature", "geometry": {"type": "LineString", "coordinates": [[693488.87195418, 4375522.2192079555], [693486.2819575215, 4375520.854973995], [693482.8382269532, 4375520.257969868], [693478.7942750669, 4375520.267934636], [693472.0854095598, 4375521.221985565], [693431.8155297928, 4375540.696039091], [693423.6985068053, 4375544.63594567]]}, "properties": {"highway": "footway"}}, {"type": "Feature", "geometry": {"type": "LineString", "coordinates": [[693488.87195418, 4375522.2192079555], [693490.582421787, 4375524.350025989], [693491.398934361, 4375527.480306797], [693491.7361553564, 4375531.198364294], [693493.2292647578, 4375565.077706402], [693495.8736534658, 4375600.052077391], [693495.6161475016, 4375607.598172546]]}, "properties": {"highway": "footway"}}, {"type": "Feature", "geometry": {"type": "LineString", "coordinates": [[693427.4340415412, 4375289.831521409], [693427.3035901156, 4375317.428299521]]}, "properties": {"highway": "footway"}}, {"type": "Feature", "geometry": {"type": "LineString", "coordinates": [[693433.445673229, 4375317.470739747], [693433.4642473294, 4375319.825815066]]}, "properties": {"highway": "service"}}, {"type": "Feature", "geometry": {"type": "LineString", "coordinates": [[693433.445673229, 4375317.470739747], [693433.3622323477, 4375305.662279018]]}, "properties": {"highway": "service"}}, {"type": "Feature", "geometry": {"type": "LineString", "coordinates": [[693433.445673229, 4375317.470739747], [693427.3035901156, 4375317.428299521]]}, "properties": {"highway": "footway"}}, {"type": "Feature", "geometry": {"type": "LineString", "coordinates": [[693427.3035901156, 4375317.428299521], [693433.445673229, 4375317.470739747]]}, "properties": {"highway": "footway"}}, {"type": "Feature", "geometry": {"type": "LineString", "coordinates": [[693427.3035901156, 4375317.428299521], [693425.7381134257, 4375317.411388238]]}, "properties": {"highway": "footway"}}, {"type": "Feature", "geometry": {"type": "LineString", "coordinates": [[693427.3035901156, 4375317.428299521], [693427.1859005071, 4375342.10434732]]}, "properties": {"highway": "footway"}}, {"type": "Feature", "geometry": {"type": "LineString", "coordinates": [[693427.3035901156, 4375317.428299521], [693427.4340415412, 4375289.831521409]]}, "properties": {"highway": "footway"}}, {"type": "Feature", "geometry": {"type": "LineString", "coordinates": [[693425.7381134257, 4375317.411388238], [693427.3035901156, 4375317.428299521]]}, "properties": {"highway": "footway"}}, {"type": "Feature", "geometry": {"type": "LineString", "coordinates": [[693377.6084235976, 4375356.314798176], [693362.3453877345, 4375356.65538144]]}, "properties": {"highway": "footway"}}, {"type": "Feature", "geometry": {"type": "LineString", "coordinates": [[693377.6084235976, 4375356.314798176], [693377.5998168621, 4375353.215827253]]}, "properties": {"highway": "footway"}}, {"type": "Feature", "geometry": {"type": "LineString", "coordinates": [[693377.6084235976, 4375356.314798176], [693377.6451017522, 4375382.394133914]]}, "properties": {"highway": "footway"}}, {"type": "Feature", "geometry": {"type": "LineString", "coordinates": [[693362.3453877345, 4375356.65538144], [693362.3370888075, 4375361.464353814]]}, "properties": {"highway": "service"}}, {"type": "Feature", "geometry": {"type": "LineString", "coordinates": [[693362.3453877345, 4375356.65538144], [693362.3702830152, 4375342.228464516]]}, "properties": {"highway": "service"}}, {"type": "Feature", "geometry": {"type": "LineString", "coordinates": [[693362.3453877345, 4375356.65538144], [693377.6084235976, 4375356.314798176]]}, "properties": {"highway": "footway"}}, {"type": "Feature", "geometry": {"type": "LineString", "coordinates": [[693362.3702830152, 4375342.228464516], [693362.3453877345, 4375356.65538144]]}, "properties": {"highway": "service"}}, {"type": "Feature", "geometry": {"type": "LineString", "coordinates": [[693362.3702830152, 4375342.228464516], [693362.4366504526, 4375302.035156627]]}, "properties": {"highway": "service"}}, {"type": "Feature", "geometry": {"type": "LineString", "coordinates": [[693362.3702830152, 4375342.228464516], [693376.5787894778, 4375341.739357982], [693377.5903559861, 4375342.231112289]]}, "properties": {"highway": "footway"}}, {"type": "Feature", "geometry": {"type": "LineString", "coordinates": [[693377.5903559861, 4375342.231112289], [693427.1859005071, 4375342.10434732]]}, "properties": {"highway": "footway"}}, {"type": "Feature", "geometry": {"type": "LineString", "coordinates": [[693377.5903559861, 4375342.231112289], [693377.5881343627, 4375341.286991391]]}, "properties": {"highway": "footway"}}, {"type": "Feature", "geometry": {"type": "LineString", "coordinates": [[693377.5903559861, 4375342.231112289], [693377.5998168621, 4375353.215827253]]}, "properties": {"highway": "footway"}}, {"type": "Feature", "geometry": {"type": "LineString", "coordinates": [[693377.5903559861, 4375342.231112289], [693376.5787894778, 4375341.739357982], [693362.3702830152, 4375342.228464516]]}, "properties": {"highway": "footway"}}, {"type": "Feature", "geometry": {"type": "LineString", "coordinates": [[693427.1859005071, 4375342.10434732], [693377.5903559861, 4375342.231112289]]}, "properties": {"highway": "footway"}}, {"type": "Feature", "geometry": {"type": "LineString", "coordinates": [[693427.1859005071, 4375342.10434732], [693427.1339924764, 4375353.131959536]]}, "properties": {"highway": "footway"}}, {"type": "Feature", "geometry": {"type": "LineString", "coordinates": [[693427.1859005071, 4375342.10434732], [693427.3035901156, 4375317.428299521]]}, "properties": {"highway": "footway"}}, {"type": "Feature", "geometry": {"type": "LineString", "coordinates": [[693377.5998168621, 4375353.215827253], [693427.1339924764, 4375353.131959536]]}, "properties": {"highway": "footway"}}, {"type": "Feature", "geometry": {"type": "LineString", "coordinates": [[693377.5998168621, 4375353.215827253], [693377.5903559861, 4375342.231112289]]}, "properties": {"highway": "footway"}}, {"type": "Feature", "geometry": {"type": "LineString", "coordinates": [[693377.5998168621, 4375353.215827253], [693377.6084235976, 4375356.314798176]]}, "properties": {"highway": "footway"}}, {"type": "Feature", "geometry": {"type": "LineString", "coordinates": [[693377.5881343627, 4375341.286991391], [693377.5903559861, 4375342.231112289]]}, "properties": {"highway": "footway"}}, {"type": "Feature", "geometry": {"type": "LineString", "coordinates": [[693427.1339924764, 4375353.131959536], [693377.5998168621, 4375353.215827253]]}, "properties": {"highway": "footway"}}, {"type": "Feature", "geometry": {"type": "LineString", "coordinates": [[693427.1339924764, 4375353.131959536], [693427.1859005071, 4375342.10434732]]}, "properties": {"highway": "footway"}}, {"type": "Feature", "geometry": {"type": "LineString", "coordinates": [[693427.1339924764, 4375353.131959536], [693427.0087943592, 4375380.517845397], [693379.3517409367, 4375380.548645827], [693377.6451017522, 4375382.394133914]]}, "properties": {"highway": "footway"}}, {"type": "Feature", "geometry": {"type": "LineString", "coordinates": [[693377.6451017522, 4375382.394133914], [693377.6084235976, 4375356.314798176]]}, "properties": {"highway": "footway"}}, {"type": "Feature", "geometry": {"type": "LineString", "coordinates": [[693377.6451017522, 4375382.394133914], [693366.5986646034, 4375384.084009123]]}, "properties": {"highway": "footway"}}, {"type": "Feature", "geometry": {"type": "LineString", "coordinates": [[693377.6451017522, 4375382.394133914], [693379.3517409367, 4375380.548645827], [693427.0087943592, 4375380.517845397], [693427.1339924764, 4375353.131959536]]}, "properties": {"highway": "footway"}}, {"type": "Feature", "geometry": {"type": "LineString", "coordinates": [[693372.490027939, 4375410.687252312], [693371.0912656322, 4375409.852624136], [693366.8919346732, 4375409.880981839]]}, "properties": {"highway": "footway"}}, {"type": "Feature", "geometry": {"type": "LineString", "coordinates": [[693359.8129830786, 4375409.804076154], [693366.8919346732, 4375409.880981839]]}, "properties": {"highway": "footway"}}, {"type": "Feature", "geometry": {"type": "LineString", "coordinates": [[693359.8129830786, 4375409.804076154], [693359.7626026433, 4375433.51551862], [693362.900730848, 4375436.703786219], [693362.9498485678, 4375443.346791463]]}, "properties": {"highway": "footway"}}, {"type": "Feature", "geometry": {"type": "LineString", "coordinates": [[693359.8129830786, 4375409.804076154], [693359.8736166079, 4375385.337638556], [693366.5986646034, 4375384.084009123]]}, "properties": {"highway": "footway"}}, {"type": "Feature", "geometry": {"type": "LineString", "coordinates": [[693363.2040343496, 4375478.972177424], [693360.8736205115, 4375478.925058471]]}, "properties": {"highway": "footway"}}, {"type": "Feature", "geometry": {"type": "LineString", "coordinates": [[693363.2040343496, 4375478.972177424], [693369.7306909654, 4375479.113036972]]}, "properties": {"highway": "footway"}}, {"type": "Feature", "geometry": {"type": "LineString", "coordinates": [[693363.2040343496, 4375478.972177424], [693362.9498485678, 4375443.346791463]]}, "properties": {"highway": "footway"}}, {"type": "Feature", "geometry": {"type": "LineString", "coordinates": [[693363.2040343496, 4375478.972177424], [693363.3938310337, 4375505.810593926], [693360.0371939696, 4375509.647376077], [693359.9304859352, 4375534.5791472485]]}, "properties": {"highway": "footway"}}, {"type": "Feature", "geometry": {"type": "LineString", "coordinates": [[693360.8736205115, 4375478.925058471], [693363.2040343496, 4375478.972177424]]}, "properties": {"highway": "footway"}}, {"type": "Feature", "geometry": {"type": "LineString", "coordinates": [[693362.9498485678, 4375443.346791463], [693369.4881842341, 4375443.365767567]]}, "properties": {"highway": "footway"}}, {"type": "Feature", "geometry": {"type": "LineString", "coordinates": [[693362.9498485678, 4375443.346791463], [693360.8160762868, 4375443.349012876]]}, "properties": {"highway": "footway"}}, {"type": "Feature", "geometry": {"type": "LineString", "coordinates": [[693362.9498485678, 4375443.346791463], [693363.2040343496, 4375478.972177424]]}, "properties": {"highway": "footway"}}, {"type": "Feature", "geometry": {"type": "LineString", "coordinates": [[693362.9498485678, 4375443.346791463], [693362.900730848, 4375436.703786219], [693359.7626026433, 4375433.51551862], [693359.8129830786, 4375409.804076154]]}, "properties": {"highway": "footway"}}, {"type": "Feature", "geometry": {"type": "LineString", "coordinates": [[693360.8160762868, 4375443.349012876], [693362.9498485678, 4375443.346791463]]}, "properties": {"highway": "footway"}}, {"type": "Feature", "geometry": {"type": "LineString", "coordinates": [[693359.9304859352, 4375534.5791472485], [693360.0371939696, 4375509.647376077], [693363.3938310337, 4375505.810593926], [693363.2040343496, 4375478.972177424]]}, "properties": {"highway": "footway"}}, {"type": "Feature", "geometry": {"type": "LineString", "coordinates": [[693256.2244856474, 4375531.41117539], [693256.2772791975, 4375537.221268904], [693256.6062625495, 4375539.206467019], [693257.364873778, 4375540.869194506], [693259.4406855198, 4375543.1867877], [693260.9309914026, 4375545.86738587], [693261.2674571265, 4375547.552891739]]}, "properties": {"highway": "footway"}}, {"type": "Feature", "geometry": {"type": "LineString", "coordinates": [[693261.2674571265, 4375547.552891739], [693261.3491584406, 4375557.717512641]]}, "properties": {"highway": "footway"}}, {"type": "Feature", "geometry": {"type": "LineString", "coordinates": [[693261.2674571265, 4375547.552891739], [693286.1018541837, 4375547.717739208], [693289.1886239426, 4375548.827752725], [693292.2839792138, 4375548.905063691], [693297.0052277525, 4375548.989666128]]}, "properties": {"highway": "footway"}}, {"type": "Feature", "geometry": {"type": "LineString", "coordinates": [[693261.2674571265, 4375547.552891739], [693226.6091985225, 4375547.331646907], [693225.6963958414, 4375547.020083271]]}, "properties": {"highway": "footway"}}, {"type": "Feature", "geometry": {"type": "LineString", "coordinates": [[693261.2674571265, 4375547.552891739], [693260.9309914026, 4375545.86738587], [693259.4406855198, 4375543.1867877], [693257.364873778, 4375540.869194506], [693256.6062625495, 4375539.206467019], [693256.2772791975, 4375537.221268904], [693256.2244856474, 4375531.41117539]]}, "properties": {"highway": "footway"}}, {"type": "Feature", "geometry": {"type": "LineString", "coordinates": [[693261.3491584406, 4375557.717512641], [693297.0524781351, 4375558.120511494]]}, "properties": {"highway": "tertiary"}}, {"type": "Feature", "geometry": {"type": "LineString", "coordinates": [[693261.3491584406, 4375557.717512641], [693223.194804786, 4375557.275694382]]}, "properties": {"highway": "tertiary"}}, {"type": "Feature", "geometry": {"type": "LineString", "coordinates": [[693261.3491584406, 4375557.717512641], [693261.2674571265, 4375547.552891739]]}, "properties": {"highway": "footway"}}, {"type": "Feature", "geometry": {"type": "LineString", "coordinates": [[693256.1282757896, 4375516.659149017], [693256.7694272145, 4375509.933426604], [693256.8031175621, 4375501.004526011]]}, "properties": {"highway": "footway"}}, {"type": "Feature", "geometry": {"type": "LineString", "coordinates": [[693256.8031175621, 4375501.004526011], [693224.3008679759, 4375500.570584392]]}, "properties": {"highway": "service"}}, {"type": "Feature", "geometry": {"type": "LineString", "coordinates": [[693256.8031175621, 4375501.004526011], [693280.3692831383, 4375501.315382488], [693280.5873124187, 4375482.595022575], [693224.4674563259, 4375482.182146145]]}, "properties": {"highway": "service"}}, {"type": "Feature", "geometry": {"type": "LineString", "coordinates": [[693256.8031175621, 4375501.004526011], [693256.7694272145, 4375509.933426604], [693256.1282757896, 4375516.659149017]]}, "properties": {"highway": "footway"}}, {"type": "Feature", "geometry": {"type": "LineString", "coordinates": [[693223.5297195456, 4375564.192387977], [693344.0782763083, 4375565.059586393], [693346.6602315968, 4375565.3684393745], [693349.4027819358, 4375566.48098461], [693350.4204243209, 4375567.761461477]]}, "properties": {"highway": "footway"}}, {"type": "Feature", "geometry": {"type": "LineString", "coordinates": [[693349.8878954191, 4375650.714864893], [693351.62387087, 4375647.692801386], [693350.6312283316, 4375570.343471921], [693350.4204243209, 4375567.761461477]]}, "properties": {"highway": "footway"}}, {"type": "Feature", "geometry": {"type": "LineString", "coordinates": [[693350.4204243209, 4375567.761461477], [693356.9822293555, 4375567.525566824]]}, "properties": {"highway": "footway"}}, {"type": "Feature", "geometry": {"type": "LineString", "coordinates": [[693350.4204243209, 4375567.761461477], [693351.1714825757, 4375558.3617839245]]}, "properties": {"highway": "footway"}}, {"type": "Feature", "geometry": {"type": "LineString", "coordinates": [[693350.4204243209, 4375567.761461477], [693350.6312283316, 4375570.343471921], [693351.62387087, 4375647.692801386], [693349.8878954191, 4375650.714864893]]}, "properties": {"highway": "footway"}}, {"type": "Feature", "geometry": {"type": "LineString", "coordinates": [[693350.4204243209, 4375567.761461477], [693349.4027819358, 4375566.48098461], [693346.6602315968, 4375565.3684393745], [693344.0782763083, 4375565.059586393], [693223.5297195456, 4375564.192387977]]}, "properties": {"highway": "footway"}}]}