{"type": "FeatureCollection", "features": [{"type": "Feature", "geometry": {"type": "LineString", "coordinates": [[693669.8905534723, 4376207.720355663], [693679.7380164468, 4376207.83357029]]}, "properties": {"highway": "residential"}}, {"type": "Feature", "geometry": {"type": "LineString", "coordinates": [[693669.8905534723, 4376207.720355663], [693662.009694086, 4376207.745230282]]}, "properties": {"highway": "residential"}}, {"type": "Feature", "geometry": {"type": "LineString", "coordinates": [[693669.8905534723, 4376207.720355663], [693669.7847303285, 4376217.447171124]]}, "properties": {"highway": "residential"}}, {"type": "Feature", "geometry": {"type": "LineString", "coordinates": [[693669.8905534723, 4376207.720355663], [693670.0354123218, 4376199.527241234]]}, "properties": {"highway": "residential"}}, {"type": "Feature", "geometry": {"type": "LineString", "coordinates": [[693808.4609083046, 4376209.290861089], [693816.7433557594, 4376209.376155386]]}, "properties": {"highway": "residential"}}, {"type": "Feature", "geometry": {"type": "LineString", "coordinates": [[693808.4609083046, 4376209.290861089], [693799.1295667018, 4376209.179303523]]}, "properties": {"highway": "residential"}}, {"type": "Feature", "geometry": {"type": "LineString", "coordinates": [[693808.4609083046, 4376209.290861089], [693808.2609593982, 4376217.960190552]]}, "properties": {"highway": "tertiary"}}, {"type": "Feature", "geometry": {"type": "LineString", "coordinates": [[693808.4609083046, 4376209.290861089], [693808.4944673377, 4376200.395229782]]}, "properties": {"highway": "tertiary"}}, {"type": "Feature", "geometry": {"type": "LineString", "coordinates": [[693673.9007228382, 4375977.045878987], [693673.7248338271, 4375984.76062631]]}, "properties": {"highway": "residential"}}, {"type": "Feature", "geometry": {"type": "LineString", "coordinates": [[693673.9007228382, 4375977.045878987], [693673.7364004969, 4375967.112385197]]}, "properties": {"highway": "residential"}}, {"type": "Feature", "geometry": {"type": "LineString", "coordinates": [[693673.9007228382, 4375977.045878987], [693665.9710981378, 4375976.947369895]]}, "properties": {"highway": "trunk"}}, {"type": "Feature", "geometry": {"type": "LineString", "coordinates": [[693673.9007228382, 4375977.045878987], [693683.2509212738, 4375977.102206989]]}, "properties": {"highway": "trunk"}}, {"type": "Feature", "geometry": {"type": "LineString", "coordinates": [[693671.8910916107, 4376092.7384076025], [693671.7395708075, 4376101.197914576]]}, "properties": {"highway": "residential"}}, {"type": "Feature", "geometry": {"type": "LineString", "coordinates": [[693671.8910916107, 4376092.7384076025], [693671.9824734558, 4376083.244473096]]}, "properties": {"highway": "residential"}}, {"type": "Feature", "geometry": {"type": "LineString", "coordinates": [[693671.8910916107, 4376092.7384076025], [693663.7363804694, 4376092.700899708]]}, "properties": {"highway": "residential"}}, {"type": "Feature", "geometry": {"type": "LineString", "coordinates": [[693671.8910916107, 4376092.7384076025], [693681.7059774885, 4376092.784160128]]}, "properties": {"highway": "residential"}}, {"type": "Feature", "geometry": {"type": "LineString", "coordinates": [[693809.7320316866, 4375977.536885904], [693810.1313815844, 4375968.805913805]]}, "properties": {"highway": "trunk"}}, {"type": "Feature", "geometry": {"type": "LineString", "coordinates": [[693809.7320316866, 4375977.536885904], [693819.7708931271, 4375977.577307412]]}, "properties": {"highway": "residential"}}, {"type": "Feature", "geometry": {"type": "LineString", "coordinates": [[693809.7320316866, 4375977.536885904], [693801.0865833244, 4375977.164855248]]}, "properties": {"highway": "trunk"}}, {"type": "Feature", "geometry": {"type": "LineString", "coordinates": [[693809.7320316866, 4375977.536885904], [693809.9059919835, 4375985.704669254]]}, "properties": {"highway": "tertiary"}}, {"type": "Feature", "geometry": {"type": "LineString", "coordinates": [[693808.7318321866, 4376093.376962181], [693818.1856269226, 4376093.413843062]]}, "properties": {"highway": "residential"}}, {"type": "Feature", "geometry": {"type": "LineString", "coordinates": [[693808.7318321866, 4376093.376962181], [693808.7202047867, 4376102.084327226]]}, "properties": {"highway": "tertiary"}}, {"type": "Feature", "geometry": {"type": "LineString", "coordinates": [[693808.7318321866, 4376093.376962181], [693800.2157351992, 4376093.341365507]]}, "properties": {"highway": "residential"}}, {"type": "Feature", "geometry": {"type": "LineString", "coordinates": [[693808.7318321866, 4376093.376962181], [693808.8516558346, 4376084.128078825]]}, "properties": {"highway": "tertiary"}}, {"type": "Feature", "geometry": {"type": "LineString", "coordinates": [[693809.5128039059, 4376034.719807286], [693818.7822262995, 4376034.907560295]]}, "properties": {"highway": "service"}}, {"type": "Feature", "geometry": {"type": "LineString", "coordinates": [[693809.5128039059, 4376034.719807286], [693800.8815363599, 4376034.814609581]]}, "properties": {"highway": "service"}}, {"type": "Feature", "geometry": {"type": "LineString", "coordinates": [[693809.5128039059, 4376034.719807286], [693808.8516558346, 4376084.128078825]]}, "properties": {"highway": "tertiary"}}, {"type": "Feature", "geometry": {"type": "LineString", "coordinates": [[693809.5128039059, 4376034.719807286], [693809.9059919835, 4375985.704669254]]}, "properties": {"highway": "tertiary"}}, {"type": "Feature", "geometry": {"type": "LineString", "coordinates": [[693670.8901391637, 4376150.257128757], [693670.0354123218, 4376199.527241234]]}, "properties": {"highway": "residential"}}, {"type": "Feature", "geometry": {"type": "LineString", "coordinates": [[693670.8901391637, 4376150.257128757], [693671.7395708075, 4376101.197914576]]}, "properties": {"highway": "residential"}}, {"type": "Feature", "geometry": {"type": "LineString", "coordinates": [[693670.8901391637, 4376150.257128757], [693680.6516997099, 4376150.368189861]]}, "properties": {"highway": "service"}}, {"type": "Feature", "geometry": {"type": "LineString", "coordinates": [[693670.8901391637, 4376150.257128757], [693662.8467012043, 4376150.244616655]]}, "properties": {"highway": "service"}}, {"type": "Feature", "geometry": {"type": "LineString", "coordinates": [[693812.2142638648, 4375917.933856278], [693810.1313815844, 4375968.805913805]]}, "properties": {"highway": "trunk"}}, {"type": "Feature", "geometry": {"type": "LineString", "coordinates": [[693674.7189178981, 4375917.545608026], [693673.7364004969, 4375967.112385197]]}, "properties": {"highway": "residential"}}, {"type": "Feature", "geometry": {"type": "LineString", "coordinates": [[693808.6364353725, 4376151.795840588], [693808.4944673377, 4376200.395229782]]}, "properties": {"highway": "tertiary"}}, {"type": "Feature", "geometry": {"type": "LineString", "coordinates": [[693808.6364353725, 4376151.795840588], [693808.7202047867, 4376102.084327226]]}, "properties": {"highway": "tertiary"}}, {"type": "Feature", "geometry": {"type": "LineString", "coordinates": [[693808.6364353725, 4376151.795840588], [693817.5931685687, 4376151.753634452]]}, "properties": {"highway": "service"}}, {"type": "Feature", "geometry": {"type": "LineString", "coordinates": [[693808.6364353725, 4376151.795840588], [693799.7346244574, 4376151.7061522445]]}, "properties": {"highway": "service"}}, {"type": "Feature", "geometry": {"type": "LineString", "coordinates": [[693672.4602074822, 4376034.942322146], [693671.9824734558, 4376083.244473096]]}, "properties": {"highway": "residential"}}, {"type": "Feature", "geometry": {"type": "LineString", "coordinates": [[693672.4602074822, 4376034.942322146], [693673.7248338271, 4375984.76062631]]}, "properties": {"highway": "residential"}}, {"type": "Feature", "geometry": {"type": "LineString", "coordinates": [[693672.4602074822, 4376034.942322146], [693682.5239437921, 4376035.016513209]]}, "properties": {"highway": "service"}}, {"type": "Feature", "geometry": {"type": "LineString", "coordinates": [[693672.4602074822, 4376034.942322146], [693664.4604716107, 4376034.897589532]]}, "properties": {"highway": "service"}}, {"type": "Feature", "geometry": {"type": "LineString", "coordinates": [[693877.1799389792, 4376210.012877304], [693816.7433557594, 4376209.376155386]]}, "properties": {"highway": "residential"}}, {"type": "Feature", "geometry": {"type": "LineString", "coordinates": [[693741.7004214467, 4375977.454782034], [693741.5810361205, 4375985.315333786]]}, "properties": {"highway": "service"}}, {"type": "Feature", "geometry": {"type": "LineString", "coordinates": [[693741.7004214467, 4375977.454782034], [693743.0028080447, 4375967.358084519]]}, "properties": {"highway": "service"}}, {"type": "Feature", "geometry": {"type": "LineString", "coordinates": [[693741.7004214467, 4375977.454782034], [693683.2509212738, 4375977.102206989]]}, "properties": {"highway": "trunk"}}, {"type": "Feature", "geometry": {"type": "LineString", "coordinates": [[693741.7004214467, 4375977.454782034], [693801.0865833244, 4375977.164855248]]}, "properties": {"highway": "trunk"}}, {"type": "Feature", "geometry": {"type": "LineString", "coordinates": [[693738.8488749551, 4376208.5026674], [693799.1295667018, 4376209.179303523]]}, "properties": {"highway": "residential"}}, {"type": "Feature", "geometry": {"type": "LineString", "coordinates": [[693738.8488749551, 4376208.5026674], [693679.7380164468, 4376207.83357029]]}, "properties": {"highway": "residential"}}, {"type": "Feature", "geometry": {"type": "LineString", "coordinates": [[693738.8488749551, 4376208.5026674], [693739.0126694287, 4376200.243383688]]}, "properties": {"highway": "service"}}, {"type": "Feature", "geometry": {"type": "LineString", "coordinates": [[693877.2786712934, 4376151.482978379], [693817.5931685687, 4376151.753634452]]}, "properties": {"highway": "service"}}, {"type": "Feature", "geometry": {"type": "LineString", "coordinates": [[693740.7500637086, 4376093.062811613], [693740.613161548, 4376101.6226482075]]}, "properties": {"highway": "service"}}, {"type": "Feature", "geometry": {"type": "LineString", "coordinates": [[693740.7500637086, 4376093.062811613], [693740.7533122068, 4376083.99982718]]}, "properties": {"highway": "service"}}, {"type": "Feature", "geometry": {"type": "LineString", "coordinates": [[693740.7500637086, 4376093.062811613], [693681.7059774885, 4376092.784160128]]}, "properties": {"highway": "residential"}}, {"type": "Feature", "geometry": {"type": "LineString", "coordinates": [[693740.7500637086, 4376093.062811613], [693800.2157351992, 4376093.341365507]]}, "properties": {"highway": "residential"}}, {"type": "Feature", "geometry": {"type": "LineString", "coordinates": [[693741.2547849951, 4376035.453900999], [693800.8815363599, 4376034.814609581]]}, "properties": {"highway": "service"}}, {"type": "Feature", "geometry": {"type": "LineString", "coordinates": [[693741.2547849951, 4376035.453900999], [693682.5239437921, 4376035.016513209]]}, "properties": {"highway": "service"}}, {"type": "Feature", "geometry": {"type": "LineString", "coordinates": [[693741.2547849951, 4376035.453900999], [693740.7533122068, 4376083.99982718]]}, "properties": {"highway": "service"}}, {"type": "Feature", "geometry": {"type": "LineString", "coordinates": [[693741.2547849951, 4376035.453900999], [693741.5810361205, 4375985.315333786]]}, "properties": {"highway": "service"}}, {"type": "Feature", "geometry": {"type": "LineString", "coordinates": [[693878.1347437885, 4376093.627357666], [693818.1856269226, 4376093.413843062]]}, "properties": {"highway": "residential"}}, {"type": "Feature", "geometry": {"type": "LineString", "coordinates": [[693878.7992349125, 4376034.489670222], [693873.513759659, 4376035.989923921], [693818.7822262995, 4376034.907560295]]}, "properties": {"highway": "service"}}, {"type": "Feature", "geometry": {"type": "LineString", "coordinates": [[693879.7203505478, 4375977.813000847], [693819.7708931271, 4375977.577307412]]}, "properties": {"highway": "residential"}}, {"type": "Feature", "geometry": {"type": "LineString", "coordinates": [[693742.6386557829, 4375918.33511921], [693743.0028080447, 4375967.358084519]]}, "properties": {"highway": "service"}}, {"type": "Feature", "geometry": {"type": "LineString", "coordinates": [[693739.831221808, 4376151.061199509], [693799.7346244574, 4376151.7061522445]]}, "properties": {"highway": "service"}}, {"type": "Feature", "geometry": {"type": "LineString", "coordinates": [[693739.831221808, 4376151.061199509], [693680.6516997099, 4376150.368189861]]}, "properties": {"highway": "service"}}, {"type": "Feature", "geometry": {"type": "LineString", "coordinates": [[693739.831221808, 4376151.061199509], [693739.0126694287, 4376200.243383688]]}, "properties": {"highway": "service"}}, {"type": "Feature", "geometry": {"type": "LineString", "coordinates": [[693739.831221808, 4376151.061199509], [693740.613161548, 4376101.6226482075]]}, "properties": {"highway": "service"}}, {"type": "Feature", "geometry": {"type": "LineString", "coordinates": [[693810.1313815844, 4375968.805913805], [693809.7320316866, 4375977.536885904]]}, "properties": {"highway": "trunk"}}, {"type": "Feature", "geometry": {"type": "LineString", "coordinates": [[693810.1313815844, 4375968.805913805], [693812.2142638648, 4375917.933856278]]}, "properties": {"highway": "trunk"}}, {"type": "Feature", "geometry": {"type": "LineString", "coordinates": [[693810.1313815844, 4375968.805913805], [693800.5273814325, 4375968.920783966]]}, "properties": {"highway": "footway"}}, {"type": "Feature", "geometry": {"type": "LineString", "coordinates": [[693810.1313815844, 4375968.805913805], [693817.8527714433, 4375968.288485415], [693819.4162166028, 4375967.694564485]]}, "properties": {"highway": "footway"}}, {"type": "Feature", "geometry": {"type": "LineString", "coordinates": [[693819.7708931271, 4375977.577307412], [693879.7203505478, 4375977.813000847]]}, "properties": {"highway": "residential"}}, {"type": "Feature", "geometry": {"type": "LineString", "coordinates": [[693819.7708931271, 4375977.577307412], [693809.7320316866, 4375977.536885904]]}, "properties": {"highway": "residential"}}, {"type": "Feature", "geometry": {"type": "LineString", "coordinates": [[693819.7708931271, 4375977.577307412], [693819.396670397, 4375969.84877525], [693819.4162166028, 4375967.694564485]]}, "properties": {"highway": "footway"}}, {"type": "Feature", "geometry": {"type": "LineString", "coordinates": [[693819.7708931271, 4375977.577307412], [693820.083068686, 4375984.004801285], [693819.439522091, 4375985.654687051]]}, "properties": {"highway": "footway"}}, {"type": "Feature", "geometry": {"type": "LineString", "coordinates": [[693801.0865833244, 4375977.164855248], [693741.7004214467, 4375977.454782034]]}, "properties": {"highway": "trunk"}}, {"type": "Feature", "geometry": {"type": "LineString", "coordinates": [[693801.0865833244, 4375977.164855248], [693809.7320316866, 4375977.536885904]]}, "properties": {"highway": "trunk"}}, {"type": "Feature", "geometry": {"type": "LineString", "coordinates": [[693801.0865833244, 4375977.164855248], [693800.5273814325, 4375968.920783966]]}, "properties": {"highway": "footway"}}, {"type": "Feature", "geometry": {"type": "LineString", "coordinates": [[693801.0865833244, 4375977.164855248], [693801.453954553, 4375983.7936504595], [693801.4335993272, 4375985.636853111]]}, "properties": {"highway": "footway"}}, {"type": "Feature", "geometry": {"type": "LineString", "coordinates": [[693809.9059919835, 4375985.704669254], [693809.5128039059, 4376034.719807286]]}, "properties": {"highway": "tertiary"}}, {"type": "Feature", "geometry": {"type": "LineString", "coordinates": [[693809.9059919835, 4375985.704669254], [693809.7320316866, 4375977.536885904]]}, "properties": {"highway": "tertiary"}}, {"type": "Feature", "geometry": {"type": "LineString", "coordinates": [[693809.9059919835, 4375985.704669254], [693803.9169574811, 4375985.754584939], [693801.4335993272, 4375985.636853111]]}, "properties": {"highway": "footway"}}, {"type": "Feature", "geometry": {"type": "LineString", "coordinates": [[693809.9059919835, 4375985.704669254], [693817.9340825861, 4375985.6502987305], [693819.439522091, 4375985.654687051]]}, "properties": {"highway": "footway"}}, {"type": "Feature", "geometry": {"type": "LineString", "coordinates": [[693673.7248338271, 4375984.76062631], [693672.4602074822, 4376034.942322146]]}, "properties": {"highway": "residential"}}, {"type": "Feature", "geometry": {"type": "LineString", "coordinates": [[693673.7248338271, 4375984.76062631], [693673.9007228382, 4375977.045878987]]}, "properties": {"highway": "residential"}}, {"type": "Feature", "geometry": {"type": "LineString", "coordinates": [[693673.7248338271, 4375984.76062631], [693666.4331453433, 4375983.92282854]]}, "properties": {"highway": "footway"}}, {"type": "Feature", "geometry": {"type": "LineString", "coordinates": [[693673.7248338271, 4375984.76062631], [693680.8107310598, 4375985.57106663], [693683.3434977345, 4375984.745927692]]}, "properties": {"highway": "footway"}}, {"type": "Feature", "geometry": {"type": "LineString", "coordinates": [[693673.7364004969, 4375967.112385197], [693673.9007228382, 4375977.045878987]]}, "properties": {"highway": "residential"}}, {"type": "Feature", "geometry": {"type": "LineString", "coordinates": [[693673.7364004969, 4375967.112385197], [693674.7189178981, 4375917.545608026]]}, "properties": {"highway": "residential"}}, {"type": "Feature", "geometry": {"type": "LineString", "coordinates": [[693673.7364004969, 4375967.112385197], [693666.7461439063, 4375966.948534162], [693665.4470487554, 4375966.949340133]]}, "properties": {"highway": "footway"}}, {"type": "Feature", "geometry": {"type": "LineString", "coordinates": [[693673.7364004969, 4375967.112385197], [693681.2170073338, 4375967.277409419], [693683.3503631572, 4375967.286381312]]}, "properties": {"highway": "footway"}}, {"type": "Feature", "geometry": {"type": "LineString", "coordinates": [[693509.3272946017, 4375975.494106616], [693544.5059585567, 4375975.474296649], [693665.9710981378, 4375976.947369895]]}, "properties": {"highway": "trunk"}}, {"type": "Feature", "geometry": {"type": "LineString", "coordinates": [[693583.5960593869, 4376208.0265118955], [693662.009694086, 4376207.745230282]]}, "properties": {"highway": "residential"}}, {"type": "Feature", "geometry": {"type": "LineString", "coordinates": [[693822.2426586925, 4375918.051760974], [693819.698487484, 4375927.917426493], [693819.4162166028, 4375967.694564485]]}, "properties": {"highway": "footway"}}, {"type": "Feature", "geometry": {"type": "LineString", "coordinates": [[693819.4162166028, 4375967.694564485], [693879.7149451682, 4375967.72797428]]}, "properties": {"highway": "footway"}}, {"type": "Feature", "geometry": {"type": "LineString", "coordinates": [[693819.4162166028, 4375967.694564485], [693819.396670397, 4375969.84877525], [693819.7708931271, 4375977.577307412]]}, "properties": {"highway": "footway"}}, {"type": "Feature", "geometry": {"type": "LineString", "coordinates": [[693819.4162166028, 4375967.694564485], [693819.698487484, 4375927.917426493], [693822.2426586925, 4375918.051760974]]}, "properties": {"highway": "footway"}}, {"type": "Feature", "geometry": {"type": "LineString", "coordinates": [[693819.4162166028, 4375967.694564485], [693817.8527714433, 4375968.288485415], [693810.1313815844, 4375968.805913805]]}, "properties": {"highway": "footway"}}, {"type": "Feature", "geometry": {"type": "LineString", "coordinates": [[693879.7149451682, 4375967.72797428], [693819.4162166028, 4375967.694564485]]}, "properties": {"highway": "footway"}}, {"type": "Feature", "geometry": {"type": "LineString", "coordinates": [[693627.3603958278, 4376150.211715443], [693662.8467012043, 4376150.244616655]]}, "properties": {"highway": "service"}}, {"type": "Feature", "geometry": {"type": "LineString", "coordinates": [[693627.3603958278, 4376150.211715443], [693504.5048920158, 4376150.092642821]]}, "properties": {"highway": "service"}}, {"type": "Feature", "geometry": {"type": "LineString", "coordinates": [[693627.3603958278, 4376150.211715443], [693628.0069588328, 4376126.437367161]]}, "properties": {"highway": "service"}}, {"type": "Feature", "geometry": {"type": "LineString", "coordinates": [[693628.0069588328, 4376126.437367161], [693627.3603958278, 4376150.211715443]]}, "properties": {"highway": "service"}}, {"type": "Feature", "geometry": {"type": "LineString", "coordinates": [[693816.7433557594, 4376209.376155386], [693877.1799389792, 4376210.012877304]]}, "properties": {"highway": "residential"}}, {"type": "Feature", "geometry": {"type": "LineString", "coordinates": [[693816.7433557594, 4376209.376155386], [693808.4609083046, 4376209.290861089]]}, "properties": {"highway": "residential"}}, {"type": "Feature", "geometry": {"type": "LineString", "coordinates": [[693816.7433557594, 4376209.376155386], [693816.7694983701, 4376203.86788344], [693816.8171313984, 4376200.592598008]]}, "properties": {"highway": "footway"}}, {"type": "Feature", "geometry": {"type": "LineString", "coordinates": [[693816.7433557594, 4376209.376155386], [693816.7634930097, 4376215.44092205], [693816.7322642355, 4376218.061322741]]}, "properties": {"highway": "footway"}}, {"type": "Feature", "geometry": {"type": "LineString", "coordinates": [[693818.1856269226, 4376093.413843062], [693808.7318321866, 4376093.376962181]]}, "properties": {"highway": "residential"}}, {"type": "Feature", "geometry": {"type": "LineString", "coordinates": [[693818.1856269226, 4376093.413843062], [693878.1347437885, 4376093.627357666]]}, "properties": {"highway": "residential"}}, {"type": "Feature", "geometry": {"type": "LineString", "coordinates": [[693818.1856269226, 4376093.413843062], [693818.2185225406, 4376086.261948957], [693818.2583031452, 4376084.330378739]]}, "properties": {"highway": "footway"}}, {"type": "Feature", "geometry": {"type": "LineString", "coordinates": [[693818.1856269226, 4376093.413843062], [693817.9614019535, 4376099.961182563], [693817.9454462234, 4376102.315404418]]}, "properties": {"highway": "footway"}}, {"type": "Feature", "geometry": {"type": "LineString", "coordinates": [[693818.2583031452, 4376084.330378739], [693818.7822262995, 4376034.907560295]]}, "properties": {"highway": "footway"}}, {"type": "Feature", "geometry": {"type": "LineString", "coordinates": [[693818.2583031452, 4376084.330378739], [693878.3700110635, 4376084.581283675]]}, "properties": {"highway": "footway"}}, {"type": "Feature", "geometry": {"type": "LineString", "coordinates": [[693818.2583031452, 4376084.330378739], [693818.2185225406, 4376086.261948957], [693818.1856269226, 4376093.413843062]]}, "properties": {"highway": "footway"}}, {"type": "Feature", "geometry": {"type": "LineString", "coordinates": [[693818.2583031452, 4376084.330378739], [693815.2646577848, 4376084.322032157], [693808.8516558346, 4376084.128078825]]}, "properties": {"highway": "footway"}}, {"type": "Feature", "geometry": {"type": "LineString", "coordinates": [[693818.7822262995, 4376034.907560295], [693809.5128039059, 4376034.719807286]]}, "properties": {"highway": "service"}}, {"type": "Feature", "geometry": {"type": "LineString", "coordinates": [[693818.7822262995, 4376034.907560295], [693818.2583031452, 4376084.330378739]]}, "properties": {"highway": "footway"}}, {"type": "Feature", "geometry": {"type": "LineString", "coordinates": [[693818.7822262995, 4376034.907560295], [693819.439522091, 4375985.654687051]]}, "properties": {"highway": "footway"}}, {"type": "Feature", "geometry": {"type": "LineString", "coordinates": [[693818.7822262995, 4376034.907560295], [693873.513759659, 4376035.989923921], [693878.7992349125, 4376034.489670222]]}, "properties": {"highway": "service"}}, {"type": "Feature", "geometry": {"type": "LineString", "coordinates": [[693819.439522091, 4375985.654687051], [693818.7822262995, 4376034.907560295]]}, "properties": {"highway": "footway"}}, {"type": "Feature", "geometry": {"type": "LineString", "coordinates": [[693819.439522091, 4375985.654687051], [693879.5888661719, 4375986.150844437]]}, "properties": {"highway": "footway"}}, {"type": "Feature", "geometry": {"type": "LineString", "coordinates": [[693819.439522091, 4375985.654687051], [693820.083068686, 4375984.004801285], [693819.7708931271, 4375977.577307412]]}, "properties": {"highway": "footway"}}, {"type": "Feature", "geometry": {"type": "LineString", "coordinates": [[693819.439522091, 4375985.654687051], [693817.9340825861, 4375985.6502987305], [693809.9059919835, 4375985.704669254]]}, "properties": {"highway": "footway"}}, {"type": "Feature", "geometry": {"type": "LineString", "coordinates": [[693879.5888661719, 4375986.150844437], [693819.439522091, 4375985.654687051]]}, "properties": {"highway": "footway"}}, {"type": "Feature", "geometry": {"type": "LineString", "coordinates": [[693878.3700110635, 4376084.581283675], [693818.2583031452, 4376084.330378739]]}, "properties": {"highway": "footway"}}, {"type": "Feature", "geometry": {"type": "LineString", "coordinates": [[693816.8171313984, 4376200.592598008], [693877.2016909687, 4376200.561609933]]}, "properties": {"highway": "footway"}}, {"type": "Feature", "geometry": {"type": "LineString", "coordinates": [[693816.8171313984, 4376200.592598008], [693817.5931685687, 4376151.753634452]]}, "properties": {"highway": "footway"}}, {"type": "Feature", "geometry": {"type": "LineString", "coordinates": [[693816.8171313984, 4376200.592598008], [693814.2550745314, 4376200.528419931], [693808.4944673377, 4376200.395229782]]}, "properties": {"highway": "footway"}}, {"type": "Feature", "geometry": {"type": "LineString", "coordinates": [[693816.8171313984, 4376200.592598008], [693816.7694983701, 4376203.86788344], [693816.7433557594, 4376209.376155386]]}, "properties": {"highway": "footway"}}, {"type": "Feature", "geometry": {"type": "LineString", "coordinates": [[693877.2016909687, 4376200.561609933], [693816.8171313984, 4376200.592598008]]}, "properties": {"highway": "footway"}}, {"type": "Feature", "geometry": {"type": "LineString", "coordinates": [[693878.0070975234, 4376102.498421033], [693817.9454462234, 4376102.315404418]]}, "properties": {"highway": "footway"}}, {"type": "Feature", "geometry": {"type": "LineString", "coordinates": [[693817.9454462234, 4376102.315404418], [693878.0070975234, 4376102.498421033]]}, "properties": {"highway": "footway"}}, {"type": "Feature", "geometry": {"type": "LineString", "coordinates": [[693817.9454462234, 4376102.315404418], [693817.5931685687, 4376151.753634452]]}, "properties": {"highway": "footway"}}, {"type": "Feature", "geometry": {"type": "LineString", "coordinates": [[693817.9454462234, 4376102.315404418], [693815.4171911848, 4376102.274288083], [693808.7202047867, 4376102.084327226]]}, "properties": {"highway": "footway"}}, {"type": "Feature", "geometry": {"type": "LineString", "coordinates": [[693817.9454462234, 4376102.315404418], [693817.9614019535, 4376099.961182563], [693818.1856269226, 4376093.413843062]]}, "properties": {"highway": "footway"}}, {"type": "Feature", "geometry": {"type": "LineString", "coordinates": [[693817.5931685687, 4376151.753634452], [693877.2786712934, 4376151.482978379]]}, "properties": {"highway": "service"}}, {"type": "Feature", "geometry": {"type": "LineString", "coordinates": [[693817.5931685687, 4376151.753634452], [693808.6364353725, 4376151.795840588]]}, "properties": {"highway": "service"}}, {"type": "Feature", "geometry": {"type": "LineString", "coordinates": [[693817.5931685687, 4376151.753634452], [693817.9454462234, 4376102.315404418]]}, "properties": {"highway": "footway"}}, {"type": "Feature", "geometry": {"type": "LineString", "coordinates": [[693817.5931685687, 4376151.753634452], [693816.8171313984, 4376200.592598008]]}, "properties": {"highway": "footway"}}, {"type": "Feature", "geometry": {"type": "LineString", "coordinates": [[693816.7322642355, 4376218.061322741], [693816.7634930097, 4376215.44092205], [693816.7433557594, 4376209.376155386]]}, "properties": {"highway": "footway"}}, {"type": "Feature", "geometry": {"type": "LineString", "coordinates": [[693669.7847303285, 4376217.447171124], [693669.8905534723, 4376207.720355663]]}, "properties": {"highway": "residential"}}, {"type": "Feature", "geometry": {"type": "LineString", "coordinates": [[693662.009694086, 4376207.745230282], [693669.8905534723, 4376207.720355663]]}, "properties": {"highway": "residential"}}, {"type": "Feature", "geometry": {"type": "LineString", "coordinates": [[693662.009694086, 4376207.745230282], [693583.5960593869, 4376208.0265118955]]}, "properties": {"highway": "residential"}}, {"type": "Feature", "geometry": {"type": "LineString", "coordinates": [[693662.009694086, 4376207.745230282], [693661.9619308421, 4376202.779342766], [693662.0433327297, 4376199.527119034]]}, "properties": {"highway": "footway"}}, {"type": "Feature", "geometry": {"type": "LineString", "coordinates": [[693662.009694086, 4376207.745230282], [693662.0621198404, 4376213.899650775], [693662.0045501988, 4376217.57452546]]}, "properties": {"highway": "footway"}}, {"type": "Feature", "geometry": {"type": "LineString", "coordinates": [[693670.0354123218, 4376199.527241234], [693669.8905534723, 4376207.720355663]]}, "properties": {"highway": "residential"}}, {"type": "Feature", "geometry": {"type": "LineString", "coordinates": [[693670.0354123218, 4376199.527241234], [693670.8901391637, 4376150.257128757]]}, "properties": {"highway": "residential"}}, {"type": "Feature", "geometry": {"type": "LineString", "coordinates": [[693670.0354123218, 4376199.527241234], [693676.9103728815, 4376199.477195012], [693679.9111788578, 4376199.541203637]]}, "properties": {"highway": "footway"}}, {"type": "Feature", "geometry": {"type": "LineString", "coordinates": [[693670.0354123218, 4376199.527241234], [693664.5293996851, 4376199.533811229], [693662.0433327297, 4376199.527119034]]}, "properties": {"highway": "footway"}}, {"type": "Feature", "geometry": {"type": "LineString", "coordinates": [[693671.7395708075, 4376101.197914576], [693670.8901391637, 4376150.257128757]]}, "properties": {"highway": "residential"}}, {"type": "Feature", "geometry": {"type": "LineString", "coordinates": [[693671.7395708075, 4376101.197914576], [693671.8910916107, 4376092.7384076025]]}, "properties": {"highway": "residential"}}, {"type": "Feature", "geometry": {"type": "LineString", "coordinates": [[693671.7395708075, 4376101.197914576], [693666.3793698219, 4376101.219243934], [693663.6941371736, 4376101.263101627]]}, "properties": {"highway": "footway"}}, {"type": "Feature", "geometry": {"type": "LineString", "coordinates": [[693671.7395708075, 4376101.197914576], [693678.2782004422, 4376101.183872586], [693681.5289309667, 4376101.231921937]]}, "properties": {"highway": "footway"}}, {"type": "Feature", "geometry": {"type": "LineString", "coordinates": [[693663.7363804694, 4376092.700899708], [693504.8059962555, 4376091.956713638]]}, "properties": {"highway": "residential"}}, {"type": "Feature", "geometry": {"type": "LineString", "coordinates": [[693663.7363804694, 4376092.700899708], [693671.8910916107, 4376092.7384076025]]}, "properties": {"highway": "residential"}}, {"type": "Feature", "geometry": {"type": "LineString", "coordinates": [[693663.7363804694, 4376092.700899708], [693663.7430767226, 4376098.27662648], [693663.6941371736, 4376101.263101627]]}, "properties": {"highway": "footway"}}, {"type": "Feature", "geometry": {"type": "LineString", "coordinates": [[693663.7363804694, 4376092.700899708], [693663.8434269482, 4376086.361658143], [693663.876004328, 4376083.341453466]]}, "properties": {"highway": "footway"}}, {"type": "Feature", "geometry": {"type": "LineString", "coordinates": [[693671.9824734558, 4376083.244473096], [693671.8910916107, 4376092.7384076025]]}, "properties": {"highway": "residential"}}, {"type": "Feature", "geometry": {"type": "LineString", "coordinates": [[693671.9824734558, 4376083.244473096], [693672.4602074822, 4376034.942322146]]}, "properties": {"highway": "residential"}}, {"type": "Feature", "geometry": {"type": "LineString", "coordinates": [[693671.9824734558, 4376083.244473096], [693678.5422031992, 4376083.075464833], [693681.8608888644, 4376083.158534902]]}, "properties": {"highway": "footway"}}, {"type": "Feature", "geometry": {"type": "LineString", "coordinates": [[693671.9824734558, 4376083.244473096], [693667.0585166549, 4376083.365575468], [693663.876004328, 4376083.341453466]]}, "properties": {"highway": "footway"}}, {"type": "Feature", "geometry": {"type": "LineString", "coordinates": [[693504.8059962555, 4376091.956713638], [693663.7363804694, 4376092.700899708]]}, "properties": {"highway": "residential"}}, {"type": "Feature", "geometry": {"type": "LineString", "coordinates": [[693665.9710981378, 4375976.947369895], [693673.9007228382, 4375977.045878987]]}, "properties": {"highway": "trunk"}}, {"type": "Feature", "geometry": {"type": "LineString", "coordinates": [[693665.9710981378, 4375976.947369895], [693666.4331453433, 4375983.92282854]]}, "properties": {"highway": "footway"}}, {"type": "Feature", "geometry": {"type": "LineString", "coordinates": [[693665.9710981378, 4375976.947369895], [693544.5059585567, 4375975.474296649], [693509.3272946017, 4375975.494106616]]}, "properties": {"highway": "trunk"}}, {"type": "Feature", "geometry": {"type": "LineString", "coordinates": [[693665.9710981378, 4375976.947369895], [693665.4103783339, 4375968.414505319], [693665.4470487554, 4375966.949340133]]}, "properties": {"highway": "footway"}}, {"type": "Feature", "geometry": {"type": "LineString", "coordinates": [[693509.4952761017, 4375966.712927177], [693665.4470487554, 4375966.949340133]]}, "properties": {"highway": "footway"}}, {"type": "Feature", "geometry": {"type": "LineString", "coordinates": [[693665.9876908296, 4375917.504786253], [693665.4470487554, 4375966.949340133]]}, "properties": {"highway": "footway"}}, {"type": "Feature", "geometry": {"type": "LineString", "coordinates": [[693665.4470487554, 4375966.949340133], [693665.9876908296, 4375917.504786253]]}, "properties": {"highway": "footway"}}, {"type": "Feature", "geometry": {"type": "LineString", "coordinates": [[693665.4470487554, 4375966.949340133], [693509.4952761017, 4375966.712927177]]}, "properties": {"highway": "footway"}}, {"type": "Feature", "geometry": {"type": "LineString", "coordinates": [[693665.4470487554, 4375966.949340133], [693665.4103783339, 4375968.414505319], [693665.9710981378, 4375976.947369895]]}, "properties": {"highway": "footway"}}, {"type": "Feature", "geometry": {"type": "LineString", "coordinates": [[693665.4470487554, 4375966.949340133], [693666.7461439063, 4375966.948534162], [693673.7364004969, 4375967.112385197]]}, "properties": {"highway": "footway"}}, {"type": "Feature", "geometry": {"type": "LineString", "coordinates": [[693663.876004328, 4376083.341453466], [693504.8253237356, 4376083.27177528]]}, "properties": {"highway": "footway"}}, {"type": "Feature", "geometry": {"type": "LineString", "coordinates": [[693663.876004328, 4376083.341453466], [693664.4604716107, 4376034.897589532]]}, "properties": {"highway": "footway"}}, {"type": "Feature", "geometry": {"type": "LineString", "coordinates": [[693663.876004328, 4376083.341453466], [693667.0585166549, 4376083.365575468], [693671.9824734558, 4376083.244473096]]}, "properties": {"highway": "footway"}}, {"type": "Feature", "geometry": {"type": "LineString", "coordinates": [[693663.876004328, 4376083.341453466], [693663.8434269482, 4376086.361658143], [693663.7363804694, 4376092.700899708]]}, "properties": {"highway": "footway"}}, {"type": "Feature", "geometry": {"type": "LineString", "coordinates": [[693504.8253237356, 4376083.27177528], [693663.876004328, 4376083.341453466]]}, "properties": {"highway": "footway"}}, {"type": "Feature", "geometry": {"type": "LineString", "coordinates": [[693505.4448672985, 4376034.073583873], [693664.4604716107, 4376034.897589532]]}, "properties": {"highway": "service"}}, {"type": "Feature", "geometry": {"type": "LineString", "coordinates": [[693509.1767930218, 4375983.920309688], [693665.1326211451, 4375985.0120541975]]}, "properties": {"highway": "footway"}}, {"type": "Feature", "geometry": {"type": "LineString", "coordinates": [[693666.4331453433, 4375983.92282854], [693665.9710981378, 4375976.947369895]]}, "properties": {"highway": "footway"}}, {"type": "Feature", "geometry": {"type": "LineString", "coordinates": [[693666.4331453433, 4375983.92282854], [693673.7248338271, 4375984.76062631]]}, "properties": {"highway": "footway"}}, {"type": "Feature", "geometry": {"type": "LineString", "coordinates": [[693666.4331453433, 4375983.92282854], [693665.1326211451, 4375985.0120541975]]}, "properties": {"highway": "footway"}}, {"type": "Feature", "geometry": {"type": "LineString", "coordinates": [[693665.1326211451, 4375985.0120541975], [693509.1767930218, 4375983.920309688]]}, "properties": {"highway": "footway"}}, {"type": "Feature", "geometry": {"type": "LineString", "coordinates": [[693665.1326211451, 4375985.0120541975], [693666.4331453433, 4375983.92282854]]}, "properties": {"highway": "footway"}}, {"type": "Feature", "geometry": {"type": "LineString", "coordinates": [[693665.1326211451, 4375985.0120541975], [693664.4604716107, 4376034.897589532]]}, "properties": {"highway": "footway"}}, {"type": "Feature", "geometry": {"type": "LineString", "coordinates": [[693664.4604716107, 4376034.897589532], [693672.4602074822, 4376034.942322146]]}, "properties": {"highway": "service"}}, {"type": "Feature", "geometry": {"type": "LineString", "coordinates": [[693664.4604716107, 4376034.897589532], [693505.4448672985, 4376034.073583873]]}, "properties": {"highway": "service"}}, {"type": "Feature", "geometry": {"type": "LineString", "coordinates": [[693664.4604716107, 4376034.897589532], [693665.1326211451, 4375985.0120541975]]}, "properties": {"highway": "footway"}}, {"type": "Feature", "geometry": {"type": "LineString", "coordinates": [[693664.4604716107, 4376034.897589532], [693663.876004328, 4376083.341453466]]}, "properties": {"highway": "footway"}}, {"type": "Feature", "geometry": {"type": "LineString", "coordinates": [[693663.6941371736, 4376101.263101627], [693504.7913717316, 4376101.141570235]]}, "properties": {"highway": "footway"}}, {"type": "Feature", "geometry": {"type": "LineString", "coordinates": [[693663.6941371736, 4376101.263101627], [693662.8467012043, 4376150.244616655]]}, "properties": {"highway": "footway"}}, {"type": "Feature", "geometry": {"type": "LineString", "coordinates": [[693663.6941371736, 4376101.263101627], [693666.3793698219, 4376101.219243934], [693671.7395708075, 4376101.197914576]]}, "properties": {"highway": "footway"}}, {"type": "Feature", "geometry": {"type": "LineString", "coordinates": [[693663.6941371736, 4376101.263101627], [693663.7430767226, 4376098.27662648], [693663.7363804694, 4376092.700899708]]}, "properties": {"highway": "footway"}}, {"type": "Feature", "geometry": {"type": "LineString", "coordinates": [[693504.7913717316, 4376101.141570235], [693663.6941371736, 4376101.263101627]]}, "properties": {"highway": "footway"}}, {"type": "Feature", "geometry": {"type": "LineString", "coordinates": [[693504.5048920158, 4376150.092642821], [693627.3603958278, 4376150.211715443]]}, "properties": {"highway": "service"}}, {"type": "Feature", "geometry": {"type": "LineString", "coordinates": [[693504.2236552894, 4376199.177130674], [693662.0433327297, 4376199.527119034]]}, "properties": {"highway": "footway"}}, {"type": "Feature", "geometry": {"type": "LineString", "coordinates": [[693662.8467012043, 4376150.244616655], [693670.8901391637, 4376150.257128757]]}, "properties": {"highway": "service"}}, {"type": "Feature", "geometry": {"type": "LineString", "coordinates": [[693662.8467012043, 4376150.244616655], [693627.3603958278, 4376150.211715443]]}, "properties": {"highway": "service"}}, {"type": "Feature", "geometry": {"type": "LineString", "coordinates": [[693662.8467012043, 4376150.244616655], [693663.6941371736, 4376101.263101627]]}, "properties": {"highway": "footway"}}, {"type": "Feature", "geometry": {"type": "LineString", "coordinates": [[693662.8467012043, 4376150.244616655], [693662.0433327297, 4376199.527119034]]}, "properties": {"highway": "footway"}}, {"type": "Feature", "geometry": {"type": "LineString", "coordinates": [[693662.0433327297, 4376199.527119034], [693662.8467012043, 4376150.244616655]]}, "properties": {"highway": "footway"}}, {"type": "Feature", "geometry": {"type": "LineString", "coordinates": [[693662.0433327297, 4376199.527119034], [693504.2236552894, 4376199.177130674]]}, "properties": {"highway": "footway"}}, {"type": "Feature", "geometry": {"type": "LineString", "coordinates": [[693662.0433327297, 4376199.527119034], [693661.9619308421, 4376202.779342766], [693662.009694086, 4376207.745230282]]}, "properties": {"highway": "footway"}}, {"type": "Feature", "geometry": {"type": "LineString", "coordinates": [[693662.0433327297, 4376199.527119034], [693664.5293996851, 4376199.533811229], [693670.0354123218, 4376199.527241234]]}, "properties": {"highway": "footway"}}, {"type": "Feature", "geometry": {"type": "LineString", "coordinates": [[693662.0045501988, 4376217.57452546], [693662.0621198404, 4376213.899650775], [693662.009694086, 4376207.745230282]]}, "properties": {"highway": "footway"}}, {"type": "Feature", "geometry": {"type": "LineString", "coordinates": [[693808.2609593982, 4376217.960190552], [693808.4609083046, 4376209.290861089]]}, "properties": {"highway": "tertiary"}}, {"type": "Feature", "geometry": {"type": "LineString", "coordinates": [[693808.4944673377, 4376200.395229782], [693808.4609083046, 4376209.290861089]]}, "properties": {"highway": "tertiary"}}, {"type": "Feature", "geometry": {"type": "LineString", "coordinates": [[693808.4944673377, 4376200.395229782], [693808.6364353725, 4376151.795840588]]}, "properties": {"highway": "tertiary"}}, {"type": "Feature", "geometry": {"type": "LineString", "coordinates": [[693808.4944673377, 4376200.395229782], [693814.2550745314, 4376200.528419931], [693816.8171313984, 4376200.592598008]]}, "properties": {"highway": "footway"}}, {"type": "Feature", "geometry": {"type": "LineString", "coordinates": [[693808.4944673377, 4376200.395229782], [693801.4872218304, 4376200.230818505], [693799.1905756433, 4376200.217720153]]}, "properties": {"highway": "footway"}}, {"type": "Feature", "geometry": {"type": "LineString", "coordinates": [[693799.1295667018, 4376209.179303523], [693808.4609083046, 4376209.290861089]]}, "properties": {"highway": "residential"}}, {"type": "Feature", "geometry": {"type": "LineString", "coordinates": [[693799.1295667018, 4376209.179303523], [693738.8488749551, 4376208.5026674]]}, "properties": {"highway": "residential"}}, {"type": "Feature", "geometry": {"type": "LineString", "coordinates": [[693799.1295667018, 4376209.179303523], [693799.1023453672, 4376214.387666726], [693799.05998065, 4376217.7963643065]]}, "properties": {"highway": "footway"}}, {"type": "Feature", "geometry": {"type": "LineString", "coordinates": [[693799.1295667018, 4376209.179303523], [693799.1623903251, 4376203.060330824], [693799.1905756433, 4376200.217720153]]}, "properties": {"highway": "footway"}}, {"type": "Feature", "geometry": {"type": "LineString", "coordinates": [[693679.7380164468, 4376207.83357029], [693738.8488749551, 4376208.5026674]]}, "properties": {"highway": "residential"}}, {"type": "Feature", "geometry": {"type": "LineString", "coordinates": [[693679.7380164468, 4376207.83357029], [693669.8905534723, 4376207.720355663]]}, "properties": {"highway": "residential"}}, {"type": "Feature", "geometry": {"type": "LineString", "coordinates": [[693679.7380164468, 4376207.83357029], [693679.8508227561, 4376203.327075825], [693679.9111788578, 4376199.541203637]]}, "properties": {"highway": "footway"}}, {"type": "Feature", "geometry": {"type": "LineString", "coordinates": [[693679.7380164468, 4376207.83357029], [693679.6010372257, 4376213.305742176], [693679.5428877546, 4376217.34712367]]}, "properties": {"highway": "footway"}}, {"type": "Feature", "geometry": {"type": "LineString", "coordinates": [[693808.7202047867, 4376102.084327226], [693808.6364353725, 4376151.795840588]]}, "properties": {"highway": "tertiary"}}, {"type": "Feature", "geometry": {"type": "LineString", "coordinates": [[693808.7202047867, 4376102.084327226], [693808.7318321866, 4376093.376962181]]}, "properties": {"highway": "tertiary"}}, {"type": "Feature", "geometry": {"type": "LineString", "coordinates": [[693808.7202047867, 4376102.084327226], [693803.0466126645, 4376101.908898388], [693800.1905362882, 4376101.904002903]]}, "properties": {"highway": "footway"}}, {"type": "Feature", "geometry": {"type": "LineString", "coordinates": [[693808.7202047867, 4376102.084327226], [693815.4171911848, 4376102.274288083], [693817.9454462234, 4376102.315404418]]}, "properties": {"highway": "footway"}}, {"type": "Feature", "geometry": {"type": "LineString", "coordinates": [[693808.8516558346, 4376084.128078825], [693808.7318321866, 4376093.376962181]]}, "properties": {"highway": "tertiary"}}, {"type": "Feature", "geometry": {"type": "LineString", "coordinates": [[693808.8516558346, 4376084.128078825], [693809.5128039059, 4376034.719807286]]}, "properties": {"highway": "tertiary"}}, {"type": "Feature", "geometry": {"type": "LineString", "coordinates": [[693808.8516558346, 4376084.128078825], [693815.2646577848, 4376084.322032157], [693818.2583031452, 4376084.330378739]]}, "properties": {"highway": "footway"}}, {"type": "Feature", "geometry": {"type": "LineString", "coordinates": [[693808.8516558346, 4376084.128078825], [693803.2717904772, 4376083.988318385], [693800.2354351624, 4376083.967801157]]}, "properties": {"highway": "footway"}}, {"type": "Feature", "geometry": {"type": "LineString", "coordinates": [[693800.2157351992, 4376093.341365507], [693740.7500637086, 4376093.062811613]]}, "properties": {"highway": "residential"}}, {"type": "Feature", "geometry": {"type": "LineString", "coordinates": [[693800.2157351992, 4376093.341365507], [693808.7318321866, 4376093.376962181]]}, "properties": {"highway": "residential"}}, {"type": "Feature", "geometry": {"type": "LineString", "coordinates": [[693800.2157351992, 4376093.341365507], [693800.1933729397, 4376087.021091095], [693800.2354351624, 4376083.967801157]]}, "properties": {"highway": "footway"}}, {"type": "Feature", "geometry": {"type": "LineString", "coordinates": [[693800.2157351992, 4376093.341365507], [693800.254756919, 4376099.339962849], [693800.1905362882, 4376101.904002903]]}, "properties": {"highway": "footway"}}, {"type": "Feature", "geometry": {"type": "LineString", "coordinates": [[693681.7059774885, 4376092.784160128], [693671.8910916107, 4376092.7384076025]]}, "properties": {"highway": "residential"}}, {"type": "Feature", "geometry": {"type": "LineString", "coordinates": [[693681.7059774885, 4376092.784160128], [693740.7500637086, 4376093.062811613]]}, "properties": {"highway": "residential"}}, {"type": "Feature", "geometry": {"type": "LineString", "coordinates": [[693681.7059774885, 4376092.784160128], [693681.81916659, 4376085.856416931], [693681.8608888644, 4376083.158534902]]}, "properties": {"highway": "footway"}}, {"type": "Feature", "geometry": {"type": "LineString", "coordinates": [[693681.7059774885, 4376092.784160128], [693681.5792511398, 4376098.534255061], [693681.5289309667, 4376101.231921937]]}, "properties": {"highway": "footway"}}, {"type": "Feature", "geometry": {"type": "LineString", "coordinates": [[693683.2509212738, 4375977.102206989], [693673.9007228382, 4375977.045878987]]}, "properties": {"highway": "trunk"}}, {"type": "Feature", "geometry": {"type": "LineString", "coordinates": [[693683.2509212738, 4375977.102206989], [693741.7004214467, 4375977.454782034]]}, "properties": {"highway": "trunk"}}, {"type": "Feature", "geometry": {"type": "LineString", "coordinates": [[693683.2509212738, 4375977.102206989], [693683.3031317277, 4375969.173336527], [693683.3503631572, 4375967.286381312]]}, "properties": {"highway": "footway"}}, {"type": "Feature", "geometry": {"type": "LineString", "coordinates": [[693683.2509212738, 4375977.102206989], [693683.3516001832, 4375983.391114183], [693683.3434977345, 4375984.745927692]]}, "properties": {"highway": "footway"}}, {"type": "Feature", "geometry": {"type": "LineString", "coordinates": [[693683.3503631572, 4375967.286381312], [693683.9560274478, 4375917.654635394]]}, "properties": {"highway": "footway"}}, {"type": "Feature", "geometry": {"type": "LineString", "coordinates": [[693683.3503631572, 4375967.286381312], [693743.0028080447, 4375967.358084519]]}, "properties": {"highway": "footway"}}, {"type": "Feature", "geometry": {"type": "LineString", "coordinates": [[693683.3503631572, 4375967.286381312], [693683.3031317277, 4375969.173336527], [693683.2509212738, 4375977.102206989]]}, "properties": {"highway": "footway"}}, {"type": "Feature", "geometry": {"type": "LineString", "coordinates": [[693683.3503631572, 4375967.286381312], [693681.2170073338, 4375967.277409419], [693673.7364004969, 4375967.112385197]]}, "properties": {"highway": "footway"}}, {"type": "Feature", "geometry": {"type": "LineString", "coordinates": [[693683.9560274478, 4375917.654635394], [693683.3503631572, 4375967.286381312]]}, "properties": {"highway": "footway"}}, {"type": "Feature", "geometry": {"type": "LineString", "coordinates": [[693802.09544337, 4375917.991407025], [693801.6429883349, 4375966.971732305]]}, "properties": {"highway": "footway"}}, {"type": "Feature", "geometry": {"type": "LineString", "coordinates": [[693801.6429883349, 4375966.971732305], [693802.09544337, 4375917.991407025]]}, "properties": {"highway": "footway"}}, {"type": "Feature", "geometry": {"type": "LineString", "coordinates": [[693801.6429883349, 4375966.971732305], [693800.5273814325, 4375968.920783966]]}, "properties": {"highway": "footway"}}, {"type": "Feature", "geometry": {"type": "LineString", "coordinates": [[693801.6429883349, 4375966.971732305], [693743.0028080447, 4375967.358084519]]}, "properties": {"highway": "footway"}}, {"type": "Feature", "geometry": {"type": "LineString", "coordinates": [[693800.5273814325, 4375968.920783966], [693810.1313815844, 4375968.805913805]]}, "properties": {"highway": "footway"}}, {"type": "Feature", "geometry": {"type": "LineString", "coordinates": [[693800.5273814325, 4375968.920783966], [693801.0865833244, 4375977.164855248]]}, "properties": {"highway": "footway"}}, {"type": "Feature", "geometry": {"type": "LineString", "coordinates": [[693800.5273814325, 4375968.920783966], [693801.6429883349, 4375966.971732305]]}, "properties": {"highway": "footway"}}, {"type": "Feature", "geometry": {"type": "LineString", "coordinates": [[693743.0028080447, 4375967.358084519], [693741.7004214467, 4375977.454782034]]}, "properties": {"highway": "service"}}, {"type": "Feature", "geometry": {"type": "LineString", "coordinates": [[693743.0028080447, 4375967.358084519], [693742.6386557829, 4375918.33511921]]}, "properties": {"highway": "service"}}, {"type": "Feature", "geometry": {"type": "LineString", "coordinates": [[693743.0028080447, 4375967.358084519], [693801.6429883349, 4375966.971732305]]}, "properties": {"highway": "footway"}}, {"type": "Feature", "geometry": {"type": "LineString", "coordinates": [[693743.0028080447, 4375967.358084519], [693683.3503631572, 4375967.286381312]]}, "properties": {"highway": "footway"}}, {"type": "Feature", "geometry": {"type": "LineString", "coordinates": [[693800.2354351624, 4376083.967801157], [693740.7533122068, 4376083.99982718]]}, "properties": {"highway": "footway"}}, {"type": "Feature", "geometry": {"type": "LineString", "coordinates": [[693800.2354351624, 4376083.967801157], [693800.8815363599, 4376034.814609581]]}, "properties": {"highway": "footway"}}, {"type": "Feature", "geometry": {"type": "LineString", "coordinates": [[693800.2354351624, 4376083.967801157], [693803.2717904772, 4376083.988318385], [693808.8516558346, 4376084.128078825]]}, "properties": {"highway": "footway"}}, {"type": "Feature", "geometry": {"type": "LineString", "coordinates": [[693800.2354351624, 4376083.967801157], [693800.1933729397, 4376087.021091095], [693800.2157351992, 4376093.341365507]]}, "properties": {"highway": "footway"}}, {"type": "Feature", "geometry": {"type": "LineString", "coordinates": [[693740.7533122068, 4376083.99982718], [693740.7500637086, 4376093.062811613]]}, "properties": {"highway": "service"}}, {"type": "Feature", "geometry": {"type": "LineString", "coordinates": [[693740.7533122068, 4376083.99982718], [693741.2547849951, 4376035.453900999]]}, "properties": {"highway": "service"}}, {"type": "Feature", "geometry": {"type": "LineString", "coordinates": [[693740.7533122068, 4376083.99982718], [693800.2354351624, 4376083.967801157]]}, "properties": {"highway": "footway"}}, {"type": "Feature", "geometry": {"type": "LineString", "coordinates": [[693740.7533122068, 4376083.99982718], [693681.8608888644, 4376083.158534902]]}, "properties": {"highway": "footway"}}, {"type": "Feature", "geometry": {"type": "LineString", "coordinates": [[693681.8608888644, 4376083.158534902], [693740.7533122068, 4376083.99982718]]}, "properties": {"highway": "footway"}}, {"type": "Feature", "geometry": {"type": "LineString", "coordinates": [[693681.8608888644, 4376083.158534902], [693682.5239437921, 4376035.016513209]]}, "properties": {"highway": "footway"}}, {"type": "Feature", "geometry": {"type": "LineString", "coordinates": [[693681.8608888644, 4376083.158534902], [693678.5422031992, 4376083.075464833], [693671.9824734558, 4376083.244473096]]}, "properties": {"highway": "footway"}}, {"type": "Feature", "geometry": {"type": "LineString", "coordinates": [[693681.8608888644, 4376083.158534902], [693681.81916659, 4376085.856416931], [693681.7059774885, 4376092.784160128]]}, "properties": {"highway": "footway"}}, {"type": "Feature", "geometry": {"type": "LineString", "coordinates": [[693682.5239437921, 4376035.016513209], [693741.2547849951, 4376035.453900999]]}, "properties": {"highway": "service"}}, {"type": "Feature", "geometry": {"type": "LineString", "coordinates": [[693682.5239437921, 4376035.016513209], [693672.4602074822, 4376034.942322146]]}, "properties": {"highway": "service"}}, {"type": "Feature", "geometry": {"type": "LineString", "coordinates": [[693682.5239437921, 4376035.016513209], [693681.8608888644, 4376083.158534902]]}, "properties": {"highway": "footway"}}, {"type": "Feature", "geometry": {"type": "LineString", "coordinates": [[693682.5239437921, 4376035.016513209], [693683.3434977345, 4375984.745927692]]}, "properties": {"highway": "footway"}}, {"type": "Feature", "geometry": {"type": "LineString", "coordinates": [[693683.3434977345, 4375984.745927692], [693682.5239437921, 4376035.016513209]]}, "properties": {"highway": "footway"}}, {"type": "Feature", "geometry": {"type": "LineString", "coordinates": [[693683.3434977345, 4375984.745927692], [693741.5810361205, 4375985.315333786]]}, "properties": {"highway": "footway"}}, {"type": "Feature", "geometry": {"type": "LineString", "coordinates": [[693683.3434977345, 4375984.745927692], [693683.3516001832, 4375983.391114183], [693683.2509212738, 4375977.102206989]]}, "properties": {"highway": "footway"}}, {"type": "Feature", "geometry": {"type": "LineString", "coordinates": [[693683.3434977345, 4375984.745927692], [693680.8107310598, 4375985.57106663], [693673.7248338271, 4375984.76062631]]}, "properties": {"highway": "footway"}}, {"type": "Feature", "geometry": {"type": "LineString", "coordinates": [[693741.5810361205, 4375985.315333786], [693741.2547849951, 4376035.453900999]]}, "properties": {"highway": "service"}}, {"type": "Feature", "geometry": {"type": "LineString", "coordinates": [[693741.5810361205, 4375985.315333786], [693741.7004214467, 4375977.454782034]]}, "properties": {"highway": "service"}}, {"type": "Feature", "geometry": {"type": "LineString", "coordinates": [[693741.5810361205, 4375985.315333786], [693683.3434977345, 4375984.745927692]]}, "properties": {"highway": "footway"}}, {"type": "Feature", "geometry": {"type": "LineString", "coordinates": [[693741.5810361205, 4375985.315333786], [693801.4335993272, 4375985.636853111]]}, "properties": {"highway": "footway"}}, {"type": "Feature", "geometry": {"type": "LineString", "coordinates": [[693801.4335993272, 4375985.636853111], [693741.5810361205, 4375985.315333786]]}, "properties": {"highway": "footway"}}, {"type": "Feature", "geometry": {"type": "LineString", "coordinates": [[693801.4335993272, 4375985.636853111], [693800.8815363599, 4376034.814609581]]}, "properties": {"highway": "footway"}}, {"type": "Feature", "geometry": {"type": "LineString", "coordinates": [[693801.4335993272, 4375985.636853111], [693803.9169574811, 4375985.754584939], [693809.9059919835, 4375985.704669254]]}, "properties": {"highway": "footway"}}, {"type": "Feature", "geometry": {"type": "LineString", "coordinates": [[693801.4335993272, 4375985.636853111], [693801.453954553, 4375983.7936504595], [693801.0865833244, 4375977.164855248]]}, "properties": {"highway": "footway"}}, {"type": "Feature", "geometry": {"type": "LineString", "coordinates": [[693800.8815363599, 4376034.814609581], [693809.5128039059, 4376034.719807286]]}, "properties": {"highway": "service"}}, {"type": "Feature", "geometry": {"type": "LineString", "coordinates": [[693800.8815363599, 4376034.814609581], [693741.2547849951, 4376035.453900999]]}, "properties": {"highway": "service"}}, {"type": "Feature", "geometry": {"type": "LineString", "coordinates": [[693800.8815363599, 4376034.814609581], [693801.4335993272, 4375985.636853111]]}, "properties": {"highway": "footway"}}, {"type": "Feature", "geometry": {"type": "LineString", "coordinates": [[693800.8815363599, 4376034.814609581], [693800.2354351624, 4376083.967801157]]}, "properties": {"highway": "footway"}}, {"type": "Feature", "geometry": {"type": "LineString", "coordinates": [[693679.9111788578, 4376199.541203637], [693739.0126694287, 4376200.243383688]]}, "properties": {"highway": "footway"}}, {"type": "Feature", "geometry": {"type": "LineString", "coordinates": [[693679.9111788578, 4376199.541203637], [693680.6516997099, 4376150.368189861]]}, "properties": {"highway": "footway"}}, {"type": "Feature", "geometry": {"type": "LineString", "coordinates": [[693679.9111788578, 4376199.541203637], [693676.9103728815, 4376199.477195012], [693670.0354123218, 4376199.527241234]]}, "properties": {"highway": "footway"}}, {"type": "Feature", "geometry": {"type": "LineString", "coordinates": [[693679.9111788578, 4376199.541203637], [693679.8508227561, 4376203.327075825], [693679.7380164468, 4376207.83357029]]}, "properties": {"highway": "footway"}}, {"type": "Feature", "geometry": {"type": "LineString", "coordinates": [[693739.0126694287, 4376200.243383688], [693738.8488749551, 4376208.5026674]]}, "properties": {"highway": "service"}}, {"type": "Feature", "geometry": {"type": "LineString", "coordinates": [[693739.0126694287, 4376200.243383688], [693739.831221808, 4376151.061199509]]}, "properties": {"highway": "service"}}, {"type": "Feature", "geometry": {"type": "LineString", "coordinates": [[693739.0126694287, 4376200.243383688], [693679.9111788578, 4376199.541203637]]}, "properties": {"highway": "footway"}}, {"type": "Feature", "geometry": {"type": "LineString", "coordinates": [[693739.0126694287, 4376200.243383688], [693799.1905756433, 4376200.217720153]]}, "properties": {"highway": "footway"}}, {"type": "Feature", "geometry": {"type": "LineString", "coordinates": [[693799.1905756433, 4376200.217720153], [693739.0126694287, 4376200.243383688]]}, "properties": {"highway": "footway"}}, {"type": "Feature", "geometry": {"type": "LineString", "coordinates": [[693799.1905756433, 4376200.217720153], [693799.7346244574, 4376151.7061522445]]}, "properties": {"highway": "footway"}}, {"type": "Feature", "geometry": {"type": "LineString", "coordinates": [[693799.1905756433, 4376200.217720153], [693801.4872218304, 4376200.230818505], [693808.4944673377, 4376200.395229782]]}, "properties": {"highway": "footway"}}, {"type": "Feature", "geometry": {"type": "LineString", "coordinates": [[693799.1905756433, 4376200.217720153], [693799.1623903251, 4376203.060330824], [693799.1295667018, 4376209.179303523]]}, "properties": {"highway": "footway"}}, {"type": "Feature", "geometry": {"type": "LineString", "coordinates": [[693799.7346244574, 4376151.7061522445], [693808.6364353725, 4376151.795840588]]}, "properties": {"highway": "service"}}, {"type": "Feature", "geometry": {"type": "LineString", "coordinates": [[693799.7346244574, 4376151.7061522445], [693739.831221808, 4376151.061199509]]}, "properties": {"highway": "service"}}, {"type": "Feature", "geometry": {"type": "LineString", "coordinates": [[693799.7346244574, 4376151.7061522445], [693799.1905756433, 4376200.217720153]]}, "properties": {"highway": "footway"}}, {"type": "Feature", "geometry": {"type": "LineString", "coordinates": [[693799.7346244574, 4376151.7061522445], [693800.1905362882, 4376101.904002903]]}, "properties": {"highway": "footway"}}, {"type": "Feature", "geometry": {"type": "LineString", "coordinates": [[693800.1905362882, 4376101.904002903], [693799.7346244574, 4376151.7061522445]]}, "properties": {"highway": "footway"}}, {"type": "Feature", "geometry": {"type": "LineString", "coordinates": [[693800.1905362882, 4376101.904002903], [693740.613161548, 4376101.6226482075]]}, "properties": {"highway": "footway"}}, {"type": "Feature", "geometry": {"type": "LineString", "coordinates": [[693800.1905362882, 4376101.904002903], [693800.254756919, 4376099.339962849], [693800.2157351992, 4376093.341365507]]}, "properties": {"highway": "footway"}}, {"type": "Feature", "geometry": {"type": "LineString", "coordinates": [[693800.1905362882, 4376101.904002903], [693803.0466126645, 4376101.908898388], [693808.7202047867, 4376102.084327226]]}, "properties": {"highway": "footway"}}, {"type": "Feature", "geometry": {"type": "LineString", "coordinates": [[693740.613161548, 4376101.6226482075], [693739.831221808, 4376151.061199509]]}, "properties": {"highway": "service"}}, {"type": "Feature", "geometry": {"type": "LineString", "coordinates": [[693740.613161548, 4376101.6226482075], [693740.7500637086, 4376093.062811613]]}, "properties": {"highway": "service"}}, {"type": "Feature", "geometry": {"type": "LineString", "coordinates": [[693740.613161548, 4376101.6226482075], [693800.1905362882, 4376101.904002903]]}, "properties": {"highway": "footway"}}, {"type": "Feature", "geometry": {"type": "LineString", "coordinates": [[693740.613161548, 4376101.6226482075], [693681.5289309667, 4376101.231921937]]}, "properties": {"highway": "footway"}}, {"type": "Feature", "geometry": {"type": "LineString", "coordinates": [[693681.5289309667, 4376101.231921937], [693740.613161548, 4376101.6226482075]]}, "properties": {"highway": "footway"}}, {"type": "Feature", "geometry": {"type": "LineString", "coordinates": [[693681.5289309667, 4376101.231921937], [693680.6516997099, 4376150.368189861]]}, "properties": {"highway": "footway"}}, {"type": "Feature", "geometry": {"type": "LineString", "coordinates": [[693681.5289309667, 4376101.231921937], [693678.2782004422, 4376101.183872586], [693671.7395708075, 4376101.197914576]]}, "properties": {"highway": "footway"}}, {"type": "Feature", "geometry": {"type": "LineString", "coordinates": [[693681.5289309667, 4376101.231921937], [693681.5792511398, 4376098.534255061], [693681.7059774885, 4376092.784160128]]}, "properties": {"highway": "footway"}}, {"type": "Feature", "geometry": {"type": "LineString", "coordinates": [[693680.6516997099, 4376150.368189861], [693739.831221808, 4376151.061199509]]}, "properties": {"highway": "service"}}, {"type": "Feature", "geometry": {"type": "LineString", "coordinates": [[693680.6516997099, 4376150.368189861], [693670.8901391637, 4376150.257128757]]}, "properties": {"highway": "service"}}, {"type": "Feature", "geometry": {"type": "LineString", "coordinates": [[693680.6516997099, 4376150.368189861], [693681.5289309667, 4376101.231921937]]}, "properties": {"highway": "footway"}}, {"type": "Feature", "geometry": {"type": "LineString", "coordinates": [[693680.6516997099, 4376150.368189861], [693679.9111788578, 4376199.541203637]]}, "properties": {"highway": "footway"}}, {"type": "Feature", "geometry": {"type": "LineString", "coordinates": [[693679.5428877546, 4376217.34712367], [693679.6010372257, 4376213.305742176], [693679.7380164468, 4376207.83357029]]}, "properties": {"highway": "footway"}}, {"type": "Feature", "geometry": {"type": "LineString", "coordinates": [[693799.05998065, 4376217.7963643065], [693799.1023453672, 4376214.387666726], [693799.1295667018, 4376209.179303523]]}, "properties": {"highway": "footway"}}]}