{"type": "FeatureCollection", "features": [{"type": "Feature", "geometry": {"type": "LineString", "coordinates": [[694909.812878384, 4375121.867838674], [694910.1267919206, 4375091.976284204]]}, "properties": {"highway": "tertiary"}}, {"type": "Feature", "geometry": {"type": "LineString", "coordinates": [[694909.812878384, 4375121.867838674], [694901.7990569301, 4375121.99924155]]}, "properties": {"highway": "residential"}}, {"type": "Feature", "geometry": {"type": "LineString", "coordinates": [[694909.812878384, 4375121.867838674], [694919.766663929, 4375121.91858006]]}, "properties": {"highway": "service"}}, {"type": "Feature", "geometry": {"type": "LineString", "coordinates": [[694909.812878384, 4375121.867838674], [694909.2839221087, 4375172.257102319], [694908.7906428896, 4375220.20377578], [694908.7638220902, 4375222.635486269], [694908.5401092609, 4375243.477288351]]}, "properties": {"highway": "tertiary"}}, {"type": "Feature", "geometry": {"type": "LineString", "coordinates": [[694692.4255491924, 4375275.201157123], [694721.0394762314, 4375275.321235063]]}, "properties": {"highway": "footway"}}, {"type": "Feature", "geometry": {"type": "LineString", "coordinates": [[694727.7169565939, 4375003.062448608], [694819.7510669788, 4375114.413554839]]}, "properties": {"highway": "footway"}}, {"type": "Feature", "geometry": {"type": "LineString", "coordinates": [[694982.1700294734, 4375312.272493148], [694968.4558287398, 4375297.221611461]]}, "properties": {"highway": "footway"}}, {"type": "Feature", "geometry": {"type": "LineString", "coordinates": [[694819.9870864986, 4375093.07227441], [694819.7510669788, 4375114.413554839]]}, "properties": {"highway": "footway"}}, {"type": "Feature", "geometry": {"type": "LineString", "coordinates": [[694727.031000161, 4375205.432691337], [694752.0573204247, 4375205.5514615495]]}, "properties": {"highway": "footway"}}, {"type": "Feature", "geometry": {"type": "LineString", "coordinates": [[694727.031000161, 4375205.432691337], [694720.9868943947, 4375210.722945409]]}, "properties": {"highway": "footway"}}, {"type": "Feature", "geometry": {"type": "LineString", "coordinates": [[694727.031000161, 4375205.432691337], [694727.2375693613, 4375178.070811467], [694727.1016322689, 4375174.9241761025], [694727.3380125737, 4375163.134735754]]}, "properties": {"highway": "footway"}}, {"type": "Feature", "geometry": {"type": "LineString", "coordinates": [[694727.031000161, 4375205.432691337], [694728.9647227138, 4375201.416265091], [694745.838742258, 4375184.947426228]]}, "properties": {"highway": "footway"}}, {"type": "Feature", "geometry": {"type": "LineString", "coordinates": [[694720.2664573803, 4375358.369320136], [694721.1396239902, 4375320.928151417]]}, "properties": {"highway": "footway"}}, {"type": "Feature", "geometry": {"type": "LineString", "coordinates": [[694908.1808860062, 4375276.533143033], [694907.7693629381, 4375317.473500918]]}, "properties": {"highway": "tertiary"}}, {"type": "Feature", "geometry": {"type": "LineString", "coordinates": [[694908.1808860062, 4375276.533143033], [694908.5401092609, 4375243.477288351]]}, "properties": {"highway": "tertiary"}}, {"type": "Feature", "geometry": {"type": "LineString", "coordinates": [[694908.1808860062, 4375276.533143033], [694917.9261501473, 4375276.656390695]]}, "properties": {"highway": "footway"}}, {"type": "Feature", "geometry": {"type": "LineString", "coordinates": [[694908.1808860062, 4375276.533143033], [694900.0777375739, 4375276.118055783]]}, "properties": {"highway": "footway"}}, {"type": "Feature", "geometry": {"type": "LineString", "coordinates": [[694824.7683871115, 4375205.637623698], [694819.2558120211, 4375205.532184663]]}, "properties": {"highway": "footway"}}, {"type": "Feature", "geometry": {"type": "LineString", "coordinates": [[694824.7683871115, 4375205.637623698], [694824.9145581019, 4375208.7178803785]]}, "properties": {"highway": "footway"}}, {"type": "Feature", "geometry": {"type": "LineString", "coordinates": [[694824.7683871115, 4375205.637623698], [694848.5210062859, 4375205.7690711655]]}, "properties": {"highway": "footway"}}, {"type": "Feature", "geometry": {"type": "LineString", "coordinates": [[694824.7312080275, 4375357.1664692275], [694842.1774321984, 4375343.255700852]]}, "properties": {"highway": "footway"}}, {"type": "Feature", "geometry": {"type": "LineString", "coordinates": [[694824.7312080275, 4375357.1664692275], [694824.4611342235, 4375352.172726411], [694824.8935533194, 4375322.006491041]]}, "properties": {"highway": "footway"}}, {"type": "Feature", "geometry": {"type": "LineString", "coordinates": [[694727.1695057976, 4375121.269090429], [694693.3746570982, 4375121.174196537]]}, "properties": {"highway": "residential"}}, {"type": "Feature", "geometry": {"type": "LineString", "coordinates": [[694727.1695057976, 4375121.269090429], [694727.2288927939, 4375116.17257854]]}, "properties": {"highway": "footway"}}, {"type": "Feature", "geometry": {"type": "LineString", "coordinates": [[694727.1695057976, 4375121.269090429], [694727.1183331453, 4375125.355093224]]}, "properties": {"highway": "footway"}}, {"type": "Feature", "geometry": {"type": "LineString", "coordinates": [[694824.1733684643, 4375275.761948018], [694853.4582901334, 4375275.888298419]]}, "properties": {"highway": "footway"}}, {"type": "Feature", "geometry": {"type": "LineString", "coordinates": [[694824.1733684643, 4375275.761948018], [694721.0394762314, 4375275.321235063]]}, "properties": {"highway": "footway"}}, {"type": "Feature", "geometry": {"type": "LineString", "coordinates": [[694824.1733684643, 4375275.761948018], [694824.8935533194, 4375322.006491041]]}, "properties": {"highway": "footway"}}, {"type": "Feature", "geometry": {"type": "LineString", "coordinates": [[694824.1733684643, 4375275.761948018], [694824.2917343602, 4375262.514540936]]}, "properties": {"highway": "footway"}}, {"type": "Feature", "geometry": {"type": "LineString", "coordinates": [[694720.9868943947, 4375210.722945409], [694727.031000161, 4375205.432691337]]}, "properties": {"highway": "footway"}}, {"type": "Feature", "geometry": {"type": "LineString", "coordinates": [[694720.9868943947, 4375210.722945409], [694721.0244886792, 4375216.410556503]]}, "properties": {"highway": "footway"}}, {"type": "Feature", "geometry": {"type": "LineString", "coordinates": [[694720.9868943947, 4375210.722945409], [694716.3608241358, 4375210.60656217]]}, "properties": {"highway": "footway"}}, {"type": "Feature", "geometry": {"type": "LineString", "coordinates": [[694968.2553469451, 4375257.021083199], [694969.7102557583, 4375255.280646968]]}, "properties": {"highway": "footway"}}, {"type": "Feature", "geometry": {"type": "LineString", "coordinates": [[694968.2553469451, 4375257.021083199], [694949.2193795415, 4375276.300555306]]}, "properties": {"highway": "footway"}}, {"type": "Feature", "geometry": {"type": "LineString", "coordinates": [[694968.2553469451, 4375257.021083199], [694965.6796430153, 4375273.538638593], [694965.6785319776, 4375277.681443683], [694967.6625172329, 4375291.82593998]]}, "properties": {"highway": "footway"}}, {"type": "Feature", "geometry": {"type": "LineString", "coordinates": [[694721.0394762314, 4375275.321235063], [694824.1733684643, 4375275.761948018]]}, "properties": {"highway": "footway"}}, {"type": "Feature", "geometry": {"type": "LineString", "coordinates": [[694721.0394762314, 4375275.321235063], [694692.4255491924, 4375275.201157123]]}, "properties": {"highway": "footway"}}, {"type": "Feature", "geometry": {"type": "LineString", "coordinates": [[694721.0394762314, 4375275.321235063], [694721.077852614, 4375250.198688888]]}, "properties": {"highway": "footway"}}, {"type": "Feature", "geometry": {"type": "LineString", "coordinates": [[694721.0394762314, 4375275.321235063], [694721.1396239902, 4375320.928151417]]}, "properties": {"highway": "footway"}}, {"type": "Feature", "geometry": {"type": "LineString", "coordinates": [[694949.2193795415, 4375276.300555306], [694942.0407115227, 4375267.534191504]]}, "properties": {"highway": "footway"}}, {"type": "Feature", "geometry": {"type": "LineString", "coordinates": [[694949.2193795415, 4375276.300555306], [694968.4558287398, 4375297.221611461]]}, "properties": {"highway": "footway"}}, {"type": "Feature", "geometry": {"type": "LineString", "coordinates": [[694949.2193795415, 4375276.300555306], [694968.2553469451, 4375257.021083199]]}, "properties": {"highway": "footway"}}, {"type": "Feature", "geometry": {"type": "LineString", "coordinates": [[694949.2193795415, 4375276.300555306], [694918.0377716447, 4375310.146165231]]}, "properties": {"highway": "footway"}}, {"type": "Feature", "geometry": {"type": "LineString", "coordinates": [[694949.2193795415, 4375276.300555306], [694917.9261501473, 4375276.656390695]]}, "properties": {"highway": "footway"}}, {"type": "Feature", "geometry": {"type": "LineString", "coordinates": [[694819.2558120211, 4375205.532184663], [694824.7683871115, 4375205.637623698]]}, "properties": {"highway": "footway"}}, {"type": "Feature", "geometry": {"type": "LineString", "coordinates": [[694819.2558120211, 4375205.532184663], [694792.6644631078, 4375205.71811936]]}, "properties": {"highway": "footway"}}, {"type": "Feature", "geometry": {"type": "LineString", "coordinates": [[694819.2558120211, 4375205.532184663], [694819.3917743787, 4375179.279187429], [694819.4514717092, 4375175.882016554], [694819.787685094, 4375142.014813016]]}, "properties": {"highway": "footway"}}, {"type": "Feature", "geometry": {"type": "LineString", "coordinates": [[694819.2558120211, 4375205.532184663], [694802.9277277187, 4375186.972736123], [694800.9953514994, 4375184.780493238]]}, "properties": {"highway": "footway"}}, {"type": "Feature", "geometry": {"type": "LineString", "coordinates": [[694910.1267919206, 4375091.976284204], [694909.812878384, 4375121.867838674]]}, "properties": {"highway": "tertiary"}}, {"type": "Feature", "geometry": {"type": "LineString", "coordinates": [[694854.4711074827, 4375100.659923496], [694854.4584693064, 4375101.503720445], [694854.249575906, 4375116.63699993]]}, "properties": {"highway": "footway"}}, {"type": "Feature", "geometry": {"type": "LineString", "coordinates": [[694727.5437911192, 4375092.711903121], [694727.2288927939, 4375116.17257854]]}, "properties": {"highway": "footway"}}, {"type": "Feature", "geometry": {"type": "LineString", "coordinates": [[694820.4897496832, 4375121.984754889], [694748.1757364826, 4375121.475507911]]}, "properties": {"highway": "residential"}}, {"type": "Feature", "geometry": {"type": "LineString", "coordinates": [[694820.4897496832, 4375121.984754889], [694819.9916761381, 4375116.818674477]]}, "properties": {"highway": "footway"}}, {"type": "Feature", "geometry": {"type": "LineString", "coordinates": [[694820.4897496832, 4375121.984754889], [694820.8995071999, 4375126.215643324]]}, "properties": {"highway": "footway"}}, {"type": "Feature", "geometry": {"type": "LineString", "coordinates": [[694901.6689431131, 4375091.630022859], [694901.5828396403, 4375116.917997438]]}, "properties": {"highway": "footway"}}, {"type": "Feature", "geometry": {"type": "LineString", "coordinates": [[694918.319529935, 4375243.612500868], [694929.8758627821, 4375254.843731696]]}, "properties": {"highway": "footway"}}, {"type": "Feature", "geometry": {"type": "LineString", "coordinates": [[694918.319529935, 4375243.612500868], [694918.0606322197, 4375265.508563627]]}, "properties": {"highway": "footway"}}, {"type": "Feature", "geometry": {"type": "LineString", "coordinates": [[694918.319529935, 4375243.612500868], [694918.7512522134, 4375207.337503769]]}, "properties": {"highway": "footway"}}, {"type": "Feature", "geometry": {"type": "LineString", "coordinates": [[694968.4558287398, 4375297.221611461], [694949.2193795415, 4375276.300555306]]}, "properties": {"highway": "footway"}}, {"type": "Feature", "geometry": {"type": "LineString", "coordinates": [[694968.4558287398, 4375297.221611461], [694982.1700294734, 4375312.272493148]]}, "properties": {"highway": "footway"}}, {"type": "Feature", "geometry": {"type": "LineString", "coordinates": [[694968.4558287398, 4375297.221611461], [694967.6625172329, 4375291.82593998]]}, "properties": {"highway": "footway"}}, {"type": "Feature", "geometry": {"type": "LineString", "coordinates": [[694996.6428337218, 4375255.548198277], [694985.0474398733, 4375255.433776944], [694969.7102557583, 4375255.280646968]]}, "properties": {"highway": "footway"}}, {"type": "Feature", "geometry": {"type": "LineString", "coordinates": [[694979.7156856095, 4375122.462240321], [694968.3849776327, 4375122.421164769]]}, "properties": {"highway": "service"}}, {"type": "Feature", "geometry": {"type": "LineString", "coordinates": [[694848.5210062859, 4375205.7690711655], [694824.7683871115, 4375205.637623698]]}, "properties": {"highway": "footway"}}, {"type": "Feature", "geometry": {"type": "LineString", "coordinates": [[694907.1373641454, 4375378.10064369], [694907.5271288349, 4375340.758332908]]}, "properties": {"highway": "tertiary"}}, {"type": "Feature", "geometry": {"type": "LineString", "coordinates": [[694819.9916761381, 4375116.818674477], [694820.4897496832, 4375121.984754889]]}, "properties": {"highway": "footway"}}, {"type": "Feature", "geometry": {"type": "LineString", "coordinates": [[694819.9916761381, 4375116.818674477], [694819.7510669788, 4375114.413554839]]}, "properties": {"highway": "footway"}}, {"type": "Feature", "geometry": {"type": "LineString", "coordinates": [[694819.9916761381, 4375116.818674477], [694854.249575906, 4375116.63699993]]}, "properties": {"highway": "footway"}}, {"type": "Feature", "geometry": {"type": "LineString", "coordinates": [[694901.5828396403, 4375116.917997438], [694854.249575906, 4375116.63699993]]}, "properties": {"highway": "footway"}}, {"type": "Feature", "geometry": {"type": "LineString", "coordinates": [[694901.5828396403, 4375116.917997438], [694901.7990569301, 4375121.99924155]]}, "properties": {"highway": "footway"}}, {"type": "Feature", "geometry": {"type": "LineString", "coordinates": [[694901.5828396403, 4375116.917997438], [694901.6689431131, 4375091.630022859]]}, "properties": {"highway": "footway"}}, {"type": "Feature", "geometry": {"type": "LineString", "coordinates": [[694819.7510669788, 4375114.413554839], [694819.9916761381, 4375116.818674477]]}, "properties": {"highway": "footway"}}, {"type": "Feature", "geometry": {"type": "LineString", "coordinates": [[694819.7510669788, 4375114.413554839], [694819.9870864986, 4375093.07227441]]}, "properties": {"highway": "footway"}}, {"type": "Feature", "geometry": {"type": "LineString", "coordinates": [[694819.7510669788, 4375114.413554839], [694727.7169565939, 4375003.062448608]]}, "properties": {"highway": "footway"}}, {"type": "Feature", "geometry": {"type": "LineString", "coordinates": [[694693.6274389605, 4375115.5716393115], [694727.2288927939, 4375116.17257854]]}, "properties": {"highway": "footway"}}, {"type": "Feature", "geometry": {"type": "LineString", "coordinates": [[694699.4864433052, 4375193.2331330115], [694716.3608241358, 4375210.60656217]]}, "properties": {"highway": "footway"}}, {"type": "Feature", "geometry": {"type": "LineString", "coordinates": [[694752.0573204247, 4375205.5514615495], [694792.6644631078, 4375205.71811936]]}, "properties": {"highway": "footway"}}, {"type": "Feature", "geometry": {"type": "LineString", "coordinates": [[694752.0573204247, 4375205.5514615495], [694727.031000161, 4375205.432691337]]}, "properties": {"highway": "footway"}}, {"type": "Feature", "geometry": {"type": "LineString", "coordinates": [[694752.0573204247, 4375205.5514615495], [694759.6999249331, 4375198.968641009]]}, "properties": {"highway": "footway"}}, {"type": "Feature", "geometry": {"type": "LineString", "coordinates": [[694792.6644631078, 4375205.71811936], [694819.2558120211, 4375205.532184663]]}, "properties": {"highway": "footway"}}, {"type": "Feature", "geometry": {"type": "LineString", "coordinates": [[694792.6644631078, 4375205.71811936], [694752.0573204247, 4375205.5514615495]]}, "properties": {"highway": "footway"}}, {"type": "Feature", "geometry": {"type": "LineString", "coordinates": [[694792.6644631078, 4375205.71811936], [694786.7280836643, 4375199.204535644]]}, "properties": {"highway": "footway"}}, {"type": "Feature", "geometry": {"type": "LineString", "coordinates": [[694773.072593503, 4375159.231919692], [694773.0757263252, 4375158.765514118]]}, "properties": {"highway": "footway"}}, {"type": "Feature", "geometry": {"type": "LineString", "coordinates": [[694800.9953514994, 4375184.780493238], [694802.9277277187, 4375186.972736123], [694819.2558120211, 4375205.532184663]]}, "properties": {"highway": "footway"}}, {"type": "Feature", "geometry": {"type": "LineString", "coordinates": [[694745.838742258, 4375184.947426228], [694728.9647227138, 4375201.416265091], [694727.031000161, 4375205.432691337]]}, "properties": {"highway": "footway"}}, {"type": "Feature", "geometry": {"type": "LineString", "coordinates": [[694841.691200532, 4375337.279118347], [694824.8935533194, 4375322.006491041]]}, "properties": {"highway": "footway"}}, {"type": "Feature", "geometry": {"type": "LineString", "coordinates": [[694842.1774321984, 4375343.255700852], [694824.7312080275, 4375357.1664692275]]}, "properties": {"highway": "footway"}}, {"type": "Feature", "geometry": {"type": "LineString", "coordinates": [[694979.7326680338, 4375119.397194271], [694977.0883733492, 4375118.142155617], [694963.8257349564, 4375117.941352723]]}, "properties": {"highway": "footway"}}, {"type": "Feature", "geometry": {"type": "LineString", "coordinates": [[694917.3540182937, 4375378.291303936], [694917.1830896472, 4375347.498981406]]}, "properties": {"highway": "footway"}}, {"type": "Feature", "geometry": {"type": "LineString", "coordinates": [[694917.9261501473, 4375276.656390695], [694918.0606322197, 4375265.508563627]]}, "properties": {"highway": "footway"}}, {"type": "Feature", "geometry": {"type": "LineString", "coordinates": [[694917.9261501473, 4375276.656390695], [694918.0377716447, 4375310.146165231]]}, "properties": {"highway": "footway"}}, {"type": "Feature", "geometry": {"type": "LineString", "coordinates": [[694917.9261501473, 4375276.656390695], [694949.2193795415, 4375276.300555306]]}, "properties": {"highway": "footway"}}, {"type": "Feature", "geometry": {"type": "LineString", "coordinates": [[694917.9261501473, 4375276.656390695], [694908.1808860062, 4375276.533143033]]}, "properties": {"highway": "footway"}}, {"type": "Feature", "geometry": {"type": "LineString", "coordinates": [[694918.7512522134, 4375207.337503769], [694918.319529935, 4375243.612500868]]}, "properties": {"highway": "footway"}}, {"type": "Feature", "geometry": {"type": "LineString", "coordinates": [[694918.7512522134, 4375207.337503769], [694919.0892899375, 4375179.223636401]]}, "properties": {"highway": "footway"}}, {"type": "Feature", "geometry": {"type": "LineString", "coordinates": [[694918.7512522134, 4375207.337503769], [694927.353438145, 4375193.748410122]]}, "properties": {"highway": "footway"}}, {"type": "Feature", "geometry": {"type": "LineString", "coordinates": [[694919.766663929, 4375121.91858006], [694925.3583676259, 4375121.95943898]]}, "properties": {"highway": "service"}}, {"type": "Feature", "geometry": {"type": "LineString", "coordinates": [[694919.766663929, 4375121.91858006], [694909.812878384, 4375121.867838674]]}, "properties": {"highway": "service"}}, {"type": "Feature", "geometry": {"type": "LineString", "coordinates": [[694919.766663929, 4375121.91858006], [694919.6039753078, 4375135.55361393]]}, "properties": {"highway": "footway"}}, {"type": "Feature", "geometry": {"type": "LineString", "coordinates": [[694919.766663929, 4375121.91858006], [694919.7816529431, 4375117.565098217]]}, "properties": {"highway": "footway"}}, {"type": "Feature", "geometry": {"type": "LineString", "coordinates": [[694918.0377716447, 4375310.146165231], [694949.2193795415, 4375276.300555306]]}, "properties": {"highway": "footway"}}, {"type": "Feature", "geometry": {"type": "LineString", "coordinates": [[694918.0377716447, 4375310.146165231], [694917.724056208, 4375322.944390555]]}, "properties": {"highway": "footway"}}, {"type": "Feature", "geometry": {"type": "LineString", "coordinates": [[694918.0377716447, 4375310.146165231], [694917.9261501473, 4375276.656390695]]}, "properties": {"highway": "footway"}}, {"type": "Feature", "geometry": {"type": "LineString", "coordinates": [[694925.3583676259, 4375121.95943898], [694956.8495780264, 4375122.308309244]]}, "properties": {"highway": "service"}}, {"type": "Feature", "geometry": {"type": "LineString", "coordinates": [[694925.3583676259, 4375121.95943898], [694919.766663929, 4375121.91858006]]}, "properties": {"highway": "service"}}, {"type": "Feature", "geometry": {"type": "LineString", "coordinates": [[694925.3583676259, 4375121.95943898], [694925.3905572947, 4375117.6063901335]]}, "properties": {"highway": "footway"}}, {"type": "Feature", "geometry": {"type": "LineString", "coordinates": [[694962.988534093, 4375058.26571043], [694960.9979506439, 4375060.092617907], [694959.3697800699, 4375062.561741111], [694925.3923682739, 4375116.851174402], [694925.3905572947, 4375117.6063901335]]}, "properties": {"highway": "footway"}}, {"type": "Feature", "geometry": {"type": "LineString", "coordinates": [[694901.7990569301, 4375121.99924155], [694854.1395668623, 4375122.032124638]]}, "properties": {"highway": "residential"}}, {"type": "Feature", "geometry": {"type": "LineString", "coordinates": [[694901.7990569301, 4375121.99924155], [694901.7879249862, 4375126.54163526]]}, "properties": {"highway": "footway"}}, {"type": "Feature", "geometry": {"type": "LineString", "coordinates": [[694901.7990569301, 4375121.99924155], [694901.5828396403, 4375116.917997438]]}, "properties": {"highway": "footway"}}, {"type": "Feature", "geometry": {"type": "LineString", "coordinates": [[694749.4557970632, 4375142.75496512], [694749.4618395797, 4375141.488945465], [694749.5419483202, 4375125.652708382]]}, "properties": {"highway": "footway"}}, {"type": "Feature", "geometry": {"type": "LineString", "coordinates": [[694791.5492090951, 4375125.588000917], [694820.8995071999, 4375126.215643324]]}, "properties": {"highway": "footway"}}, {"type": "Feature", "geometry": {"type": "LineString", "coordinates": [[694791.5492090951, 4375125.588000917], [694777.5429168586, 4375125.535402219]]}, "properties": {"highway": "footway"}}, {"type": "Feature", "geometry": {"type": "LineString", "coordinates": [[694791.5492090951, 4375125.588000917], [694791.2598382722, 4375127.5132968165], [694788.8865972123, 4375130.530146225], [694787.5013741108, 4375133.605181359], [694786.0194890936, 4375137.444151368]]}, "properties": {"highway": "footway"}}, {"type": "Feature", "geometry": {"type": "LineString", "coordinates": [[694755.594123756, 4375125.516216092], [694761.1186315508, 4375137.117413591]]}, "properties": {"highway": "footway"}}, {"type": "Feature", "geometry": {"type": "LineString", "coordinates": [[694755.594123756, 4375125.516216092], [694769.755470344, 4375125.561570168]]}, "properties": {"highway": "footway"}}, {"type": "Feature", "geometry": {"type": "LineString", "coordinates": [[694755.594123756, 4375125.516216092], [694749.5419483202, 4375125.652708382]]}, "properties": {"highway": "footway"}}, {"type": "Feature", "geometry": {"type": "LineString", "coordinates": [[694820.8995071999, 4375126.215643324], [694820.4897496832, 4375121.984754889]]}, "properties": {"highway": "footway"}}, {"type": "Feature", "geometry": {"type": "LineString", "coordinates": [[694820.8995071999, 4375126.215643324], [694826.3813759945, 4375126.175919008]]}, "properties": {"highway": "footway"}}, {"type": "Feature", "geometry": {"type": "LineString", "coordinates": [[694820.8995071999, 4375126.215643324], [694791.5492090951, 4375125.588000917]]}, "properties": {"highway": "footway"}}, {"type": "Feature", "geometry": {"type": "LineString", "coordinates": [[694820.8995071999, 4375126.215643324], [694819.9213294724, 4375128.5012312755], [694819.787685094, 4375142.014813016]]}, "properties": {"highway": "footway"}}, {"type": "Feature", "geometry": {"type": "LineString", "coordinates": [[694727.1183331453, 4375125.355093224], [694727.1695057976, 4375121.269090429]]}, "properties": {"highway": "footway"}}, {"type": "Feature", "geometry": {"type": "LineString", "coordinates": [[694727.1183331453, 4375125.355093224], [694727.300117451, 4375152.671207276]]}, "properties": {"highway": "footway"}}, {"type": "Feature", "geometry": {"type": "LineString", "coordinates": [[694727.1183331453, 4375125.355093224], [694749.5419483202, 4375125.652708382]]}, "properties": {"highway": "footway"}}, {"type": "Feature", "geometry": {"type": "LineString", "coordinates": [[694727.1183331453, 4375125.355093224], [694693.1920083686, 4375125.356852155]]}, "properties": {"highway": "footway"}}, {"type": "Feature", "geometry": {"type": "LineString", "coordinates": [[694693.1920083686, 4375125.356852155], [694727.1183331453, 4375125.355093224]]}, "properties": {"highway": "footway"}}, {"type": "Feature", "geometry": {"type": "LineString", "coordinates": [[694901.7879249862, 4375126.54163526], [694901.7990569301, 4375121.99924155]]}, "properties": {"highway": "footway"}}, {"type": "Feature", "geometry": {"type": "LineString", "coordinates": [[694901.7879249862, 4375126.54163526], [694900.8943102615, 4375221.482130772]]}, "properties": {"highway": "footway"}}, {"type": "Feature", "geometry": {"type": "LineString", "coordinates": [[694901.7879249862, 4375126.54163526], [694899.5725233763, 4375126.363674751]]}, "properties": {"highway": "footway"}}, {"type": "Feature", "geometry": {"type": "LineString", "coordinates": [[694854.249575906, 4375116.63699993], [694819.9916761381, 4375116.818674477]]}, "properties": {"highway": "footway"}}, {"type": "Feature", "geometry": {"type": "LineString", "coordinates": [[694854.249575906, 4375116.63699993], [694901.5828396403, 4375116.917997438]]}, "properties": {"highway": "footway"}}, {"type": "Feature", "geometry": {"type": "LineString", "coordinates": [[694854.249575906, 4375116.63699993], [694854.1395668623, 4375122.032124638]]}, "properties": {"highway": "footway"}}, {"type": "Feature", "geometry": {"type": "LineString", "coordinates": [[694854.249575906, 4375116.63699993], [694854.4584693064, 4375101.503720445], [694854.4711074827, 4375100.659923496]]}, "properties": {"highway": "footway"}}, {"type": "Feature", "geometry": {"type": "LineString", "coordinates": [[694919.9763176758, 4375057.560050013], [694919.7816529431, 4375117.565098217]]}, "properties": {"highway": "footway"}}, {"type": "Feature", "geometry": {"type": "LineString", "coordinates": [[694900.0777375739, 4375276.118055783], [694895.0974836862, 4375276.059284983]]}, "properties": {"highway": "footway"}}, {"type": "Feature", "geometry": {"type": "LineString", "coordinates": [[694900.0777375739, 4375276.118055783], [694899.9615626235, 4375318.998429754]]}, "properties": {"highway": "footway"}}, {"type": "Feature", "geometry": {"type": "LineString", "coordinates": [[694900.0777375739, 4375276.118055783], [694908.1808860062, 4375276.533143033]]}, "properties": {"highway": "footway"}}, {"type": "Feature", "geometry": {"type": "LineString", "coordinates": [[694900.0777375739, 4375276.118055783], [694900.6673453858, 4375243.478955442]]}, "properties": {"highway": "footway"}}, {"type": "Feature", "geometry": {"type": "LineString", "coordinates": [[694898.6797482653, 4375431.055845827], [694899.7157714139, 4375340.717114117]]}, "properties": {"highway": "footway"}}, {"type": "Feature", "geometry": {"type": "LineString", "coordinates": [[694721.1396239902, 4375320.928151417], [694721.0394762314, 4375275.321235063]]}, "properties": {"highway": "footway"}}, {"type": "Feature", "geometry": {"type": "LineString", "coordinates": [[694721.1396239902, 4375320.928151417], [694720.2664573803, 4375358.369320136]]}, "properties": {"highway": "footway"}}, {"type": "Feature", "geometry": {"type": "LineString", "coordinates": [[694721.1396239902, 4375320.928151417], [694700.7575568152, 4375320.215457346]]}, "properties": {"highway": "footway"}}, {"type": "Feature", "geometry": {"type": "LineString", "coordinates": [[694700.7575568152, 4375320.215457346], [694721.1396239902, 4375320.928151417]]}, "properties": {"highway": "footway"}}, {"type": "Feature", "geometry": {"type": "LineString", "coordinates": [[694716.3608241358, 4375210.60656217], [694699.4864433052, 4375193.2331330115]]}, "properties": {"highway": "footway"}}, {"type": "Feature", "geometry": {"type": "LineString", "coordinates": [[694716.3608241358, 4375210.60656217], [694720.9868943947, 4375210.722945409]]}, "properties": {"highway": "footway"}}, {"type": "Feature", "geometry": {"type": "LineString", "coordinates": [[694716.3608241358, 4375210.60656217], [694712.1426839549, 4375211.033568928], [694699.2987673347, 4375210.954810424]]}, "properties": {"highway": "footway"}}, {"type": "Feature", "geometry": {"type": "LineString", "coordinates": [[694699.2987673347, 4375210.954810424], [694712.1426839549, 4375211.033568928], [694716.3608241358, 4375210.60656217]]}, "properties": {"highway": "footway"}}, {"type": "Feature", "geometry": {"type": "LineString", "coordinates": [[694895.0974836862, 4375276.059284983], [694900.0777375739, 4375276.118055783]]}, "properties": {"highway": "footway"}}, {"type": "Feature", "geometry": {"type": "LineString", "coordinates": [[694895.0974836862, 4375276.059284983], [694853.4582901334, 4375275.888298419]]}, "properties": {"highway": "footway"}}, {"type": "Feature", "geometry": {"type": "LineString", "coordinates": [[694895.0974836862, 4375276.059284983], [694873.6622910314, 4375318.191807444]]}, "properties": {"highway": "footway"}}, {"type": "Feature", "geometry": {"type": "LineString", "coordinates": [[694895.0974836862, 4375276.059284983], [694880.4474065105, 4375249.64498224], [694875.8388880605, 4375243.364679927]]}, "properties": {"highway": "footway"}}, {"type": "Feature", "geometry": {"type": "LineString", "coordinates": [[694899.5725233763, 4375126.363674751], [694882.0019342068, 4375175.946195821]]}, "properties": {"highway": "footway"}}, {"type": "Feature", "geometry": {"type": "LineString", "coordinates": [[694899.5725233763, 4375126.363674751], [694901.7879249862, 4375126.54163526]]}, "properties": {"highway": "footway"}}, {"type": "Feature", "geometry": {"type": "LineString", "coordinates": [[694899.5725233763, 4375126.363674751], [694865.6062361773, 4375126.241498463]]}, "properties": {"highway": "footway"}}, {"type": "Feature", "geometry": {"type": "LineString", "coordinates": [[694854.0594572098, 4375126.239576829], [694854.1395668623, 4375122.032124638]]}, "properties": {"highway": "footway"}}, {"type": "Feature", "geometry": {"type": "LineString", "coordinates": [[694854.0594572098, 4375126.239576829], [694865.6062361773, 4375126.241498463]]}, "properties": {"highway": "footway"}}, {"type": "Feature", "geometry": {"type": "LineString", "coordinates": [[694854.0594572098, 4375126.239576829], [694854.0052104734, 4375142.065370396], [694853.9988714405, 4375143.342490346]]}, "properties": {"highway": "footway"}}, {"type": "Feature", "geometry": {"type": "LineString", "coordinates": [[694854.0594572098, 4375126.239576829], [694847.1077609413, 4375126.220066419], [694826.3813759945, 4375126.175919008]]}, "properties": {"highway": "footway"}}, {"type": "Feature", "geometry": {"type": "LineString", "coordinates": [[694882.0019342068, 4375175.946195821], [694899.5725233763, 4375126.363674751]]}, "properties": {"highway": "footway"}}, {"type": "Feature", "geometry": {"type": "LineString", "coordinates": [[694882.0019342068, 4375175.946195821], [694865.1123855399, 4375221.725160971]]}, "properties": {"highway": "footway"}}, {"type": "Feature", "geometry": {"type": "LineString", "coordinates": [[694882.0019342068, 4375175.946195821], [694865.6062361773, 4375126.241498463]]}, "properties": {"highway": "footway"}}, {"type": "Feature", "geometry": {"type": "LineString", "coordinates": [[694900.8943102615, 4375221.482130772], [694900.6673453858, 4375243.478955442]]}, "properties": {"highway": "footway"}}, {"type": "Feature", "geometry": {"type": "LineString", "coordinates": [[694900.8943102615, 4375221.482130772], [694901.7879249862, 4375126.54163526]]}, "properties": {"highway": "footway"}}, {"type": "Feature", "geometry": {"type": "LineString", "coordinates": [[694900.8943102615, 4375221.482130772], [694891.7552886622, 4375221.5407761], [694873.6578192838, 4375221.662645551], [694865.1123855399, 4375221.725160971]]}, "properties": {"highway": "['footway', 'steps']"}}, {"type": "Feature", "geometry": {"type": "LineString", "coordinates": [[694853.9988714405, 4375143.342490346], [694854.0052104734, 4375142.065370396], [694854.0594572098, 4375126.239576829]]}, "properties": {"highway": "footway"}}, {"type": "Feature", "geometry": {"type": "LineString", "coordinates": [[694848.5876794609, 4375236.614276654], [694843.3178430658, 4375236.4371826425]]}, "properties": {"highway": "footway"}}, {"type": "Feature", "geometry": {"type": "LineString", "coordinates": [[694854.1395668623, 4375122.032124638], [694826.3615758885, 4375122.176981344]]}, "properties": {"highway": "residential"}}, {"type": "Feature", "geometry": {"type": "LineString", "coordinates": [[694854.1395668623, 4375122.032124638], [694854.249575906, 4375116.63699993]]}, "properties": {"highway": "footway"}}, {"type": "Feature", "geometry": {"type": "LineString", "coordinates": [[694854.1395668623, 4375122.032124638], [694854.0594572098, 4375126.239576829]]}, "properties": {"highway": "footway"}}, {"type": "Feature", "geometry": {"type": "LineString", "coordinates": [[694824.8935533194, 4375322.006491041], [694824.1733684643, 4375275.761948018]]}, "properties": {"highway": "footway"}}, {"type": "Feature", "geometry": {"type": "LineString", "coordinates": [[694824.8935533194, 4375322.006491041], [694841.691200532, 4375337.279118347]]}, "properties": {"highway": "footway"}}, {"type": "Feature", "geometry": {"type": "LineString", "coordinates": [[694824.8935533194, 4375322.006491041], [694824.4611342235, 4375352.172726411], [694824.7312080275, 4375357.1664692275]]}, "properties": {"highway": "footway"}}, {"type": "Feature", "geometry": {"type": "LineString", "coordinates": [[694862.9806518009, 4375340.225282092], [694896.4899338922, 4375340.691413919]]}, "properties": {"highway": "footway"}}, {"type": "Feature", "geometry": {"type": "LineString", "coordinates": [[694862.9806518009, 4375340.225282092], [694869.1740317172, 4375356.685979053]]}, "properties": {"highway": "footway"}}, {"type": "Feature", "geometry": {"type": "LineString", "coordinates": [[694862.9806518009, 4375340.225282092], [694873.6622910314, 4375318.191807444]]}, "properties": {"highway": "footway"}}, {"type": "Feature", "geometry": {"type": "LineString", "coordinates": [[694907.5271288349, 4375340.758332908], [694907.1373641454, 4375378.10064369]]}, "properties": {"highway": "tertiary"}}, {"type": "Feature", "geometry": {"type": "LineString", "coordinates": [[694907.5271288349, 4375340.758332908], [694907.7693629381, 4375317.473500918]]}, "properties": {"highway": "tertiary"}}, {"type": "Feature", "geometry": {"type": "LineString", "coordinates": [[694907.5271288349, 4375340.758332908], [694899.7157714139, 4375340.717114117]]}, "properties": {"highway": "footway"}}, {"type": "Feature", "geometry": {"type": "LineString", "coordinates": [[694899.7157714139, 4375340.717114117], [694907.5271288349, 4375340.758332908]]}, "properties": {"highway": "footway"}}, {"type": "Feature", "geometry": {"type": "LineString", "coordinates": [[694899.7157714139, 4375340.717114117], [694896.4899338922, 4375340.691413919]]}, "properties": {"highway": "footway"}}, {"type": "Feature", "geometry": {"type": "LineString", "coordinates": [[694899.7157714139, 4375340.717114117], [694898.6797482653, 4375431.055845827]]}, "properties": {"highway": "footway"}}, {"type": "Feature", "geometry": {"type": "LineString", "coordinates": [[694899.7157714139, 4375340.717114117], [694899.9615626235, 4375318.998429754]]}, "properties": {"highway": "footway"}}, {"type": "Feature", "geometry": {"type": "LineString", "coordinates": [[694858.6187752591, 4375317.657546436], [694873.6622910314, 4375318.191807444]]}, "properties": {"highway": "footway"}}, {"type": "Feature", "geometry": {"type": "LineString", "coordinates": [[694907.7693629381, 4375317.473500918], [694907.5271288349, 4375340.758332908]]}, "properties": {"highway": "tertiary"}}, {"type": "Feature", "geometry": {"type": "LineString", "coordinates": [[694907.7693629381, 4375317.473500918], [694908.1808860062, 4375276.533143033]]}, "properties": {"highway": "tertiary"}}, {"type": "Feature", "geometry": {"type": "LineString", "coordinates": [[694907.7693629381, 4375317.473500918], [694899.9615626235, 4375318.998429754]]}, "properties": {"highway": "footway"}}, {"type": "Feature", "geometry": {"type": "LineString", "coordinates": [[694899.9615626235, 4375318.998429754], [694907.7693629381, 4375317.473500918]]}, "properties": {"highway": "footway"}}, {"type": "Feature", "geometry": {"type": "LineString", "coordinates": [[694899.9615626235, 4375318.998429754], [694899.7157714139, 4375340.717114117]]}, "properties": {"highway": "footway"}}, {"type": "Feature", "geometry": {"type": "LineString", "coordinates": [[694899.9615626235, 4375318.998429754], [694900.0777375739, 4375276.118055783]]}, "properties": {"highway": "footway"}}, {"type": "Feature", "geometry": {"type": "LineString", "coordinates": [[694899.9615626235, 4375318.998429754], [694884.8387037972, 4375318.53986713], [694873.6622910314, 4375318.191807444]]}, "properties": {"highway": "footway"}}, {"type": "Feature", "geometry": {"type": "LineString", "coordinates": [[694853.3808651249, 4375286.482218441], [694853.3876362306, 4375285.871515939], [694853.4582901334, 4375275.888298419]]}, "properties": {"highway": "footway"}}, {"type": "Feature", "geometry": {"type": "LineString", "coordinates": [[694853.7361028157, 4375263.144708042], [694853.7168209703, 4375263.910590484], [694853.4582901334, 4375275.888298419]]}, "properties": {"highway": "footway"}}, {"type": "Feature", "geometry": {"type": "LineString", "coordinates": [[694853.4582901334, 4375275.888298419], [694895.0974836862, 4375276.059284983]]}, "properties": {"highway": "footway"}}, {"type": "Feature", "geometry": {"type": "LineString", "coordinates": [[694853.4582901334, 4375275.888298419], [694824.1733684643, 4375275.761948018]]}, "properties": {"highway": "footway"}}, {"type": "Feature", "geometry": {"type": "LineString", "coordinates": [[694853.4582901334, 4375275.888298419], [694853.7168209703, 4375263.910590484], [694853.7361028157, 4375263.144708042]]}, "properties": {"highway": "footway"}}, {"type": "Feature", "geometry": {"type": "LineString", "coordinates": [[694853.4582901334, 4375275.888298419], [694853.3876362306, 4375285.871515939], [694853.3808651249, 4375286.482218441]]}, "properties": {"highway": "footway"}}, {"type": "Feature", "geometry": {"type": "LineString", "coordinates": [[694748.1757364826, 4375121.475507911], [694727.1695057976, 4375121.269090429]]}, "properties": {"highway": "residential"}}, {"type": "Feature", "geometry": {"type": "LineString", "coordinates": [[694748.1757364826, 4375121.475507911], [694749.5419483202, 4375125.652708382]]}, "properties": {"highway": "footway"}}, {"type": "Feature", "geometry": {"type": "LineString", "coordinates": [[694749.5419483202, 4375125.652708382], [694748.1757364826, 4375121.475507911]]}, "properties": {"highway": "footway"}}, {"type": "Feature", "geometry": {"type": "LineString", "coordinates": [[694749.5419483202, 4375125.652708382], [694755.594123756, 4375125.516216092]]}, "properties": {"highway": "footway"}}, {"type": "Feature", "geometry": {"type": "LineString", "coordinates": [[694749.5419483202, 4375125.652708382], [694727.1183331453, 4375125.355093224]]}, "properties": {"highway": "footway"}}, {"type": "Feature", "geometry": {"type": "LineString", "coordinates": [[694749.5419483202, 4375125.652708382], [694749.4618395797, 4375141.488945465], [694749.4557970632, 4375142.75496512]]}, "properties": {"highway": "footway"}}, {"type": "Feature", "geometry": {"type": "LineString", "coordinates": [[694790.1253664137, 4375157.20647008], [694788.7074179647, 4375157.137464499], [694783.7091895082, 4375151.635999118]]}, "properties": {"highway": "footway"}}, {"type": "Feature", "geometry": {"type": "LineString", "coordinates": [[694865.1123855399, 4375221.725160971], [694882.0019342068, 4375175.946195821]]}, "properties": {"highway": "footway"}}, {"type": "Feature", "geometry": {"type": "LineString", "coordinates": [[694865.1123855399, 4375221.725160971], [694863.5460362567, 4375221.741258872]]}, "properties": {"highway": "footway"}}, {"type": "Feature", "geometry": {"type": "LineString", "coordinates": [[694865.1123855399, 4375221.725160971], [694875.8388880605, 4375243.364679927]]}, "properties": {"highway": "footway"}}, {"type": "Feature", "geometry": {"type": "LineString", "coordinates": [[694865.1123855399, 4375221.725160971], [694873.6578192838, 4375221.662645551], [694891.7552886622, 4375221.5407761], [694900.8943102615, 4375221.482130772]]}, "properties": {"highway": "['footway', 'steps']"}}, {"type": "Feature", "geometry": {"type": "LineString", "coordinates": [[694863.5460362567, 4375221.741258872], [694865.1123855399, 4375221.725160971]]}, "properties": {"highway": "footway"}}, {"type": "Feature", "geometry": {"type": "LineString", "coordinates": [[694865.6062361773, 4375126.241498463], [694882.0019342068, 4375175.946195821]]}, "properties": {"highway": "footway"}}, {"type": "Feature", "geometry": {"type": "LineString", "coordinates": [[694865.6062361773, 4375126.241498463], [694899.5725233763, 4375126.363674751]]}, "properties": {"highway": "footway"}}, {"type": "Feature", "geometry": {"type": "LineString", "coordinates": [[694865.6062361773, 4375126.241498463], [694854.0594572098, 4375126.239576829]]}, "properties": {"highway": "footway"}}, {"type": "Feature", "geometry": {"type": "LineString", "coordinates": [[694873.6622910314, 4375318.191807444], [694895.0974836862, 4375276.059284983]]}, "properties": {"highway": "footway"}}, {"type": "Feature", "geometry": {"type": "LineString", "coordinates": [[694873.6622910314, 4375318.191807444], [694858.6187752591, 4375317.657546436]]}, "properties": {"highway": "footway"}}, {"type": "Feature", "geometry": {"type": "LineString", "coordinates": [[694873.6622910314, 4375318.191807444], [694862.9806518009, 4375340.225282092]]}, "properties": {"highway": "footway"}}, {"type": "Feature", "geometry": {"type": "LineString", "coordinates": [[694873.6622910314, 4375318.191807444], [694884.8387037972, 4375318.53986713], [694899.9615626235, 4375318.998429754]]}, "properties": {"highway": "footway"}}, {"type": "Feature", "geometry": {"type": "LineString", "coordinates": [[694879.6833493661, 4375387.283228198], [694896.4899338922, 4375340.691413919]]}, "properties": {"highway": "footway"}}, {"type": "Feature", "geometry": {"type": "LineString", "coordinates": [[694896.4899338922, 4375340.691413919], [694899.7157714139, 4375340.717114117]]}, "properties": {"highway": "footway"}}, {"type": "Feature", "geometry": {"type": "LineString", "coordinates": [[694896.4899338922, 4375340.691413919], [694862.9806518009, 4375340.225282092]]}, "properties": {"highway": "footway"}}, {"type": "Feature", "geometry": {"type": "LineString", "coordinates": [[694896.4899338922, 4375340.691413919], [694879.6833493661, 4375387.283228198]]}, "properties": {"highway": "footway"}}, {"type": "Feature", "geometry": {"type": "LineString", "coordinates": [[694869.1740317172, 4375356.685979053], [694862.9806518009, 4375340.225282092]]}, "properties": {"highway": "footway"}}, {"type": "Feature", "geometry": {"type": "LineString", "coordinates": [[694908.5401092609, 4375243.477288351], [694908.1808860062, 4375276.533143033]]}, "properties": {"highway": "tertiary"}}, {"type": "Feature", "geometry": {"type": "LineString", "coordinates": [[694908.5401092609, 4375243.477288351], [694900.6673453858, 4375243.478955442]]}, "properties": {"highway": "service"}}, {"type": "Feature", "geometry": {"type": "LineString", "coordinates": [[694908.5401092609, 4375243.477288351], [694908.7638220902, 4375222.635486269], [694908.7906428896, 4375220.20377578], [694909.2839221087, 4375172.257102319], [694909.812878384, 4375121.867838674]]}, "properties": {"highway": "tertiary"}}, {"type": "Feature", "geometry": {"type": "LineString", "coordinates": [[694863.5564347766, 4375243.199821895], [694875.8388880605, 4375243.364679927]]}, "properties": {"highway": "service"}}, {"type": "Feature", "geometry": {"type": "LineString", "coordinates": [[694875.8388880605, 4375243.364679927], [694865.1123855399, 4375221.725160971]]}, "properties": {"highway": "footway"}}, {"type": "Feature", "geometry": {"type": "LineString", "coordinates": [[694875.8388880605, 4375243.364679927], [694863.5564347766, 4375243.199821895]]}, "properties": {"highway": "service"}}, {"type": "Feature", "geometry": {"type": "LineString", "coordinates": [[694875.8388880605, 4375243.364679927], [694900.6673453858, 4375243.478955442]]}, "properties": {"highway": "service"}}, {"type": "Feature", "geometry": {"type": "LineString", "coordinates": [[694875.8388880605, 4375243.364679927], [694880.4474065105, 4375249.64498224], [694895.0974836862, 4375276.059284983]]}, "properties": {"highway": "footway"}}, {"type": "Feature", "geometry": {"type": "LineString", "coordinates": [[694900.6673453858, 4375243.478955442], [694875.8388880605, 4375243.364679927]]}, "properties": {"highway": "service"}}, {"type": "Feature", "geometry": {"type": "LineString", "coordinates": [[694900.6673453858, 4375243.478955442], [694908.5401092609, 4375243.477288351]]}, "properties": {"highway": "service"}}, {"type": "Feature", "geometry": {"type": "LineString", "coordinates": [[694900.6673453858, 4375243.478955442], [694900.0777375739, 4375276.118055783]]}, "properties": {"highway": "footway"}}, {"type": "Feature", "geometry": {"type": "LineString", "coordinates": [[694900.6673453858, 4375243.478955442], [694900.8943102615, 4375221.482130772]]}, "properties": {"highway": "footway"}}, {"type": "Feature", "geometry": {"type": "LineString", "coordinates": [[694826.3615758885, 4375122.176981344], [694820.4897496832, 4375121.984754889]]}, "properties": {"highway": "residential"}}, {"type": "Feature", "geometry": {"type": "LineString", "coordinates": [[694826.3615758885, 4375122.176981344], [694826.3813759945, 4375126.175919008]]}, "properties": {"highway": "service"}}, {"type": "Feature", "geometry": {"type": "LineString", "coordinates": [[694825.9437901082, 4375157.5748670865], [694826.3813759945, 4375126.175919008]]}, "properties": {"highway": "service"}}, {"type": "Feature", "geometry": {"type": "LineString", "coordinates": [[694826.3813759945, 4375126.175919008], [694825.9437901082, 4375157.5748670865]]}, "properties": {"highway": "service"}}, {"type": "Feature", "geometry": {"type": "LineString", "coordinates": [[694826.3813759945, 4375126.175919008], [694826.3615758885, 4375122.176981344]]}, "properties": {"highway": "service"}}, {"type": "Feature", "geometry": {"type": "LineString", "coordinates": [[694826.3813759945, 4375126.175919008], [694820.8995071999, 4375126.215643324]]}, "properties": {"highway": "footway"}}, {"type": "Feature", "geometry": {"type": "LineString", "coordinates": [[694826.3813759945, 4375126.175919008], [694847.1077609413, 4375126.220066419], [694854.0594572098, 4375126.239576829]]}, "properties": {"highway": "footway"}}, {"type": "Feature", "geometry": {"type": "LineString", "coordinates": [[694918.0606322197, 4375265.508563627], [694917.9261501473, 4375276.656390695]]}, "properties": {"highway": "footway"}}, {"type": "Feature", "geometry": {"type": "LineString", "coordinates": [[694918.0606322197, 4375265.508563627], [694918.319529935, 4375243.612500868]]}, "properties": {"highway": "footway"}}, {"type": "Feature", "geometry": {"type": "LineString", "coordinates": [[694918.0606322197, 4375265.508563627], [694929.8758627821, 4375254.843731696]]}, "properties": {"highway": "footway"}}, {"type": "Feature", "geometry": {"type": "LineString", "coordinates": [[694929.8758627821, 4375254.843731696], [694918.319529935, 4375243.612500868]]}, "properties": {"highway": "footway"}}, {"type": "Feature", "geometry": {"type": "LineString", "coordinates": [[694929.8758627821, 4375254.843731696], [694942.0407115227, 4375267.534191504]]}, "properties": {"highway": "footway"}}, {"type": "Feature", "geometry": {"type": "LineString", "coordinates": [[694929.8758627821, 4375254.843731696], [694918.0606322197, 4375265.508563627]]}, "properties": {"highway": "footway"}}, {"type": "Feature", "geometry": {"type": "LineString", "coordinates": [[694929.8758627821, 4375254.843731696], [694936.4732639958, 4375249.11219055], [694941.1576174834, 4375248.963611771]]}, "properties": {"highway": "footway"}}, {"type": "Feature", "geometry": {"type": "LineString", "coordinates": [[694974.5527326846, 4375249.538248938], [694969.7102557583, 4375255.280646968]]}, "properties": {"highway": "footway"}}, {"type": "Feature", "geometry": {"type": "LineString", "coordinates": [[694974.5527326846, 4375249.538248938], [694941.930933258, 4375249.005303015]]}, "properties": {"highway": "footway"}}, {"type": "Feature", "geometry": {"type": "LineString", "coordinates": [[694942.0407115227, 4375267.534191504], [694929.8758627821, 4375254.843731696]]}, "properties": {"highway": "footway"}}, {"type": "Feature", "geometry": {"type": "LineString", "coordinates": [[694942.0407115227, 4375267.534191504], [694949.2193795415, 4375276.300555306]]}, "properties": {"highway": "footway"}}, {"type": "Feature", "geometry": {"type": "LineString", "coordinates": [[694942.0407115227, 4375267.534191504], [694941.930933258, 4375249.005303015]]}, "properties": {"highway": "footway"}}, {"type": "Feature", "geometry": {"type": "LineString", "coordinates": [[694941.930933258, 4375249.005303015], [694974.5527326846, 4375249.538248938]]}, "properties": {"highway": "footway"}}, {"type": "Feature", "geometry": {"type": "LineString", "coordinates": [[694941.930933258, 4375249.005303015], [694941.1576174834, 4375248.963611771]]}, "properties": {"highway": "footway"}}, {"type": "Feature", "geometry": {"type": "LineString", "coordinates": [[694941.930933258, 4375249.005303015], [694942.0407115227, 4375267.534191504]]}, "properties": {"highway": "footway"}}, {"type": "Feature", "geometry": {"type": "LineString", "coordinates": [[694956.8495780264, 4375122.308309244], [694963.739414848, 4375122.393000348]]}, "properties": {"highway": "service"}}, {"type": "Feature", "geometry": {"type": "LineString", "coordinates": [[694956.8495780264, 4375122.308309244], [694925.3583676259, 4375121.95943898]]}, "properties": {"highway": "service"}}, {"type": "Feature", "geometry": {"type": "LineString", "coordinates": [[694956.8495780264, 4375122.308309244], [694956.9404741239, 4375125.531567085], [694957.3602028018, 4375140.636263625]]}, "properties": {"highway": "footway"}}, {"type": "Feature", "geometry": {"type": "LineString", "coordinates": [[694957.3602028018, 4375140.636263625], [694956.9404741239, 4375125.531567085], [694956.8495780264, 4375122.308309244]]}, "properties": {"highway": "footway"}}, {"type": "Feature", "geometry": {"type": "LineString", "coordinates": [[694919.6039753078, 4375135.55361393], [694919.0892899375, 4375179.223636401]]}, "properties": {"highway": "footway"}}, {"type": "Feature", "geometry": {"type": "LineString", "coordinates": [[694919.6039753078, 4375135.55361393], [694919.766663929, 4375121.91858006]]}, "properties": {"highway": "footway"}}, {"type": "Feature", "geometry": {"type": "LineString", "coordinates": [[694919.6039753078, 4375135.55361393], [694935.4377293768, 4375163.486101249]]}, "properties": {"highway": "footway"}}, {"type": "Feature", "geometry": {"type": "LineString", "coordinates": [[694935.4377293768, 4375163.486101249], [694919.6039753078, 4375135.55361393]]}, "properties": {"highway": "footway"}}, {"type": "Feature", "geometry": {"type": "LineString", "coordinates": [[694935.4377293768, 4375163.486101249], [694935.2337870519, 4375180.807551551], [694931.5005597058, 4375180.769061903], [694931.3390956682, 4375193.671081074]]}, "properties": {"highway": "footway"}}, {"type": "Feature", "geometry": {"type": "LineString", "coordinates": [[694935.4377293768, 4375163.486101249], [694935.7022649592, 4375144.100315325], [694950.1026839699, 4375144.218662738]]}, "properties": {"highway": "footway"}}, {"type": "Feature", "geometry": {"type": "LineString", "coordinates": [[694941.4321572792, 4375225.424135692], [694941.3970825466, 4375228.866356542]]}, "properties": {"highway": "footway"}}, {"type": "Feature", "geometry": {"type": "LineString", "coordinates": [[694941.4321572792, 4375225.424135692], [694941.4791249228, 4375223.559378292]]}, "properties": {"highway": "footway"}}, {"type": "Feature", "geometry": {"type": "LineString", "coordinates": [[694941.4321572792, 4375225.424135692], [694937.415196279, 4375225.378495462], [694937.6264874566, 4375207.424141847], [694931.1752588858, 4375207.350515818], [694931.3390956682, 4375193.671081074]]}, "properties": {"highway": "footway"}}, {"type": "Feature", "geometry": {"type": "LineString", "coordinates": [[694941.1576174834, 4375248.963611771], [694941.930933258, 4375249.005303015]]}, "properties": {"highway": "footway"}}, {"type": "Feature", "geometry": {"type": "LineString", "coordinates": [[694941.1576174834, 4375248.963611771], [694941.3059650079, 4375236.5832792865]]}, "properties": {"highway": "footway"}}, {"type": "Feature", "geometry": {"type": "LineString", "coordinates": [[694941.1576174834, 4375248.963611771], [694936.4732639958, 4375249.11219055], [694929.8758627821, 4375254.843731696]]}, "properties": {"highway": "footway"}}, {"type": "Feature", "geometry": {"type": "LineString", "coordinates": [[694941.3059650079, 4375236.5832792865], [694941.1576174834, 4375248.963611771]]}, "properties": {"highway": "footway"}}, {"type": "Feature", "geometry": {"type": "LineString", "coordinates": [[694941.3059650079, 4375236.5832792865], [694941.3505453432, 4375232.763667015]]}, "properties": {"highway": "footway"}}, {"type": "Feature", "geometry": {"type": "LineString", "coordinates": [[694941.3059650079, 4375236.5832792865], [694936.9703015855, 4375236.551825326]]}, "properties": {"highway": "footway"}}, {"type": "Feature", "geometry": {"type": "LineString", "coordinates": [[694941.3970825466, 4375228.866356542], [694941.3505453432, 4375232.763667015]]}, "properties": {"highway": "footway"}}, {"type": "Feature", "geometry": {"type": "LineString", "coordinates": [[694941.3970825466, 4375228.866356542], [694941.4321572792, 4375225.424135692]]}, "properties": {"highway": "footway"}}, {"type": "Feature", "geometry": {"type": "LineString", "coordinates": [[694941.3970825466, 4375228.866356542], [694936.9668298484, 4375228.83252043]]}, "properties": {"highway": "footway"}}, {"type": "Feature", "geometry": {"type": "LineString", "coordinates": [[694936.9835686478, 4375233.975384718], [694936.9703015855, 4375236.551825326]]}, "properties": {"highway": "footway"}}, {"type": "Feature", "geometry": {"type": "LineString", "coordinates": [[694936.9835686478, 4375233.975384718], [694937.424894254, 4375233.8754322985], [694937.8096638282, 4375233.6296672085], [694938.0851673565, 4375233.281189], [694938.2250498219, 4375232.851547446]]}, "properties": {"highway": "footway"}}, {"type": "Feature", "geometry": {"type": "LineString", "coordinates": [[694936.9835686478, 4375233.975384718], [694936.5716732556, 4375233.931690163], [694936.1889284921, 4375233.755448378], [694935.8863669768, 4375233.470158259], [694935.6803472734, 4375233.109552173], [694935.6047047786, 4375232.696695876]]}, "properties": {"highway": "footway"}}, {"type": "Feature", "geometry": {"type": "LineString", "coordinates": [[694936.9288852976, 4375231.363912325], [694936.9668298484, 4375228.83252043]]}, "properties": {"highway": "footway"}}, {"type": "Feature", "geometry": {"type": "LineString", "coordinates": [[694936.9288852976, 4375231.363912325], [694936.5144737, 4375231.420115497], [694936.139700509, 4375231.610598491], [694935.8481180078, 4375231.914244642], [694935.6580417021, 4375232.287088097], [694935.6047047786, 4375232.696695876]]}, "properties": {"highway": "footway"}}, {"type": "Feature", "geometry": {"type": "LineString", "coordinates": [[694936.9288852976, 4375231.363912325], [694937.3402216985, 4375231.429806387], [694937.7393251244, 4375231.639780604], [694938.0404888281, 4375231.9805695275], [694938.2021174894, 4375232.395591556], [694938.2250498219, 4375232.851547446]]}, "properties": {"highway": "footway"}}, {"type": "Feature", "geometry": {"type": "LineString", "coordinates": [[694938.2250498219, 4375232.851547446], [694941.3505453432, 4375232.763667015]]}, "properties": {"highway": "footway"}}, {"type": "Feature", "geometry": {"type": "LineString", "coordinates": [[694938.2250498219, 4375232.851547446], [694938.2021174894, 4375232.395591556], [694938.0404888281, 4375231.9805695275], [694937.7393251244, 4375231.639780604], [694937.3402216985, 4375231.429806387], [694936.9288852976, 4375231.363912325]]}, "properties": {"highway": "footway"}}, {"type": "Feature", "geometry": {"type": "LineString", "coordinates": [[694938.2250498219, 4375232.851547446], [694938.0851673565, 4375233.281189], [694937.8096638282, 4375233.6296672085], [694937.424894254, 4375233.8754322985], [694936.9835686478, 4375233.975384718]]}, "properties": {"highway": "footway"}}, {"type": "Feature", "geometry": {"type": "LineString", "coordinates": [[694935.6047047786, 4375232.696695876], [694933.4339366899, 4375232.797517567]]}, "properties": {"highway": "footway"}}, {"type": "Feature", "geometry": {"type": "LineString", "coordinates": [[694935.6047047786, 4375232.696695876], [694935.6803472734, 4375233.109552173], [694935.8863669768, 4375233.470158259], [694936.1889284921, 4375233.755448378], [694936.5716732556, 4375233.931690163], [694936.9835686478, 4375233.975384718]]}, "properties": {"highway": "footway"}}, {"type": "Feature", "geometry": {"type": "LineString", "coordinates": [[694935.6047047786, 4375232.696695876], [694935.6580417021, 4375232.287088097], [694935.8481180078, 4375231.914244642], [694936.139700509, 4375231.610598491], [694936.5144737, 4375231.420115497], [694936.9288852976, 4375231.363912325]]}, "properties": {"highway": "footway"}}, {"type": "Feature", "geometry": {"type": "LineString", "coordinates": [[694933.4339366899, 4375232.797517567], [694935.6047047786, 4375232.696695876]]}, "properties": {"highway": "footway"}}, {"type": "Feature", "geometry": {"type": "LineString", "coordinates": [[694933.4339366899, 4375232.797517567], [694933.4566309222, 4375228.821859272], [694936.9668298484, 4375228.83252043]]}, "properties": {"highway": "footway"}}, {"type": "Feature", "geometry": {"type": "LineString", "coordinates": [[694933.4339366899, 4375232.797517567], [694933.417113038, 4375236.540081209], [694936.9703015855, 4375236.551825326]]}, "properties": {"highway": "footway"}}, {"type": "Feature", "geometry": {"type": "LineString", "coordinates": [[694936.9703015855, 4375236.551825326], [694941.3059650079, 4375236.5832792865]]}, "properties": {"highway": "footway"}}, {"type": "Feature", "geometry": {"type": "LineString", "coordinates": [[694936.9703015855, 4375236.551825326], [694936.9835686478, 4375233.975384718]]}, "properties": {"highway": "footway"}}, {"type": "Feature", "geometry": {"type": "LineString", "coordinates": [[694936.9703015855, 4375236.551825326], [694933.417113038, 4375236.540081209], [694933.4339366899, 4375232.797517567]]}, "properties": {"highway": "footway"}}, {"type": "Feature", "geometry": {"type": "LineString", "coordinates": [[694941.3505453432, 4375232.763667015], [694941.3059650079, 4375236.5832792865]]}, "properties": {"highway": "footway"}}, {"type": "Feature", "geometry": {"type": "LineString", "coordinates": [[694941.3505453432, 4375232.763667015], [694941.3970825466, 4375228.866356542]]}, "properties": {"highway": "footway"}}, {"type": "Feature", "geometry": {"type": "LineString", "coordinates": [[694941.3505453432, 4375232.763667015], [694938.2250498219, 4375232.851547446]]}, "properties": {"highway": "footway"}}, {"type": "Feature", "geometry": {"type": "LineString", "coordinates": [[694936.9668298484, 4375228.83252043], [694941.3970825466, 4375228.866356542]]}, "properties": {"highway": "footway"}}, {"type": "Feature", "geometry": {"type": "LineString", "coordinates": [[694936.9668298484, 4375228.83252043], [694936.9288852976, 4375231.363912325]]}, "properties": {"highway": "footway"}}, {"type": "Feature", "geometry": {"type": "LineString", "coordinates": [[694936.9668298484, 4375228.83252043], [694933.4566309222, 4375228.821859272], [694933.4339366899, 4375232.797517567]]}, "properties": {"highway": "footway"}}, {"type": "Feature", "geometry": {"type": "LineString", "coordinates": [[694931.3390956682, 4375193.671081074], [694927.353438145, 4375193.748410122]]}, "properties": {"highway": "footway"}}, {"type": "Feature", "geometry": {"type": "LineString", "coordinates": [[694931.3390956682, 4375193.671081074], [694934.6168667685, 4375193.686993172]]}, "properties": {"highway": "footway"}}, {"type": "Feature", "geometry": {"type": "LineString", "coordinates": [[694931.3390956682, 4375193.671081074], [694931.1752588858, 4375207.350515818], [694937.6264874566, 4375207.424141847], [694937.415196279, 4375225.378495462], [694941.4321572792, 4375225.424135692]]}, "properties": {"highway": "footway"}}, {"type": "Feature", "geometry": {"type": "LineString", "coordinates": [[694931.3390956682, 4375193.671081074], [694931.5005597058, 4375180.769061903], [694935.2337870519, 4375180.807551551], [694935.4377293768, 4375163.486101249]]}, "properties": {"highway": "footway"}}, {"type": "Feature", "geometry": {"type": "LineString", "coordinates": [[694927.353438145, 4375193.748410122], [694918.7512522134, 4375207.337503769]]}, "properties": {"highway": "footway"}}, {"type": "Feature", "geometry": {"type": "LineString", "coordinates": [[694927.353438145, 4375193.748410122], [694931.3390956682, 4375193.671081074]]}, "properties": {"highway": "footway"}}, {"type": "Feature", "geometry": {"type": "LineString", "coordinates": [[694927.353438145, 4375193.748410122], [694919.0892899375, 4375179.223636401]]}, "properties": {"highway": "footway"}}, {"type": "Feature", "geometry": {"type": "LineString", "coordinates": [[694919.0892899375, 4375179.223636401], [694918.7512522134, 4375207.337503769]]}, "properties": {"highway": "footway"}}, {"type": "Feature", "geometry": {"type": "LineString", "coordinates": [[694919.0892899375, 4375179.223636401], [694919.6039753078, 4375135.55361393]]}, "properties": {"highway": "footway"}}, {"type": "Feature", "geometry": {"type": "LineString", "coordinates": [[694919.0892899375, 4375179.223636401], [694927.353438145, 4375193.748410122]]}, "properties": {"highway": "footway"}}, {"type": "Feature", "geometry": {"type": "LineString", "coordinates": [[694950.1026839699, 4375144.218662738], [694935.7022649592, 4375144.100315325], [694935.4377293768, 4375163.486101249]]}, "properties": {"highway": "footway"}}, {"type": "Feature", "geometry": {"type": "LineString", "coordinates": [[694963.739414848, 4375122.393000348], [694968.3849776327, 4375122.421164769]]}, "properties": {"highway": "service"}}, {"type": "Feature", "geometry": {"type": "LineString", "coordinates": [[694963.739414848, 4375122.393000348], [694956.8495780264, 4375122.308309244]]}, "properties": {"highway": "service"}}, {"type": "Feature", "geometry": {"type": "LineString", "coordinates": [[694963.739414848, 4375122.393000348], [694963.8257349564, 4375117.941352723]]}, "properties": {"highway": "footway"}}, {"type": "Feature", "geometry": {"type": "LineString", "coordinates": [[694970.6672284509, 4375104.574511345], [694967.3183918529, 4375104.645650559], [694965.3722049203, 4375105.052005874], [694964.0407301814, 4375106.673378662], [694963.8257349564, 4375117.941352723]]}, "properties": {"highway": "footway"}}, {"type": "Feature", "geometry": {"type": "LineString", "coordinates": [[694968.3849776327, 4375122.421164769], [694979.7156856095, 4375122.462240321]]}, "properties": {"highway": "service"}}, {"type": "Feature", "geometry": {"type": "LineString", "coordinates": [[694968.3849776327, 4375122.421164769], [694963.739414848, 4375122.393000348]]}, "properties": {"highway": "service"}}, {"type": "Feature", "geometry": {"type": "LineString", "coordinates": [[694968.3849776327, 4375122.421164769], [694979.669005792, 4375133.878843977]]}, "properties": {"highway": "footway"}}, {"type": "Feature", "geometry": {"type": "LineString", "coordinates": [[694979.669005792, 4375133.878843977], [694968.3849776327, 4375122.421164769]]}, "properties": {"highway": "footway"}}, {"type": "Feature", "geometry": {"type": "LineString", "coordinates": [[694967.6625172329, 4375291.82593998], [694989.5401343958, 4375289.189438622]]}, "properties": {"highway": "footway"}}, {"type": "Feature", "geometry": {"type": "LineString", "coordinates": [[694967.6625172329, 4375291.82593998], [694968.4558287398, 4375297.221611461]]}, "properties": {"highway": "footway"}}, {"type": "Feature", "geometry": {"type": "LineString", "coordinates": [[694967.6625172329, 4375291.82593998], [694965.6785319776, 4375277.681443683], [694965.6796430153, 4375273.538638593], [694968.2553469451, 4375257.021083199]]}, "properties": {"highway": "footway"}}, {"type": "Feature", "geometry": {"type": "LineString", "coordinates": [[694989.5401343958, 4375289.189438622], [694967.6625172329, 4375291.82593998]]}, "properties": {"highway": "footway"}}, {"type": "Feature", "geometry": {"type": "LineString", "coordinates": [[694917.724056208, 4375322.944390555], [694917.1830896472, 4375347.498981406]]}, "properties": {"highway": "footway"}}, {"type": "Feature", "geometry": {"type": "LineString", "coordinates": [[694917.724056208, 4375322.944390555], [694918.0377716447, 4375310.146165231]]}, "properties": {"highway": "footway"}}, {"type": "Feature", "geometry": {"type": "LineString", "coordinates": [[694917.724056208, 4375322.944390555], [694939.0456761487, 4375323.248156569], [694941.8754304649, 4375323.286111108]]}, "properties": {"highway": "footway"}}, {"type": "Feature", "geometry": {"type": "LineString", "coordinates": [[694941.8754304649, 4375323.286111108], [694939.0456761487, 4375323.248156569], [694917.724056208, 4375322.944390555]]}, "properties": {"highway": "footway"}}, {"type": "Feature", "geometry": {"type": "LineString", "coordinates": [[694944.1240045689, 4375347.422269645], [694917.1830896472, 4375347.498981406]]}, "properties": {"highway": "footway"}}, {"type": "Feature", "geometry": {"type": "LineString", "coordinates": [[694917.1830896472, 4375347.498981406], [694944.1240045689, 4375347.422269645]]}, "properties": {"highway": "footway"}}, {"type": "Feature", "geometry": {"type": "LineString", "coordinates": [[694917.1830896472, 4375347.498981406], [694917.3540182937, 4375378.291303936]]}, "properties": {"highway": "footway"}}, {"type": "Feature", "geometry": {"type": "LineString", "coordinates": [[694917.1830896472, 4375347.498981406], [694917.724056208, 4375322.944390555]]}, "properties": {"highway": "footway"}}, {"type": "Feature", "geometry": {"type": "LineString", "coordinates": [[694824.9145581019, 4375208.7178803785], [694824.7683871115, 4375205.637623698]]}, "properties": {"highway": "footway"}}, {"type": "Feature", "geometry": {"type": "LineString", "coordinates": [[694824.9145581019, 4375208.7178803785], [694843.3008122579, 4375234.037689548]]}, "properties": {"highway": "footway"}}, {"type": "Feature", "geometry": {"type": "LineString", "coordinates": [[694824.9145581019, 4375208.7178803785], [694824.7800565972, 4375235.9372064425], [694824.2917343602, 4375262.514540936]]}, "properties": {"highway": "footway"}}, {"type": "Feature", "geometry": {"type": "LineString", "coordinates": [[694843.3008122579, 4375234.037689548], [694824.9145581019, 4375208.7178803785]]}, "properties": {"highway": "footway"}}, {"type": "Feature", "geometry": {"type": "LineString", "coordinates": [[694843.3008122579, 4375234.037689548], [694843.3178430658, 4375236.4371826425]]}, "properties": {"highway": "footway"}}, {"type": "Feature", "geometry": {"type": "LineString", "coordinates": [[694843.3008122579, 4375234.037689548], [694843.4719892018, 4375224.845585546]]}, "properties": {"highway": "footway"}}, {"type": "Feature", "geometry": {"type": "LineString", "coordinates": [[694843.3178430658, 4375236.4371826425], [694848.5876794609, 4375236.614276654]]}, "properties": {"highway": "footway"}}, {"type": "Feature", "geometry": {"type": "LineString", "coordinates": [[694843.3178430658, 4375236.4371826425], [694843.3008122579, 4375234.037689548]]}, "properties": {"highway": "footway"}}, {"type": "Feature", "geometry": {"type": "LineString", "coordinates": [[694843.3178430658, 4375236.4371826425], [694843.3369818144, 4375239.43649491], [694824.2917343602, 4375262.514540936]]}, "properties": {"highway": "footway"}}, {"type": "Feature", "geometry": {"type": "LineString", "coordinates": [[694824.2917343602, 4375262.514540936], [694824.1733684643, 4375275.761948018]]}, "properties": {"highway": "footway"}}, {"type": "Feature", "geometry": {"type": "LineString", "coordinates": [[694824.2917343602, 4375262.514540936], [694824.7800565972, 4375235.9372064425], [694824.9145581019, 4375208.7178803785]]}, "properties": {"highway": "footway"}}, {"type": "Feature", "geometry": {"type": "LineString", "coordinates": [[694824.2917343602, 4375262.514540936], [694843.3369818144, 4375239.43649491], [694843.3178430658, 4375236.4371826425]]}, "properties": {"highway": "footway"}}, {"type": "Feature", "geometry": {"type": "LineString", "coordinates": [[694934.6168667685, 4375193.686993172], [694931.3390956682, 4375193.671081074]]}, "properties": {"highway": "footway"}}, {"type": "Feature", "geometry": {"type": "LineString", "coordinates": [[694769.755470344, 4375125.561570168], [694777.5429168586, 4375125.535402219]]}, "properties": {"highway": "footway"}}, {"type": "Feature", "geometry": {"type": "LineString", "coordinates": [[694769.755470344, 4375125.561570168], [694755.594123756, 4375125.516216092]]}, "properties": {"highway": "footway"}}, {"type": "Feature", "geometry": {"type": "LineString", "coordinates": [[694769.755470344, 4375125.561570168], [694765.9592563146, 4375128.709220013], [694764.1627594184, 4375131.374065911], [694762.8756633983, 4375133.285363159], [694761.1186315508, 4375137.117413591]]}, "properties": {"highway": "footway"}}, {"type": "Feature", "geometry": {"type": "LineString", "coordinates": [[694777.5429168586, 4375125.535402219], [694791.5492090951, 4375125.588000917]]}, "properties": {"highway": "footway"}}, {"type": "Feature", "geometry": {"type": "LineString", "coordinates": [[694777.5429168586, 4375125.535402219], [694769.755470344, 4375125.561570168]]}, "properties": {"highway": "footway"}}, {"type": "Feature", "geometry": {"type": "LineString", "coordinates": [[694777.5429168586, 4375125.535402219], [694780.5705258232, 4375128.654848161], [694783.0989076968, 4375131.439635598], [694784.5682470854, 4375134.253305893], [694786.0194890936, 4375137.444151368]]}, "properties": {"highway": "footway"}}, {"type": "Feature", "geometry": {"type": "LineString", "coordinates": [[694773.0757263252, 4375158.765514118], [694773.072593503, 4375159.231919692]]}, "properties": {"highway": "footway"}}, {"type": "Feature", "geometry": {"type": "LineString", "coordinates": [[694773.0757263252, 4375158.765514118], [694767.7333184347, 4375157.7092137085]]}, "properties": {"highway": "footway"}}, {"type": "Feature", "geometry": {"type": "LineString", "coordinates": [[694773.0757263252, 4375158.765514118], [694777.8268009252, 4375158.018746857]]}, "properties": {"highway": "footway"}}, {"type": "Feature", "geometry": {"type": "LineString", "coordinates": [[694777.8268009252, 4375158.018746857], [694773.0757263252, 4375158.765514118]]}, "properties": {"highway": "footway"}}, {"type": "Feature", "geometry": {"type": "LineString", "coordinates": [[694777.8268009252, 4375158.018746857], [694782.0209034008, 4375154.103642373], [694783.7091895082, 4375151.635999118]]}, "properties": {"highway": "footway"}}, {"type": "Feature", "geometry": {"type": "LineString", "coordinates": [[694777.8268009252, 4375158.018746857], [694777.1549012207, 4375160.101018222], [694773.2686973418, 4375167.167089654], [694767.9147082437, 4375159.390900664], [694767.7333184347, 4375157.7092137085]]}, "properties": {"highway": "footway"}}, {"type": "Feature", "geometry": {"type": "LineString", "coordinates": [[694789.0945276342, 4375142.09752947], [694785.9049601951, 4375141.995045815]]}, "properties": {"highway": "footway"}}, {"type": "Feature", "geometry": {"type": "LineString", "coordinates": [[694785.9049601951, 4375141.995045815], [694786.0194890936, 4375137.444151368]]}, "properties": {"highway": "footway"}}, {"type": "Feature", "geometry": {"type": "LineString", "coordinates": [[694785.9049601951, 4375141.995045815], [694789.0945276342, 4375142.09752947]]}, "properties": {"highway": "footway"}}, {"type": "Feature", "geometry": {"type": "LineString", "coordinates": [[694785.9049601951, 4375141.995045815], [694784.6003102162, 4375149.048333601], [694783.7091895082, 4375151.635999118]]}, "properties": {"highway": "footway"}}, {"type": "Feature", "geometry": {"type": "LineString", "coordinates": [[694786.0194890936, 4375137.444151368], [694785.9049601951, 4375141.995045815]]}, "properties": {"highway": "footway"}}, {"type": "Feature", "geometry": {"type": "LineString", "coordinates": [[694786.0194890936, 4375137.444151368], [694784.5682470854, 4375134.253305893], [694783.0989076968, 4375131.439635598], [694780.5705258232, 4375128.654848161], [694777.5429168586, 4375125.535402219]]}, "properties": {"highway": "footway"}}, {"type": "Feature", "geometry": {"type": "LineString", "coordinates": [[694786.0194890936, 4375137.444151368], [694787.5013741108, 4375133.605181359], [694788.8865972123, 4375130.530146225], [694791.2598382722, 4375127.5132968165], [694791.5492090951, 4375125.588000917]]}, "properties": {"highway": "footway"}}, {"type": "Feature", "geometry": {"type": "LineString", "coordinates": [[694761.1186315508, 4375137.117413591], [694755.594123756, 4375125.516216092]]}, "properties": {"highway": "footway"}}, {"type": "Feature", "geometry": {"type": "LineString", "coordinates": [[694761.1186315508, 4375137.117413591], [694760.9738522851, 4375141.845254629], [694762.789999785, 4375148.999287744], [694765.1465454788, 4375154.167701209], [694767.7333184347, 4375157.7092137085]]}, "properties": {"highway": "footway"}}, {"type": "Feature", "geometry": {"type": "LineString", "coordinates": [[694761.1186315508, 4375137.117413591], [694762.8756633983, 4375133.285363159], [694764.1627594184, 4375131.374065911], [694765.9592563146, 4375128.709220013], [694769.755470344, 4375125.561570168]]}, "properties": {"highway": "footway"}}, {"type": "Feature", "geometry": {"type": "LineString", "coordinates": [[694767.7333184347, 4375157.7092137085], [694773.0757263252, 4375158.765514118]]}, "properties": {"highway": "footway"}}, {"type": "Feature", "geometry": {"type": "LineString", "coordinates": [[694767.7333184347, 4375157.7092137085], [694767.9147082437, 4375159.390900664], [694773.2686973418, 4375167.167089654], [694777.1549012207, 4375160.101018222], [694777.8268009252, 4375158.018746857]]}, "properties": {"highway": "footway"}}, {"type": "Feature", "geometry": {"type": "LineString", "coordinates": [[694767.7333184347, 4375157.7092137085], [694765.1465454788, 4375154.167701209], [694762.789999785, 4375148.999287744], [694760.9738522851, 4375141.845254629], [694761.1186315508, 4375137.117413591]]}, "properties": {"highway": "footway"}}, {"type": "Feature", "geometry": {"type": "LineString", "coordinates": [[694721.0244886792, 4375216.410556503], [694720.9868943947, 4375210.722945409]]}, "properties": {"highway": "footway"}}, {"type": "Feature", "geometry": {"type": "LineString", "coordinates": [[694721.0244886792, 4375216.410556503], [694720.7046620338, 4375232.884954341], [694721.077852614, 4375250.198688888]]}, "properties": {"highway": "footway"}}, {"type": "Feature", "geometry": {"type": "LineString", "coordinates": [[694721.0244886792, 4375216.410556503], [694702.7663251379, 4375232.1560032], [694721.077852614, 4375250.198688888]]}, "properties": {"highway": "footway"}}, {"type": "Feature", "geometry": {"type": "LineString", "coordinates": [[694721.077852614, 4375250.198688888], [694721.0394762314, 4375275.321235063]]}, "properties": {"highway": "footway"}}, {"type": "Feature", "geometry": {"type": "LineString", "coordinates": [[694721.077852614, 4375250.198688888], [694720.7046620338, 4375232.884954341], [694721.0244886792, 4375216.410556503]]}, "properties": {"highway": "footway"}}, {"type": "Feature", "geometry": {"type": "LineString", "coordinates": [[694721.077852614, 4375250.198688888], [694702.7663251379, 4375232.1560032], [694721.0244886792, 4375216.410556503]]}, "properties": {"highway": "footway"}}, {"type": "Feature", "geometry": {"type": "LineString", "coordinates": [[694719.5246511399, 4375152.564444159], [694720.7803417861, 4375152.584927863], [694727.300117451, 4375152.671207276]]}, "properties": {"highway": "footway"}}, {"type": "Feature", "geometry": {"type": "LineString", "coordinates": [[694727.300117451, 4375152.671207276], [694727.1183331453, 4375125.355093224]]}, "properties": {"highway": "footway"}}, {"type": "Feature", "geometry": {"type": "LineString", "coordinates": [[694727.300117451, 4375152.671207276], [694727.3380125737, 4375163.134735754]]}, "properties": {"highway": "footway"}}, {"type": "Feature", "geometry": {"type": "LineString", "coordinates": [[694727.300117451, 4375152.671207276], [694720.7803417861, 4375152.584927863], [694719.5246511399, 4375152.564444159]]}, "properties": {"highway": "footway"}}, {"type": "Feature", "geometry": {"type": "LineString", "coordinates": [[694741.9575318502, 4375163.091609532], [694727.3380125737, 4375163.134735754]]}, "properties": {"highway": "footway"}}, {"type": "Feature", "geometry": {"type": "LineString", "coordinates": [[694727.3380125737, 4375163.134735754], [694741.9575318502, 4375163.091609532]]}, "properties": {"highway": "footway"}}, {"type": "Feature", "geometry": {"type": "LineString", "coordinates": [[694727.3380125737, 4375163.134735754], [694727.300117451, 4375152.671207276]]}, "properties": {"highway": "footway"}}, {"type": "Feature", "geometry": {"type": "LineString", "coordinates": [[694727.3380125737, 4375163.134735754], [694727.1016322689, 4375174.9241761025], [694727.2375693613, 4375178.070811467], [694727.031000161, 4375205.432691337]]}, "properties": {"highway": "footway"}}, {"type": "Feature", "geometry": {"type": "LineString", "coordinates": [[694727.2288927939, 4375116.17257854], [694727.5437911192, 4375092.711903121]]}, "properties": {"highway": "footway"}}, {"type": "Feature", "geometry": {"type": "LineString", "coordinates": [[694727.2288927939, 4375116.17257854], [694727.1695057976, 4375121.269090429]]}, "properties": {"highway": "footway"}}, {"type": "Feature", "geometry": {"type": "LineString", "coordinates": [[694727.2288927939, 4375116.17257854], [694693.6274389605, 4375115.5716393115]]}, "properties": {"highway": "footway"}}, {"type": "Feature", "geometry": {"type": "LineString", "coordinates": [[694966.5168934687, 4375224.589889423], [694978.4143332153, 4375225.011772596]]}, "properties": {"highway": "footway"}}, {"type": "Feature", "geometry": {"type": "LineString", "coordinates": [[694978.4143332153, 4375225.011772596], [694966.5168934687, 4375224.589889423]]}, "properties": {"highway": "footway"}}, {"type": "Feature", "geometry": {"type": "LineString", "coordinates": [[694979.2477141808, 4375165.289339622], [694966.8241945875, 4375165.254053449]]}, "properties": {"highway": "footway"}}, {"type": "Feature", "geometry": {"type": "LineString", "coordinates": [[694966.8241945875, 4375165.254053449], [694979.2477141808, 4375165.289339622]]}, "properties": {"highway": "footway"}}, {"type": "Feature", "geometry": {"type": "LineString", "coordinates": [[694783.7091895082, 4375151.635999118], [694784.6003102162, 4375149.048333601], [694785.9049601951, 4375141.995045815]]}, "properties": {"highway": "footway"}}, {"type": "Feature", "geometry": {"type": "LineString", "coordinates": [[694783.7091895082, 4375151.635999118], [694782.0209034008, 4375154.103642373], [694777.8268009252, 4375158.018746857]]}, "properties": {"highway": "footway"}}, {"type": "Feature", "geometry": {"type": "LineString", "coordinates": [[694783.7091895082, 4375151.635999118], [694788.7074179647, 4375157.137464499], [694790.1253664137, 4375157.20647008]]}, "properties": {"highway": "footway"}}, {"type": "Feature", "geometry": {"type": "LineString", "coordinates": [[694759.6999249331, 4375198.968641009], [694752.0573204247, 4375205.5514615495]]}, "properties": {"highway": "footway"}}, {"type": "Feature", "geometry": {"type": "LineString", "coordinates": [[694759.6999249331, 4375198.968641009], [694759.709240362, 4375185.26311982]]}, "properties": {"highway": "footway"}}, {"type": "Feature", "geometry": {"type": "LineString", "coordinates": [[694759.6999249331, 4375198.968641009], [694767.527304138, 4375192.223875413], [694773.0794153963, 4375188.365154267]]}, "properties": {"highway": "footway"}}, {"type": "Feature", "geometry": {"type": "LineString", "coordinates": [[694759.7093197627, 4375183.208369182], [694759.709240362, 4375185.26311982]]}, "properties": {"highway": "footway"}}, {"type": "Feature", "geometry": {"type": "LineString", "coordinates": [[694786.9774583853, 4375183.483620257], [694786.9415803315, 4375185.593004274]]}, "properties": {"highway": "footway"}}, {"type": "Feature", "geometry": {"type": "LineString", "coordinates": [[694786.7280836643, 4375199.204535644], [694792.6644631078, 4375205.71811936]]}, "properties": {"highway": "footway"}}, {"type": "Feature", "geometry": {"type": "LineString", "coordinates": [[694786.7280836643, 4375199.204535644], [694779.6867775421, 4375191.807929144], [694773.0794153963, 4375188.365154267]]}, "properties": {"highway": "footway"}}, {"type": "Feature", "geometry": {"type": "LineString", "coordinates": [[694786.7280836643, 4375199.204535644], [694786.9087140317, 4375187.924599565], [694786.9415803315, 4375185.593004274]]}, "properties": {"highway": "footway"}}, {"type": "Feature", "geometry": {"type": "LineString", "coordinates": [[694843.4719892018, 4375224.845585546], [694843.3008122579, 4375234.037689548]]}, "properties": {"highway": "footway"}}, {"type": "Feature", "geometry": {"type": "LineString", "coordinates": [[694773.0418951662, 4375184.04367568], [694773.0502523268, 4375185.421125738]]}, "properties": {"highway": "footway"}}, {"type": "Feature", "geometry": {"type": "LineString", "coordinates": [[694773.0794153963, 4375188.365154267], [694773.0502523268, 4375185.421125738]]}, "properties": {"highway": "footway"}}, {"type": "Feature", "geometry": {"type": "LineString", "coordinates": [[694773.0794153963, 4375188.365154267], [694767.527304138, 4375192.223875413], [694759.6999249331, 4375198.968641009]]}, "properties": {"highway": "footway"}}, {"type": "Feature", "geometry": {"type": "LineString", "coordinates": [[694773.0794153963, 4375188.365154267], [694779.6867775421, 4375191.807929144], [694786.7280836643, 4375199.204535644]]}, "properties": {"highway": "footway"}}, {"type": "Feature", "geometry": {"type": "LineString", "coordinates": [[694814.8506205976, 4375141.9460794665], [694815.3407478626, 4375141.958415979], [694819.787685094, 4375142.014813016]]}, "properties": {"highway": "footway"}}, {"type": "Feature", "geometry": {"type": "LineString", "coordinates": [[694819.787685094, 4375142.014813016], [694819.9213294724, 4375128.5012312755], [694820.8995071999, 4375126.215643324]]}, "properties": {"highway": "footway"}}, {"type": "Feature", "geometry": {"type": "LineString", "coordinates": [[694819.787685094, 4375142.014813016], [694819.4514717092, 4375175.882016554], [694819.3917743787, 4375179.279187429], [694819.2558120211, 4375205.532184663]]}, "properties": {"highway": "footway"}}, {"type": "Feature", "geometry": {"type": "LineString", "coordinates": [[694819.787685094, 4375142.014813016], [694815.3407478626, 4375141.958415979], [694814.8506205976, 4375141.9460794665]]}, "properties": {"highway": "footway"}}, {"type": "Feature", "geometry": {"type": "LineString", "coordinates": [[694969.7102557583, 4375255.280646968], [694974.5527326846, 4375249.538248938]]}, "properties": {"highway": "footway"}}, {"type": "Feature", "geometry": {"type": "LineString", "coordinates": [[694969.7102557583, 4375255.280646968], [694968.2553469451, 4375257.021083199]]}, "properties": {"highway": "footway"}}, {"type": "Feature", "geometry": {"type": "LineString", "coordinates": [[694969.7102557583, 4375255.280646968], [694985.0474398733, 4375255.433776944], [694996.6428337218, 4375255.548198277]]}, "properties": {"highway": "footway"}}, {"type": "Feature", "geometry": {"type": "LineString", "coordinates": [[694919.7816529431, 4375117.565098217], [694919.766663929, 4375121.91858006]]}, "properties": {"highway": "footway"}}, {"type": "Feature", "geometry": {"type": "LineString", "coordinates": [[694919.7816529431, 4375117.565098217], [694919.9763176758, 4375057.560050013]]}, "properties": {"highway": "footway"}}, {"type": "Feature", "geometry": {"type": "LineString", "coordinates": [[694919.7816529431, 4375117.565098217], [694925.3905572947, 4375117.6063901335]]}, "properties": {"highway": "footway"}}, {"type": "Feature", "geometry": {"type": "LineString", "coordinates": [[694925.3905572947, 4375117.6063901335], [694925.3583676259, 4375121.95943898]]}, "properties": {"highway": "footway"}}, {"type": "Feature", "geometry": {"type": "LineString", "coordinates": [[694925.3905572947, 4375117.6063901335], [694963.8257349564, 4375117.941352723]]}, "properties": {"highway": "footway"}}, {"type": "Feature", "geometry": {"type": "LineString", "coordinates": [[694925.3905572947, 4375117.6063901335], [694919.7816529431, 4375117.565098217]]}, "properties": {"highway": "footway"}}, {"type": "Feature", "geometry": {"type": "LineString", "coordinates": [[694925.3905572947, 4375117.6063901335], [694925.3923682739, 4375116.851174402], [694959.3697800699, 4375062.561741111], [694960.9979506439, 4375060.092617907], [694962.988534093, 4375058.26571043]]}, "properties": {"highway": "footway"}}, {"type": "Feature", "geometry": {"type": "LineString", "coordinates": [[694963.8257349564, 4375117.941352723], [694963.739414848, 4375122.393000348]]}, "properties": {"highway": "footway"}}, {"type": "Feature", "geometry": {"type": "LineString", "coordinates": [[694963.8257349564, 4375117.941352723], [694925.3905572947, 4375117.6063901335]]}, "properties": {"highway": "footway"}}, {"type": "Feature", "geometry": {"type": "LineString", "coordinates": [[694963.8257349564, 4375117.941352723], [694964.0407301814, 4375106.673378662], [694965.3722049203, 4375105.052005874], [694967.3183918529, 4375104.645650559], [694970.6672284509, 4375104.574511345]]}, "properties": {"highway": "footway"}}, {"type": "Feature", "geometry": {"type": "LineString", "coordinates": [[694963.8257349564, 4375117.941352723], [694977.0883733492, 4375118.142155617], [694979.7326680338, 4375119.397194271]]}, "properties": {"highway": "footway"}}, {"type": "Feature", "geometry": {"type": "LineString", "coordinates": [[694773.0502523268, 4375185.421125738], [694773.0794153963, 4375188.365154267]]}, "properties": {"highway": "footway"}}, {"type": "Feature", "geometry": {"type": "LineString", "coordinates": [[694773.0502523268, 4375185.421125738], [694773.0418951662, 4375184.04367568]]}, "properties": {"highway": "footway"}}, {"type": "Feature", "geometry": {"type": "LineString", "coordinates": [[694773.0502523268, 4375185.421125738], [694781.8924825257, 4375185.532577255], [694786.9415803315, 4375185.593004274]]}, "properties": {"highway": "footway"}}, {"type": "Feature", "geometry": {"type": "LineString", "coordinates": [[694773.0502523268, 4375185.421125738], [694764.7239429206, 4375185.32266686], [694759.709240362, 4375185.26311982]]}, "properties": {"highway": "footway"}}, {"type": "Feature", "geometry": {"type": "LineString", "coordinates": [[694759.709240362, 4375185.26311982], [694759.6999249331, 4375198.968641009]]}, "properties": {"highway": "footway"}}, {"type": "Feature", "geometry": {"type": "LineString", "coordinates": [[694759.709240362, 4375185.26311982], [694759.7093197627, 4375183.208369182]]}, "properties": {"highway": "footway"}}, {"type": "Feature", "geometry": {"type": "LineString", "coordinates": [[694759.709240362, 4375185.26311982], [694756.6644720385, 4375185.2198245665]]}, "properties": {"highway": "footway"}}, {"type": "Feature", "geometry": {"type": "LineString", "coordinates": [[694759.709240362, 4375185.26311982], [694764.7239429206, 4375185.32266686], [694773.0502523268, 4375185.421125738]]}, "properties": {"highway": "footway"}}, {"type": "Feature", "geometry": {"type": "LineString", "coordinates": [[694786.9415803315, 4375185.593004274], [694786.9774583853, 4375183.483620257]]}, "properties": {"highway": "footway"}}, {"type": "Feature", "geometry": {"type": "LineString", "coordinates": [[694786.9415803315, 4375185.593004274], [694790.0812138475, 4375185.627592144]]}, "properties": {"highway": "footway"}}, {"type": "Feature", "geometry": {"type": "LineString", "coordinates": [[694786.9415803315, 4375185.593004274], [694786.9087140317, 4375187.924599565], [694786.7280836643, 4375199.204535644]]}, "properties": {"highway": "footway"}}, {"type": "Feature", "geometry": {"type": "LineString", "coordinates": [[694786.9415803315, 4375185.593004274], [694781.8924825257, 4375185.532577255], [694773.0502523268, 4375185.421125738]]}, "properties": {"highway": "footway"}}, {"type": "Feature", "geometry": {"type": "LineString", "coordinates": [[694790.0812138475, 4375185.627592144], [694786.9415803315, 4375185.593004274]]}, "properties": {"highway": "footway"}}, {"type": "Feature", "geometry": {"type": "LineString", "coordinates": [[694756.6644720385, 4375185.2198245665], [694759.709240362, 4375185.26311982]]}, "properties": {"highway": "footway"}}, {"type": "Feature", "geometry": {"type": "LineString", "coordinates": [[694941.4791249228, 4375223.559378292], [694941.4321572792, 4375225.424135692]]}, "properties": {"highway": "footway"}}]}